{"branch_id":"BR-00001","store_type":"Hipermercado","size_m2":3000,"category":"Electrónica","subcategory":"Gadgets","country":"Dominican Republic","city":"La Romana","address":"Nicole Prairie 57, La Romana, Dominican Republic","phone":"+1-809 690910976","manager":"Ester Vaquero Suarez","opening_hours":"Lunes a Viernes, 9:00–18:00","services":"Reparaciones, Logística, Soporte técnico, Entrega y recogida"}
{"branch_id":"BR-00002","store_type":"Hipermercado","size_m2":3000,"category":"Tecnología","subcategory":"Ciberseguridad","country":"Dominican Republic","city":"La Romana","address":"Joel Forge 15, La Romana, Dominican Republic","phone":"+1-809 628506321","manager":"Candelario Gallart Camps","opening_hours":"Lunes a Sábado, 10:00–20:00","services":"Atención al cliente, Entrega y recogida"}
{"branch_id":"BR-00003","store_type":"Supermercado","size_m2":1500,"category":"Cuidado Personal","subcategory":"Cosméticos","country":"Dominican Republic","city":"La Romana","address":"Macdonald Estates 172, La Romana, Dominican Republic","phone":"+1-809 666528069","manager":"Porfirio Valenciano Pujadas","opening_hours":"Todos los días, 8:00–22:00","services":"Reparaciones, Soporte técnico"}
{"branch_id":"BR-00004","store_type":"Supermercado","size_m2":1500,"category":"Hogar y Decoración","subcategory":"Iluminación","country":"Dominican Republic","city":"La Romana","address":"John Way 12, La Romana, Dominican Republic","phone":"+1-809 609531452","manager":"Zaira Escrivá Guillén","opening_hours":"Martes a Domingo, 11:00–19:00","services":"Soporte técnico, Logística, Entrega y recogida, Consultoría"}
{"branch_id":"BR-00005","store_type":"Supermercado","size_m2":1500,"category":"Productos de Limpieza","subcategory":"Ambientadores","country":"Dominican Republic","city":"La Romana","address":"Griffin Walk 45, La Romana, Dominican Republic","phone":"+1-809 633240071","manager":"Carina Román Medina","opening_hours":"Martes a Domingo, 11:00–19:00","services":"Reparaciones, Ventas, Entrega y recogida, Soporte técnico"}
{"branch_id":"BR-00006","store_type":"Supermercado","size_m2":1500,"category":"Hogar y Decoración","subcategory":"Textiles","country":"Dominican Republic","city":"La Romana","address":"Joseph Path 156, La Romana, Dominican Republic","phone":"+1-809 697986808","manager":"Urbano Santana Téllez","opening_hours":"Martes a Domingo, 11:00–19:00","services":"Soporte técnico, Ventas, Reparaciones, Logística"}
{"branch_id":"BR-00007","store_type":"Supermercado","size_m2":1500,"category":"Cuidado Personal","subcategory":"Nutrición","country":"Dominican Republic","city":"La Romana","address":"Elizabeth Crescent 162, La Romana, Dominican Republic","phone":"+1-809 662588037","manager":"Lucila Carro-Collado","opening_hours":"Martes a Domingo, 11:00–19:00","services":"Entrega y recogida, Soporte técnico, Atención al cliente"}
{"branch_id":"BR-00008","store_type":"Supermercado","size_m2":1500,"category":"Productos de Limpieza","subcategory":"Detergentes","country":"Dominican Republic","city":"La Romana","address":"Lance Light 31, La Romana, Dominican Republic","phone":"+1-809 600623454","manager":"Candelario del Lledó","opening_hours":"Lunes a Viernes, 9:00–18:00","services":"Reparaciones, Entrega y recogida"}
{"branch_id":"BR-00009","store_type":"Supermercado","size_m2":1500,"category":"Cuidado Personal","subcategory":"Nutrición","country":"Dominican Republic","city":"La Romana","address":"Christine Stravenue 184, La Romana, Dominican Republic","phone":"+1-809 652055878","manager":"Lázaro Moliner Lara","opening_hours":"Martes a Domingo, 11:00–19:00","services":"Entrega y recogida, Ventas, Consultoría, Reparaciones"}
{"branch_id":"BR-00010","store_type":"Supermercado","size_m2":1500,"category":"Productos de Limpieza","subcategory":"Escobas y utensilios","country":"Dominican Republic","city":"La Romana","address":"James Streets 159, La Romana, Dominican Republic","phone":"+1-809 620536683","manager":"Nidia Calzada","opening_hours":"Todos los días, 8:00–22:00","services":"Atención al cliente, Reparaciones, Consultoría, Ventas"}
{"branch_id":"BR-00011","store_type":"Tienda Mediana","size_m2":500,"category":"Ropa","subcategory":"Infantil","country":"Dominican Republic","city":"La Romana","address":"Gallagher Trail 165, La Romana, Dominican Republic","phone":"+1-809 635135651","manager":"Ana Sofía Guzmán Quiroga","opening_hours":"Martes a Domingo, 11:00–19:00","services":"Consultoría, Soporte técnico, Ventas, Logística"}
{"branch_id":"BR-00012","store_type":"Tienda Mediana","size_m2":500,"category":"Productos de Limpieza","subcategory":"Desinfectantes","country":"Dominican Republic","city":"La Romana","address":"Lee Overpass 17, La Romana, Dominican Republic","phone":"+1-809 617848665","manager":"Héctor Porcel Llamas","opening_hours":"Martes a Domingo, 11:00–19:00","services":"Entrega y recogida, Logística"}
{"branch_id":"BR-00013","store_type":"Tienda Mediana","size_m2":500,"category":"Cuidado Personal","subcategory":"Nutrición","country":"Dominican Republic","city":"La Romana","address":"Schwartz Ranch 134, La Romana, Dominican Republic","phone":"+1-809 672857846","manager":"León Calvo Guardia","opening_hours":"Lunes a Sábado, 10:00–20:00","services":"Soporte técnico, Reparaciones"}
{"branch_id":"BR-00014","store_type":"Tienda Mediana","size_m2":500,"category":"Productos de Limpieza","subcategory":"Limpiadores multiusos","country":"Dominican Republic","city":"La Romana","address":"Hobbs Estates 34, La Romana, Dominican Republic","phone":"+1-809 669242391","manager":"Viviana Almudena Gaya Jordán","opening_hours":"Todos los días, 8:00–22:00","services":"Reparaciones, Logística"}
{"branch_id":"BR-00015","store_type":"Tienda Mediana","size_m2":500,"category":"Ropa","subcategory":"Deportivo","country":"Dominican Republic","city":"La Romana","address":"Fernandez Causeway 112, La Romana, Dominican Republic","phone":"+1-809 693252361","manager":"Juan Luis Aguirre-Ripoll","opening_hours":"Todos los días, 8:00–22:00","services":"Reparaciones, Entrega y recogida, Logística"}
{"branch_id":"BR-00016","store_type":"Tienda Mediana","size_m2":500,"category":"Productos de Limpieza","subcategory":"Limpiadores multiusos","country":"Dominican Republic","city":"La Romana","address":"Baxter Oval 103, La Romana, Dominican Republic","phone":"+1-809 640465444","manager":"Amada Débora Atienza Calleja","opening_hours":"Lunes a Sábado, 10:00–20:00","services":"Ventas, Reparaciones, Soporte técnico"}
{"branch_id":"BR-00017","store_type":"Tienda Mediana","size_m2":500,"category":"Cuidado Personal","subcategory":"Cosméticos","country":"Dominican Republic","city":"La Romana","address":"Ramirez Vista 189, La Romana, Dominican Republic","phone":"+1-809 671687677","manager":"Custodio Gelabert Samper","opening_hours":"Lunes a Sábado, 10:00–20:00","services":"Reparaciones, Ventas, Entrega y recogida, Consultoría"}
{"branch_id":"BR-00018","store_type":"Tienda Mediana","size_m2":500,"category":"Cuidado Personal","subcategory":"Nutrición","country":"Dominican Republic","city":"La Romana","address":"Darrell Corners 169, La Romana, Dominican Republic","phone":"+1-809 644163353","manager":"Ana Sofía Catalina Pombo Baeza","opening_hours":"Martes a Domingo, 11:00–19:00","services":"Consultoría, Logística, Reparaciones"}
{"branch_id":"BR-00019","store_type":"Tienda Mediana","size_m2":500,"category":"Ropa","subcategory":"Accesorios","country":"Dominican Republic","city":"La Romana","address":"Boyd Street 23, La Romana, Dominican Republic","phone":"+1-809 673462756","manager":"Azucena del Garay","opening_hours":"Lunes a Viernes, 8:30–17:30","services":"Reparaciones, Consultoría, Atención al cliente"}
{"branch_id":"BR-00020","store_type":"Tienda Mediana","size_m2":500,"category":"Alimentos","subcategory":"Carnes y Embutidos","country":"Dominican Republic","city":"La Romana","address":"Coffey Knolls 154, La Romana, Dominican Republic","phone":"+1-809 607791810","manager":"Matilde Gras Garzón","opening_hours":"Lunes a Viernes, 9:00–18:00","services":"Atención al cliente, Logística, Consultoría"}
{"branch_id":"BR-00021","store_type":"Tienda Mediana","size_m2":500,"category":"Productos de Limpieza","subcategory":"Escobas y utensilios","country":"Dominican Republic","city":"La Romana","address":"Gray Track 17, La Romana, Dominican Republic","phone":"+1-809 681673429","manager":"Eduardo Peiró Lara","opening_hours":"Lunes a Viernes, 8:30–17:30","services":"Entrega y recogida, Soporte técnico, Logística"}
{"branch_id":"BR-00022","store_type":"Tienda Mediana","size_m2":500,"category":"Cuidado Personal","subcategory":"Spa","country":"Dominican Republic","city":"La Romana","address":"Raymond Terrace 184, La Romana, Dominican Republic","phone":"+1-809 651744021","manager":"Teresita Juárez Acuña","opening_hours":"Todos los días, 8:00–22:00","services":"Atención al cliente, Logística, Ventas"}
{"branch_id":"BR-00023","store_type":"Tienda Mediana","size_m2":500,"category":"Ropa","subcategory":"Moda Hombre","country":"Dominican Republic","city":"La Romana","address":"Steven Lodge 152, La Romana, Dominican Republic","phone":"+1-809 689182610","manager":"Juan Manuel Tamarit Castell","opening_hours":"Lunes a Viernes, 9:00–18:00","services":"Logística, Consultoría"}
{"branch_id":"BR-00024","store_type":"Tienda Mediana","size_m2":500,"category":"Productos de Limpieza","subcategory":"Escobas y utensilios","country":"Dominican Republic","city":"La Romana","address":"Craig Stream 44, La Romana, Dominican Republic","phone":"+1-809 644369187","manager":"Wálter Bravo Bautista","opening_hours":"Martes a Domingo, 11:00–19:00","services":"Consultoría, Soporte técnico, Logística"}
{"branch_id":"BR-00025","store_type":"Tienda Mediana","size_m2":500,"category":"Alimentos","subcategory":"Bebidas","country":"Dominican Republic","city":"La Romana","address":"Gabriella Meadows 34, La Romana, Dominican Republic","phone":"+1-809 672657075","manager":"Clementina Emma Juliá Vall","opening_hours":"Todos los días, 8:00–22:00","services":"Logística, Atención al cliente, Entrega y recogida"}
{"branch_id":"BR-00026","store_type":"Tienda Express","size_m2":200,"category":"Cuidado Personal","subcategory":"Higiene","country":"Dominican Republic","city":"La Romana","address":"Brent Passage 159, La Romana, Dominican Republic","phone":"+1-809 683628103","manager":"Primitiva Cantón Sales","opening_hours":"Lunes a Viernes, 8:30–17:30","services":"Consultoría, Atención al cliente, Logística"}
{"branch_id":"BR-00027","store_type":"Tienda Express","size_m2":200,"category":"Cuidado Personal","subcategory":"Farmacéuticos","country":"Dominican Republic","city":"La Romana","address":"Christopher Spring 78, La Romana, Dominican Republic","phone":"+1-809 654161948","manager":"Ildefonso Vizcaíno Crespi","opening_hours":"Lunes a Sábado, 10:00–20:00","services":"Entrega y recogida, Consultoría, Reparaciones, Soporte técnico"}
{"branch_id":"BR-00028","store_type":"Tienda Express","size_m2":200,"category":"Cuidado Personal","subcategory":"Higiene","country":"Dominican Republic","city":"La Romana","address":"Meyer Land 35, La Romana, Dominican Republic","phone":"+1-809 645063064","manager":"Óscar Villena Chaparro","opening_hours":"Lunes a Sábado, 10:00–20:00","services":"Consultoría, Soporte técnico"}
{"branch_id":"BR-00029","store_type":"Tienda Express","size_m2":200,"category":"Productos de Limpieza","subcategory":"Escobas y utensilios","country":"Dominican Republic","city":"La Romana","address":"Bowen Bypass 139, La Romana, Dominican Republic","phone":"+1-809 641433608","manager":"Samu Esparza Farré","opening_hours":"Lunes a Sábado, 10:00–20:00","services":"Consultoría, Entrega y recogida, Soporte técnico, Atención al cliente"}
{"branch_id":"BR-00030","store_type":"Tienda Express","size_m2":200,"category":"Alimentos","subcategory":"Bebidas","country":"Dominican Republic","city":"La Romana","address":"Eric Isle 127, La Romana, Dominican Republic","phone":"+1-809 624262894","manager":"Adán Agudo Mosquera","opening_hours":"Todos los días, 8:00–22:00","services":"Soporte técnico, Reparaciones, Ventas"}
{"branch_id":"BR-00031","store_type":"Tienda Express","size_m2":200,"category":"Productos de Limpieza","subcategory":"Ambientadores","country":"Dominican Republic","city":"La Romana","address":"Michelle Cliff 39, La Romana, Dominican Republic","phone":"+1-809 615093979","manager":"Lorena de Ledesma","opening_hours":"Lunes a Viernes, 8:30–17:30","services":"Atención al cliente, Consultoría"}
{"branch_id":"BR-00032","store_type":"Tienda Express","size_m2":200,"category":"Alimentos","subcategory":"Comida Congelada","country":"Dominican Republic","city":"La Romana","address":"Chad Springs 24, La Romana, Dominican Republic","phone":"+1-809 656677087","manager":"Lino del Aragón","opening_hours":"Lunes a Sábado, 10:00–20:00","services":"Ventas, Entrega y recogida, Soporte técnico, Consultoría"}
{"branch_id":"BR-00033","store_type":"Tienda Express","size_m2":200,"category":"Cuidado Personal","subcategory":"Spa","country":"Dominican Republic","city":"La Romana","address":"Pierce Passage 44, La Romana, Dominican Republic","phone":"+1-809 601846802","manager":"Adalberto Miralles Yuste","opening_hours":"Lunes a Viernes, 8:30–17:30","services":"Ventas, Consultoría"}
{"branch_id":"BR-00034","store_type":"Tienda Express","size_m2":200,"category":"Alimentos","subcategory":"Frutas y Verduras","country":"Dominican Republic","city":"La Romana","address":"Pace Lake 92, La Romana, Dominican Republic","phone":"+1-809 644827105","manager":"Manu Boix","opening_hours":"Martes a Domingo, 11:00–19:00","services":"Logística, Consultoría, Soporte técnico"}
{"branch_id":"BR-00035","store_type":"Tienda Express","size_m2":200,"category":"Alimentos","subcategory":"Comida Congelada","country":"Dominican Republic","city":"La Romana","address":"Wanda Summit 191, La Romana, Dominican Republic","phone":"+1-809 689431873","manager":"Vasco Menéndez Calderon","opening_hours":"Lunes a Viernes, 8:30–17:30","services":"Ventas, Reparaciones"}
{"branch_id":"BR-00036","store_type":"Tienda Express","size_m2":200,"category":"Alimentos","subcategory":"Carnes y Embutidos","country":"Dominican Republic","city":"La Romana","address":"Mary Square 56, La Romana, Dominican Republic","phone":"+1-809 654782265","manager":"Carmelo Castañeda Méndez","opening_hours":"Lunes a Viernes, 9:00–18:00","services":"Reparaciones, Consultoría, Soporte técnico, Logística"}
{"branch_id":"BR-00037","store_type":"Tienda Express","size_m2":200,"category":"Productos de Limpieza","subcategory":"Escobas y utensilios","country":"Dominican Republic","city":"La Romana","address":"Moran Harbor 200, La Romana, Dominican Republic","phone":"+1-809 653818086","manager":"Luis Ángel de Tomé","opening_hours":"Lunes a Viernes, 8:30–17:30","services":"Atención al cliente, Consultoría, Ventas"}
{"branch_id":"BR-00038","store_type":"Tienda Express","size_m2":200,"category":"Cuidado Personal","subcategory":"Spa","country":"Dominican Republic","city":"La Romana","address":"West Passage 179, La Romana, Dominican Republic","phone":"+1-809 656195368","manager":"Encarnacion Cerezo Iniesta","opening_hours":"Lunes a Sábado, 10:00–20:00","services":"Entrega y recogida, Reparaciones"}
{"branch_id":"BR-00039","store_type":"Hipermercado","size_m2":3000,"category":"Accesorios y Repuestos","subcategory":"Mecánicos","country":"España","city":"Madrid","address":"Christopher Courts 98, Madrid, España","phone":"+34 696834357","manager":"Casemiro del Torre","opening_hours":"Todos los días, 8:00–22:00","services":"Atención al cliente, Ventas"}
{"branch_id":"BR-00040","store_type":"Hipermercado","size_m2":3000,"category":"Construcción","subcategory":"Maquinaria","country":"España","city":"Madrid","address":"Martinez Landing 9, Madrid, España","phone":"+34 688304092","manager":"Micaela Pujol","opening_hours":"Lunes a Viernes, 8:30–17:30","services":"Entrega y recogida, Reparaciones, Consultoría"}
{"branch_id":"BR-00041","store_type":"Supermercado","size_m2":1500,"category":"Productos de Limpieza","subcategory":"Limpiadores multiusos","country":"España","city":"Madrid","address":"Cynthia Meadow 3, Madrid, España","phone":"+34 652505546","manager":"Fortunato Cadenas Calzada","opening_hours":"Lunes a Sábado, 10:00–20:00","services":"Soporte técnico, Atención al cliente, Reparaciones, Entrega y recogida"}
{"branch_id":"BR-00042","store_type":"Supermercado","size_m2":1500,"category":"Productos de Limpieza","subcategory":"Detergentes","country":"España","city":"Madrid","address":"Green Road 28, Madrid, España","phone":"+34 665798786","manager":"Mireia Pombo Marín","opening_hours":"Lunes a Viernes, 8:30–17:30","services":"Entrega y recogida, Ventas, Logística, Reparaciones"}
{"branch_id":"BR-00043","store_type":"Supermercado","size_m2":1500,"category":"Productos de Limpieza","subcategory":"Escobas y utensilios","country":"España","city":"Madrid","address":"Michael Trail 1, Madrid, España","phone":"+34 683832591","manager":"Sebastian Marín-Escamilla","opening_hours":"Lunes a Sábado, 10:00–20:00","services":"Entrega y recogida, Logística, Consultoría"}
{"branch_id":"BR-00044","store_type":"Supermercado","size_m2":1500,"category":"Electrónica","subcategory":"Audio y Video","country":"España","city":"Madrid","address":"Jennifer Plaza 149, Madrid, España","phone":"+34 612222308","manager":"Antonio Llabrés Palacios","opening_hours":"Lunes a Viernes, 8:30–17:30","services":"Soporte técnico, Consultoría, Atención al cliente, Logística"}
{"branch_id":"BR-00045","store_type":"Supermercado","size_m2":1500,"category":"Ropa","subcategory":"Infantil","country":"España","city":"Madrid","address":"Kim Junctions 67, Madrid, España","phone":"+34 634367689","manager":"Abigaíl Alsina Sevillano","opening_hours":"Lunes a Sábado, 10:00–20:00","services":"Atención al cliente, Entrega y recogida"}
{"branch_id":"BR-00046","store_type":"Supermercado","size_m2":1500,"category":"Productos de Limpieza","subcategory":"Limpiadores multiusos","country":"España","city":"Madrid","address":"Price Plaza 26, Madrid, España","phone":"+34 620077333","manager":"Juan Bautista Juan Sanchez","opening_hours":"Martes a Domingo, 11:00–19:00","services":"Reparaciones, Consultoría, Atención al cliente, Logística"}
{"branch_id":"BR-00047","store_type":"Supermercado","size_m2":1500,"category":"Ropa","subcategory":"Infantil","country":"España","city":"Madrid","address":"Taylor Knolls 45, Madrid, España","phone":"+34 681305723","manager":"Telmo Miralles Menéndez","opening_hours":"Lunes a Viernes, 9:00–18:00","services":"Reparaciones, Atención al cliente, Entrega y recogida"}
{"branch_id":"BR-00048","store_type":"Supermercado","size_m2":1500,"category":"Cuidado Personal","subcategory":"Spa","country":"España","city":"Madrid","address":"Catherine Islands 22, Madrid, España","phone":"+34 642200097","manager":"Jorge del Montesinos","opening_hours":"Lunes a Viernes, 8:30–17:30","services":"Soporte técnico, Reparaciones, Logística"}
{"branch_id":"BR-00049","store_type":"Tienda Mediana","size_m2":500,"category":"Cuidado Personal","subcategory":"Cosméticos","country":"España","city":"Madrid","address":"Koch Circle 94, Madrid, España","phone":"+34 660131422","manager":"Primitiva Machado Becerra","opening_hours":"Lunes a Viernes, 9:00–18:00","services":"Soporte técnico, Consultoría, Logística, Ventas"}
{"branch_id":"BR-00050","store_type":"Tienda Mediana","size_m2":500,"category":"Cuidado Personal","subcategory":"Cosméticos","country":"España","city":"Madrid","address":"Steven Forks 102, Madrid, España","phone":"+34 664088106","manager":"María Belén Pujol-Antúnez","opening_hours":"Todos los días, 8:00–22:00","services":"Soporte técnico, Reparaciones, Consultoría, Atención al cliente"}
{"branch_id":"BR-00051","store_type":"Tienda Mediana","size_m2":500,"category":"Alimentos","subcategory":"Comida Congelada","country":"España","city":"Madrid","address":"Robert Radial 43, Madrid, España","phone":"+34 629766094","manager":"Jose Manuel Olmedo Rosselló","opening_hours":"Lunes a Viernes, 9:00–18:00","services":"Consultoría, Soporte técnico"}
{"branch_id":"BR-00052","store_type":"Tienda Mediana","size_m2":500,"category":"Alimentos","subcategory":"Bebidas","country":"España","city":"Madrid","address":"Adam Pines 136, Madrid, España","phone":"+34 605800138","manager":"Jordi del Coello","opening_hours":"Lunes a Viernes, 8:30–17:30","services":"Soporte técnico, Consultoría, Entrega y recogida, Logística"}
{"branch_id":"BR-00053","store_type":"Tienda Mediana","size_m2":500,"category":"Alimentos","subcategory":"Comida Congelada","country":"España","city":"Madrid","address":"Sarah Landing 4, Madrid, España","phone":"+34 606884842","manager":"Sergio de Cañete","opening_hours":"Martes a Domingo, 11:00–19:00","services":"Logística, Reparaciones"}
{"branch_id":"BR-00054","store_type":"Tienda Mediana","size_m2":500,"category":"Alimentos","subcategory":"Bebidas","country":"España","city":"Madrid","address":"Daniel Station 181, Madrid, España","phone":"+34 642065864","manager":"Nydia Quero Domínguez","opening_hours":"Lunes a Viernes, 9:00–18:00","services":"Atención al cliente, Soporte técnico, Consultoría, Ventas"}
{"branch_id":"BR-00055","store_type":"Tienda Mediana","size_m2":500,"category":"Productos de Limpieza","subcategory":"Desinfectantes","country":"España","city":"Madrid","address":"Patrick Curve 50, Madrid, España","phone":"+34 677754059","manager":"Jose Angel Chaparro Garriga","opening_hours":"Lunes a Viernes, 8:30–17:30","services":"Soporte técnico, Atención al cliente, Consultoría, Entrega y recogida"}
{"branch_id":"BR-00056","store_type":"Tienda Mediana","size_m2":500,"category":"Alimentos","subcategory":"Comida Congelada","country":"España","city":"Madrid","address":"Henry Junctions 173, Madrid, España","phone":"+34 644129523","manager":"Elodia Avilés Barrio","opening_hours":"Todos los días, 8:00–22:00","services":"Soporte técnico, Logística, Consultoría, Reparaciones"}
{"branch_id":"BR-00057","store_type":"Tienda Mediana","size_m2":500,"category":"Cuidado Personal","subcategory":"Farmacéuticos","country":"España","city":"Madrid","address":"Nicole Walk 143, Madrid, España","phone":"+34 696084351","manager":"Almudena Villalonga Blazquez","opening_hours":"Lunes a Viernes, 9:00–18:00","services":"Soporte técnico, Atención al cliente"}
{"branch_id":"BR-00058","store_type":"Tienda Mediana","size_m2":500,"category":"Cuidado Personal","subcategory":"Spa","country":"España","city":"Madrid","address":"Faulkner Freeway 43, Madrid, España","phone":"+34 671145872","manager":"Francisco Jose Carbonell-Tomás","opening_hours":"Todos los días, 8:00–22:00","services":"Logística, Entrega y recogida"}
{"branch_id":"BR-00059","store_type":"Tienda Mediana","size_m2":500,"category":"Cuidado Personal","subcategory":"Higiene","country":"España","city":"Madrid","address":"Melanie Row 58, Madrid, España","phone":"+34 669057154","manager":"Porfirio Rogelio Almazán Sola","opening_hours":"Lunes a Sábado, 10:00–20:00","services":"Entrega y recogida, Consultoría, Atención al cliente, Logística"}
{"branch_id":"BR-00060","store_type":"Tienda Mediana","size_m2":500,"category":"Alimentos","subcategory":"Bebidas","country":"España","city":"Madrid","address":"Melinda Crossroad 68, Madrid, España","phone":"+34 619723319","manager":"Teófila Luna","opening_hours":"Martes a Domingo, 11:00–19:00","services":"Consultoría, Soporte técnico, Ventas"}
{"branch_id":"BR-00061","store_type":"Tienda Mediana","size_m2":500,"category":"Ropa","subcategory":"Accesorios","country":"España","city":"Madrid","address":"Brandon Harbor 171, Madrid, España","phone":"+34 630350992","manager":"Tristán Clemente-Cortés","opening_hours":"Lunes a Sábado, 10:00–20:00","services":"Reparaciones, Logística, Atención al cliente"}
{"branch_id":"BR-00062","store_type":"Tienda Mediana","size_m2":500,"category":"Cuidado Personal","subcategory":"Cosméticos","country":"España","city":"Madrid","address":"Ryan Dale 172, Madrid, España","phone":"+34 609423523","manager":"Vera Maricela Bautista Taboada","opening_hours":"Lunes a Viernes, 8:30–17:30","services":"Atención al cliente, Reparaciones"}
{"branch_id":"BR-00063","store_type":"Tienda Mediana","size_m2":500,"category":"Ropa","subcategory":"Moda Hombre","country":"España","city":"Madrid","address":"Scott Course 189, Madrid, España","phone":"+34 677947239","manager":"Jacobo Palomino Martínez","opening_hours":"Lunes a Sábado, 10:00–20:00","services":"Ventas, Reparaciones, Entrega y recogida"}
{"branch_id":"BR-00064","store_type":"Tienda Express","size_m2":200,"category":"Cuidado Personal","subcategory":"Higiene","country":"España","city":"Madrid","address":"Valerie Rapid 139, Madrid, España","phone":"+34 615498099","manager":"Cebrián Malo Ortiz","opening_hours":"Lunes a Viernes, 9:00–18:00","services":"Consultoría, Logística, Atención al cliente, Entrega y recogida"}
{"branch_id":"BR-00065","store_type":"Tienda Express","size_m2":200,"category":"Productos de Limpieza","subcategory":"Desinfectantes","country":"España","city":"Madrid","address":"Brenda Causeway 59, Madrid, España","phone":"+34 615414291","manager":"Casemiro Marciano Fábregas Lara","opening_hours":"Todos los días, 8:00–22:00","services":"Atención al cliente, Consultoría, Ventas"}
{"branch_id":"BR-00066","store_type":"Tienda Express","size_m2":200,"category":"Alimentos","subcategory":"Carnes y Embutidos","country":"España","city":"Madrid","address":"Vaughn Motorway 167, Madrid, España","phone":"+34 697507008","manager":"Reina Bosch Ayala","opening_hours":"Todos los días, 8:00–22:00","services":"Atención al cliente, Consultoría"}
{"branch_id":"BR-00067","store_type":"Tienda Express","size_m2":200,"category":"Productos de Limpieza","subcategory":"Limpiadores multiusos","country":"España","city":"Madrid","address":"Lopez Estate 36, Madrid, España","phone":"+34 661644456","manager":"María Ángeles Valencia Milla","opening_hours":"Martes a Domingo, 11:00–19:00","services":"Soporte técnico, Atención al cliente, Consultoría"}
{"branch_id":"BR-00068","store_type":"Tienda Express","size_m2":200,"category":"Cuidado Personal","subcategory":"Nutrición","country":"España","city":"Madrid","address":"Carolyn Center 193, Madrid, España","phone":"+34 682107659","manager":"Encarnita Olmedo Albero","opening_hours":"Lunes a Sábado, 10:00–20:00","services":"Atención al cliente, Reparaciones"}
{"branch_id":"BR-00069","store_type":"Tienda Express","size_m2":200,"category":"Cuidado Personal","subcategory":"Spa","country":"España","city":"Madrid","address":"Amy Plains 22, Madrid, España","phone":"+34 673291646","manager":"Edelmiro Espinosa Benet","opening_hours":"Todos los días, 8:00–22:00","services":"Soporte técnico, Logística, Reparaciones, Atención al cliente"}
{"branch_id":"BR-00070","store_type":"Tienda Express","size_m2":200,"category":"Alimentos","subcategory":"Carnes y Embutidos","country":"España","city":"Madrid","address":"Schmitt Land 186, Madrid, España","phone":"+34 651570222","manager":"Cloe Iniesta Taboada","opening_hours":"Lunes a Viernes, 9:00–18:00","services":"Consultoría, Logística, Atención al cliente"}
{"branch_id":"BR-00071","store_type":"Tienda Express","size_m2":200,"category":"Productos de Limpieza","subcategory":"Ambientadores","country":"España","city":"Madrid","address":"Baker Turnpike 134, Madrid, España","phone":"+34 640257457","manager":"Edgardo Mora Nebot","opening_hours":"Todos los días, 8:00–22:00","services":"Consultoría, Ventas, Atención al cliente, Soporte técnico"}
{"branch_id":"BR-00072","store_type":"Tienda Express","size_m2":200,"category":"Productos de Limpieza","subcategory":"Detergentes","country":"España","city":"Madrid","address":"Roger Summit 41, Madrid, España","phone":"+34 646741772","manager":"Lidia Pallarès Leiva","opening_hours":"Lunes a Viernes, 8:30–17:30","services":"Ventas, Logística, Entrega y recogida, Consultoría"}
{"branch_id":"BR-00073","store_type":"Tienda Express","size_m2":200,"category":"Cuidado Personal","subcategory":"Farmacéuticos","country":"España","city":"Madrid","address":"Smith Land 44, Madrid, España","phone":"+34 621608453","manager":"Evaristo Cañellas Daza","opening_hours":"Lunes a Viernes, 8:30–17:30","services":"Soporte técnico, Consultoría, Reparaciones, Logística"}
{"branch_id":"BR-00074","store_type":"Tienda Express","size_m2":200,"category":"Cuidado Personal","subcategory":"Higiene","country":"España","city":"Madrid","address":"Heather Stream 18, Madrid, España","phone":"+34 601201486","manager":"Martina Torrent Aragonés","opening_hours":"Todos los días, 8:00–22:00","services":"Soporte técnico, Reparaciones, Logística"}
{"branch_id":"BR-00075","store_type":"Tienda Express","size_m2":200,"category":"Cuidado Personal","subcategory":"Higiene","country":"España","city":"Madrid","address":"Jennifer Meadow 191, Madrid, España","phone":"+34 651584625","manager":"Juan Luis Vito Gutiérrez Nogués","opening_hours":"Todos los días, 8:00–22:00","services":"Logística, Ventas, Soporte técnico, Entrega y recogida"}
{"branch_id":"BR-00076","store_type":"Tienda Express","size_m2":200,"category":"Productos de Limpieza","subcategory":"Limpiadores multiusos","country":"España","city":"Madrid","address":"Benjamin Neck 186, Madrid, España","phone":"+34 604076715","manager":"Porfirio Maldonado Neira","opening_hours":"Martes a Domingo, 11:00–19:00","services":"Atención al cliente, Soporte técnico, Ventas, Consultoría"}
{"branch_id":"BR-00077","store_type":"Hipermercado","size_m2":3000,"category":"Hogar y Decoración","subcategory":"Iluminación","country":"México","city":"Monterrey","address":"Freeman Rapid 82, Monterrey, México","phone":"+52 630206842","manager":"Aurelio del Río Cabán","opening_hours":"Lunes a Viernes, 8:30–17:30","services":"Logística, Soporte técnico"}
{"branch_id":"BR-00078","store_type":"Hipermercado","size_m2":3000,"category":"Cuidado Personal","subcategory":"Farmacéuticos","country":"México","city":"Monterrey","address":"Martinez Squares 109, Monterrey, México","phone":"+52 609804307","manager":"Eugenio Santiago Hidalgo Chapa","opening_hours":"Todos los días, 8:00–22:00","services":"Ventas, Atención al cliente, Soporte técnico"}
{"branch_id":"BR-00079","store_type":"Supermercado","size_m2":1500,"category":"Productos de Limpieza","subcategory":"Limpiadores multiusos","country":"México","city":"Monterrey","address":"Brittany Points 152, Monterrey, México","phone":"+52 629697815","manager":"Hermelinda Elisa Hidalgo Garica","opening_hours":"Todos los días, 8:00–22:00","services":"Logística, Reparaciones, Ventas"}
{"branch_id":"BR-00080","store_type":"Supermercado","size_m2":1500,"category":"Hogar y Decoración","subcategory":"Organización","country":"México","city":"Monterrey","address":"Gordon Loaf 177, Monterrey, México","phone":"+52 691070450","manager":"Alma Olivera","opening_hours":"Lunes a Sábado, 10:00–20:00","services":"Entrega y recogida, Soporte técnico, Logística"}
{"branch_id":"BR-00081","store_type":"Supermercado","size_m2":1500,"category":"Alimentos","subcategory":"Comida Congelada","country":"México","city":"Monterrey","address":"Theresa Drives 119, Monterrey, México","phone":"+52 687675930","manager":"Delia Rangel","opening_hours":"Martes a Domingo, 11:00–19:00","services":"Consultoría, Reparaciones, Soporte técnico"}
{"branch_id":"BR-00082","store_type":"Supermercado","size_m2":1500,"category":"Hogar y Decoración","subcategory":"Textiles","country":"México","city":"Monterrey","address":"Antonio Well 55, Monterrey, México","phone":"+52 626318668","manager":"María Luisa Cecilia Baca Domínguez","opening_hours":"Lunes a Viernes, 8:30–17:30","services":"Logística, Atención al cliente, Entrega y recogida"}
{"branch_id":"BR-00083","store_type":"Supermercado","size_m2":1500,"category":"Cuidado Personal","subcategory":"Nutrición","country":"México","city":"Monterrey","address":"Moore Run 5, Monterrey, México","phone":"+52 629923076","manager":"Noemí Gregorio Durán","opening_hours":"Todos los días, 8:00–22:00","services":"Atención al cliente, Consultoría"}
{"branch_id":"BR-00084","store_type":"Supermercado","size_m2":1500,"category":"Hogar y Decoración","subcategory":"Iluminación","country":"México","city":"Monterrey","address":"Bauer Circles 144, Monterrey, México","phone":"+52 656638485","manager":"Dr. Alta  Gracia Colunga","opening_hours":"Todos los días, 8:00–22:00","services":"Ventas, Reparaciones"}
{"branch_id":"BR-00085","store_type":"Supermercado","size_m2":1500,"category":"Ropa","subcategory":"Infantil","country":"México","city":"Monterrey","address":"Jacobson Canyon 64, Monterrey, México","phone":"+52 613454370","manager":"Gloria Barbara Sepúlveda","opening_hours":"Martes a Domingo, 11:00–19:00","services":"Soporte técnico, Reparaciones, Entrega y recogida"}
{"branch_id":"BR-00086","store_type":"Supermercado","size_m2":1500,"category":"Electrónica","subcategory":"Gadgets","country":"México","city":"Monterrey","address":"Samantha Meadow 64, Monterrey, México","phone":"+52 618803055","manager":"Gregorio Ignacio Cervantes Centeno","opening_hours":"Lunes a Viernes, 8:30–17:30","services":"Entrega y recogida, Atención al cliente, Ventas"}
{"branch_id":"BR-00087","store_type":"Tienda Mediana","size_m2":500,"category":"Ropa","subcategory":"Accesorios","country":"México","city":"Monterrey","address":"Santiago Points 107, Monterrey, México","phone":"+52 674402392","manager":"Jorge Sepúlveda","opening_hours":"Lunes a Viernes, 8:30–17:30","services":"Ventas, Entrega y recogida, Consultoría, Atención al cliente"}
{"branch_id":"BR-00088","store_type":"Tienda Mediana","size_m2":500,"category":"Ropa","subcategory":"Accesorios","country":"México","city":"Monterrey","address":"Rivas Fords 56, Monterrey, México","phone":"+52 631591139","manager":"Irene Ana Luisa Corrales Guillen","opening_hours":"Lunes a Viernes, 9:00–18:00","services":"Reparaciones, Soporte técnico, Logística"}
{"branch_id":"BR-00089","store_type":"Tienda Mediana","size_m2":500,"category":"Productos de Limpieza","subcategory":"Limpiadores multiusos","country":"México","city":"Monterrey","address":"Kimberly Hollow 87, Monterrey, México","phone":"+52 613446456","manager":"Silvano Palomino","opening_hours":"Lunes a Viernes, 8:30–17:30","services":"Logística, Atención al cliente, Reparaciones"}
{"branch_id":"BR-00090","store_type":"Tienda Mediana","size_m2":500,"category":"Alimentos","subcategory":"Panadería","country":"México","city":"Monterrey","address":"Erica Dam 183, Monterrey, México","phone":"+52 691303251","manager":"Ing. Camila Granado","opening_hours":"Lunes a Viernes, 9:00–18:00","services":"Consultoría, Soporte técnico"}
{"branch_id":"BR-00091","store_type":"Tienda Mediana","size_m2":500,"category":"Ropa","subcategory":"Infantil","country":"México","city":"Monterrey","address":"Christopher Valleys 89, Monterrey, México","phone":"+52 648022283","manager":"José Flavio Salgado Lovato","opening_hours":"Martes a Domingo, 11:00–19:00","services":"Ventas, Soporte técnico"}
{"branch_id":"BR-00092","store_type":"Tienda Mediana","size_m2":500,"category":"Ropa","subcategory":"Accesorios","country":"México","city":"Monterrey","address":"Juan Ports 41, Monterrey, México","phone":"+52 620885870","manager":"Berta Ramón Ozuna","opening_hours":"Martes a Domingo, 11:00–19:00","services":"Consultoría, Atención al cliente, Logística, Reparaciones"}
{"branch_id":"BR-00093","store_type":"Tienda Mediana","size_m2":500,"category":"Alimentos","subcategory":"Carnes y Embutidos","country":"México","city":"Monterrey","address":"Andre Parks 200, Monterrey, México","phone":"+52 684542601","manager":"Sandra Villareal","opening_hours":"Lunes a Viernes, 8:30–17:30","services":"Soporte técnico, Reparaciones, Entrega y recogida, Ventas"}
{"branch_id":"BR-00094","store_type":"Tienda Mediana","size_m2":500,"category":"Ropa","subcategory":"Accesorios","country":"México","city":"Monterrey","address":"Clayton Gardens 80, Monterrey, México","phone":"+52 664329596","manager":"Abraham Martha Sanches del Valle","opening_hours":"Lunes a Viernes, 9:00–18:00","services":"Reparaciones, Consultoría"}
{"branch_id":"BR-00095","store_type":"Tienda Mediana","size_m2":500,"category":"Cuidado Personal","subcategory":"Spa","country":"México","city":"Monterrey","address":"Simmons Key 126, Monterrey, México","phone":"+52 618733234","manager":"Emilio Rafaél Coronado","opening_hours":"Martes a Domingo, 11:00–19:00","services":"Reparaciones, Consultoría"}
{"branch_id":"BR-00096","store_type":"Tienda Mediana","size_m2":500,"category":"Productos de Limpieza","subcategory":"Ambientadores","country":"México","city":"Monterrey","address":"Victoria Spur 91, Monterrey, México","phone":"+52 691606692","manager":"Cristobal Abigail Espino Cervantes","opening_hours":"Lunes a Viernes, 9:00–18:00","services":"Ventas, Consultoría, Atención al cliente"}
{"branch_id":"BR-00097","store_type":"Tienda Mediana","size_m2":500,"category":"Ropa","subcategory":"Deportivo","country":"México","city":"Monterrey","address":"Lamb Freeway 21, Monterrey, México","phone":"+52 652218993","manager":"Olivia Narváez Oquendo","opening_hours":"Lunes a Viernes, 9:00–18:00","services":"Consultoría, Ventas, Reparaciones"}
{"branch_id":"BR-00098","store_type":"Tienda Mediana","size_m2":500,"category":"Alimentos","subcategory":"Carnes y Embutidos","country":"México","city":"Monterrey","address":"Kimberly Pines 155, Monterrey, México","phone":"+52 676327667","manager":"Patricio Valladares","opening_hours":"Lunes a Viernes, 8:30–17:30","services":"Logística, Entrega y recogida, Soporte técnico"}
{"branch_id":"BR-00099","store_type":"Tienda Mediana","size_m2":500,"category":"Cuidado Personal","subcategory":"Cosméticos","country":"México","city":"Monterrey","address":"Gary Fall 162, Monterrey, México","phone":"+52 692927749","manager":"Eugenia Eduardo Roldán Robles","opening_hours":"Todos los días, 8:00–22:00","services":"Atención al cliente, Consultoría, Reparaciones, Entrega y recogida"}
{"branch_id":"BR-00100","store_type":"Tienda Mediana","size_m2":500,"category":"Cuidado Personal","subcategory":"Farmacéuticos","country":"México","city":"Monterrey","address":"Delgado Plains 60, Monterrey, México","phone":"+52 603891295","manager":"Carmen Víctor Villarreal","opening_hours":"Lunes a Sábado, 10:00–20:00","services":"Entrega y recogida, Soporte técnico, Ventas"}
{"branch_id":"BR-00101","store_type":"Tienda Mediana","size_m2":500,"category":"Cuidado Personal","subcategory":"Higiene","country":"México","city":"Monterrey","address":"Kevin Parks 155, Monterrey, México","phone":"+52 680860480","manager":"Antonia Bianca Contreras","opening_hours":"Martes a Domingo, 11:00–19:00","services":"Reparaciones, Ventas, Consultoría"}
{"branch_id":"BR-00102","store_type":"Tienda Express","size_m2":200,"category":"Productos de Limpieza","subcategory":"Escobas y utensilios","country":"México","city":"Monterrey","address":"Mckinney Camp 30, Monterrey, México","phone":"+52 633993127","manager":"José Luis Isabela Villalpando Alcala","opening_hours":"Lunes a Sábado, 10:00–20:00","services":"Entrega y recogida, Logística"}
{"branch_id":"BR-00103","store_type":"Tienda Express","size_m2":200,"category":"Alimentos","subcategory":"Comida Congelada","country":"México","city":"Monterrey","address":"Flowers Villages 23, Monterrey, México","phone":"+52 661701446","manager":"Mariano Verdugo Urías","opening_hours":"Martes a Domingo, 11:00–19:00","services":"Atención al cliente, Reparaciones, Entrega y recogida"}
{"branch_id":"BR-00104","store_type":"Tienda Express","size_m2":200,"category":"Alimentos","subcategory":"Bebidas","country":"México","city":"Monterrey","address":"Stephanie Spurs 93, Monterrey, México","phone":"+52 697735115","manager":"Andrés Nava","opening_hours":"Todos los días, 8:00–22:00","services":"Logística, Ventas, Soporte técnico"}
{"branch_id":"BR-00105","store_type":"Tienda Express","size_m2":200,"category":"Alimentos","subcategory":"Frutas y Verduras","country":"México","city":"Monterrey","address":"Adam Mall 24, Monterrey, México","phone":"+52 639597033","manager":"Héctor Karina Guerrero","opening_hours":"Martes a Domingo, 11:00–19:00","services":"Soporte técnico, Reparaciones, Atención al cliente"}
{"branch_id":"BR-00106","store_type":"Tienda Express","size_m2":200,"category":"Cuidado Personal","subcategory":"Spa","country":"México","city":"Monterrey","address":"Shelley Green 11, Monterrey, México","phone":"+52 670958894","manager":"Zacarías Aguirre Peres","opening_hours":"Lunes a Sábado, 10:00–20:00","services":"Entrega y recogida, Logística, Reparaciones"}
{"branch_id":"BR-00107","store_type":"Tienda Express","size_m2":200,"category":"Productos de Limpieza","subcategory":"Limpiadores multiusos","country":"México","city":"Monterrey","address":"Kelsey Squares 144, Monterrey, México","phone":"+52 623814665","manager":"Bruno Dávila","opening_hours":"Martes a Domingo, 11:00–19:00","services":"Logística, Ventas, Entrega y recogida, Reparaciones"}
{"branch_id":"BR-00108","store_type":"Tienda Express","size_m2":200,"category":"Alimentos","subcategory":"Panadería","country":"México","city":"Monterrey","address":"Justin Port 124, Monterrey, México","phone":"+52 640128606","manager":"Ing. Andrea Ornelas","opening_hours":"Lunes a Viernes, 9:00–18:00","services":"Entrega y recogida, Ventas, Atención al cliente"}
{"branch_id":"BR-00109","store_type":"Tienda Express","size_m2":200,"category":"Alimentos","subcategory":"Panadería","country":"México","city":"Monterrey","address":"Foster Fort 143, Monterrey, México","phone":"+52 632787346","manager":"Cristal Carreón Campos","opening_hours":"Lunes a Viernes, 8:30–17:30","services":"Reparaciones, Atención al cliente, Logística, Soporte técnico"}
{"branch_id":"BR-00110","store_type":"Tienda Express","size_m2":200,"category":"Cuidado Personal","subcategory":"Nutrición","country":"México","city":"Monterrey","address":"Natalie Extensions 130, Monterrey, México","phone":"+52 678824017","manager":"Gloria Esteban Gallardo Solano","opening_hours":"Lunes a Viernes, 8:30–17:30","services":"Logística, Atención al cliente"}
{"branch_id":"BR-00111","store_type":"Tienda Express","size_m2":200,"category":"Cuidado Personal","subcategory":"Farmacéuticos","country":"México","city":"Monterrey","address":"Linda Isle 158, Monterrey, México","phone":"+52 624762351","manager":"Dolores Vásquez","opening_hours":"Martes a Domingo, 11:00–19:00","services":"Entrega y recogida, Ventas"}
{"branch_id":"BR-00112","store_type":"Tienda Express","size_m2":200,"category":"Alimentos","subcategory":"Bebidas","country":"México","city":"Monterrey","address":"Lee Isle 34, Monterrey, México","phone":"+52 603748687","manager":"Benito Victoria Cortés Alarcón","opening_hours":"Lunes a Sábado, 10:00–20:00","services":"Atención al cliente, Consultoría, Entrega y recogida, Soporte técnico"}
{"branch_id":"BR-00113","store_type":"Tienda Express","size_m2":200,"category":"Alimentos","subcategory":"Panadería","country":"México","city":"Monterrey","address":"Mendez Plain 185, Monterrey, México","phone":"+52 662571092","manager":"Angélica Israel Ortiz","opening_hours":"Lunes a Sábado, 10:00–20:00","services":"Ventas, Logística"}
{"branch_id":"BR-00114","store_type":"Tienda Express","size_m2":200,"category":"Productos de Limpieza","subcategory":"Detergentes","country":"México","city":"Monterrey","address":"Evans Springs 145, Monterrey, México","phone":"+52 689045066","manager":"Delia Vásquez Cervantes","opening_hours":"Lunes a Viernes, 9:00–18:00","services":"Reparaciones, Entrega y recogida"}
{"branch_id":"BR-00115","store_type":"Hipermercado","size_m2":3000,"category":"Accesorios y Repuestos","subcategory":"Mecánicos","country":"Estados Unidos","city":"Houston","address":"Bell Knoll 17, Houston, Estados Unidos","phone":"+1 664854646","manager":"Wendy Davis DDS","opening_hours":"Martes a Domingo, 11:00–19:00","services":"Consultoría, Atención al cliente"}
{"branch_id":"BR-00116","store_type":"Hipermercado","size_m2":3000,"category":"Tecnología","subcategory":"Software","country":"Estados Unidos","city":"Houston","address":"Veronica Shores 186, Houston, Estados Unidos","phone":"+1 673664911","manager":"Brian Silva","opening_hours":"Martes a Domingo, 11:00–19:00","services":"Consultoría, Entrega y recogida, Logística"}
{"branch_id":"BR-00117","store_type":"Supermercado","size_m2":1500,"category":"Electrónica","subcategory":"Electrodomésticos","country":"Estados Unidos","city":"Houston","address":"Monique Village 76, Houston, Estados Unidos","phone":"+1 627840124","manager":"Hayley Hernandez","opening_hours":"Lunes a Viernes, 8:30–17:30","services":"Ventas, Logística"}
{"branch_id":"BR-00118","store_type":"Supermercado","size_m2":1500,"category":"Ropa","subcategory":"Moda Mujer","country":"Estados Unidos","city":"Houston","address":"Butler Alley 193, Houston, Estados Unidos","phone":"+1 617282629","manager":"Kathleen Tate","opening_hours":"Martes a Domingo, 11:00–19:00","services":"Logística, Ventas, Soporte técnico"}
{"branch_id":"BR-00119","store_type":"Supermercado","size_m2":1500,"category":"Productos de Limpieza","subcategory":"Detergentes","country":"Estados Unidos","city":"Houston","address":"Andrea Ramp 191, Houston, Estados Unidos","phone":"+1 615203427","manager":"Ebony Sellers","opening_hours":"Lunes a Sábado, 10:00–20:00","services":"Reparaciones, Soporte técnico, Atención al cliente, Consultoría"}
{"branch_id":"BR-00120","store_type":"Supermercado","size_m2":1500,"category":"Electrónica","subcategory":"Telefonía","country":"Estados Unidos","city":"Houston","address":"Moses Stravenue 47, Houston, Estados Unidos","phone":"+1 697981234","manager":"William Davis","opening_hours":"Lunes a Viernes, 9:00–18:00","services":"Soporte técnico, Consultoría, Logística"}
{"branch_id":"BR-00121","store_type":"Supermercado","size_m2":1500,"category":"Electrónica","subcategory":"Computación","country":"Estados Unidos","city":"Houston","address":"Micheal Key 117, Houston, Estados Unidos","phone":"+1 693292566","manager":"Gary Taylor MD","opening_hours":"Martes a Domingo, 11:00–19:00","services":"Reparaciones, Consultoría, Logística"}
{"branch_id":"BR-00122","store_type":"Supermercado","size_m2":1500,"category":"Electrónica","subcategory":"Telefonía","country":"Estados Unidos","city":"Houston","address":"Hoover Manors 9, Houston, Estados Unidos","phone":"+1 672590679","manager":"Craig Park","opening_hours":"Martes a Domingo, 11:00–19:00","services":"Consultoría, Entrega y recogida, Ventas"}
{"branch_id":"BR-00123","store_type":"Supermercado","size_m2":1500,"category":"Cuidado Personal","subcategory":"Spa","country":"Estados Unidos","city":"Houston","address":"Karen Ranch 132, Houston, Estados Unidos","phone":"+1 671200400","manager":"Scott Adams","opening_hours":"Lunes a Sábado, 10:00–20:00","services":"Logística, Soporte técnico, Ventas, Consultoría"}
{"branch_id":"BR-00124","store_type":"Supermercado","size_m2":1500,"category":"Hogar y Decoración","subcategory":"Iluminación","country":"Estados Unidos","city":"Houston","address":"Chelsea Turnpike 106, Houston, Estados Unidos","phone":"+1 650548279","manager":"Wesley Powell","opening_hours":"Lunes a Viernes, 8:30–17:30","services":"Soporte técnico, Logística, Consultoría"}
{"branch_id":"BR-00125","store_type":"Tienda Mediana","size_m2":500,"category":"Ropa","subcategory":"Deportivo","country":"Estados Unidos","city":"Houston","address":"Gallagher Court 140, Houston, Estados Unidos","phone":"+1 696303429","manager":"Laurie Lane","opening_hours":"Lunes a Viernes, 8:30–17:30","services":"Reparaciones, Ventas"}
{"branch_id":"BR-00126","store_type":"Tienda Mediana","size_m2":500,"category":"Productos de Limpieza","subcategory":"Limpiadores multiusos","country":"Estados Unidos","city":"Houston","address":"Amanda Stravenue 113, Houston, Estados Unidos","phone":"+1 600270072","manager":"James Porter","opening_hours":"Lunes a Viernes, 9:00–18:00","services":"Soporte técnico, Ventas, Logística"}
{"branch_id":"BR-00127","store_type":"Tienda Mediana","size_m2":500,"category":"Ropa","subcategory":"Accesorios","country":"Estados Unidos","city":"Houston","address":"Thompson Plaza 140, Houston, Estados Unidos","phone":"+1 636481085","manager":"Joshua Orr","opening_hours":"Lunes a Sábado, 10:00–20:00","services":"Logística, Atención al cliente, Consultoría"}
{"branch_id":"BR-00128","store_type":"Tienda Mediana","size_m2":500,"category":"Productos de Limpieza","subcategory":"Ambientadores","country":"Estados Unidos","city":"Houston","address":"Angelica Springs 22, Houston, Estados Unidos","phone":"+1 601610122","manager":"Jill Walsh","opening_hours":"Martes a Domingo, 11:00–19:00","services":"Entrega y recogida, Reparaciones, Logística"}
{"branch_id":"BR-00129","store_type":"Tienda Mediana","size_m2":500,"category":"Ropa","subcategory":"Accesorios","country":"Estados Unidos","city":"Houston","address":"Kelly Glen 74, Houston, Estados Unidos","phone":"+1 651241569","manager":"Stephen Peterson","opening_hours":"Lunes a Sábado, 10:00–20:00","services":"Soporte técnico, Entrega y recogida, Logística"}
{"branch_id":"BR-00130","store_type":"Tienda Mediana","size_m2":500,"category":"Cuidado Personal","subcategory":"Cosméticos","country":"Estados Unidos","city":"Houston","address":"Daniel Lake 128, Houston, Estados Unidos","phone":"+1 611590754","manager":"James Beck","opening_hours":"Lunes a Viernes, 9:00–18:00","services":"Soporte técnico, Logística"}
{"branch_id":"BR-00131","store_type":"Tienda Mediana","size_m2":500,"category":"Ropa","subcategory":"Infantil","country":"Estados Unidos","city":"Houston","address":"Nina Freeway 9, Houston, Estados Unidos","phone":"+1 635813128","manager":"Lynn Tran","opening_hours":"Todos los días, 8:00–22:00","services":"Logística, Reparaciones, Soporte técnico"}
{"branch_id":"BR-00132","store_type":"Tienda Mediana","size_m2":500,"category":"Productos de Limpieza","subcategory":"Escobas y utensilios","country":"Estados Unidos","city":"Houston","address":"Patrick Plain 64, Houston, Estados Unidos","phone":"+1 601946613","manager":"James Murray","opening_hours":"Martes a Domingo, 11:00–19:00","services":"Atención al cliente, Soporte técnico, Entrega y recogida, Reparaciones"}
{"branch_id":"BR-00133","store_type":"Tienda Mediana","size_m2":500,"category":"Productos de Limpieza","subcategory":"Limpiadores multiusos","country":"Estados Unidos","city":"Houston","address":"Carla Squares 46, Houston, Estados Unidos","phone":"+1 602420676","manager":"Michael Short","opening_hours":"Lunes a Sábado, 10:00–20:00","services":"Consultoría, Atención al cliente, Soporte técnico"}
{"branch_id":"BR-00134","store_type":"Tienda Mediana","size_m2":500,"category":"Cuidado Personal","subcategory":"Cosméticos","country":"Estados Unidos","city":"Houston","address":"Keith Squares 23, Houston, Estados Unidos","phone":"+1 691619970","manager":"Michael Ryan","opening_hours":"Lunes a Viernes, 9:00–18:00","services":"Soporte técnico, Atención al cliente, Reparaciones"}
{"branch_id":"BR-00135","store_type":"Tienda Mediana","size_m2":500,"category":"Productos de Limpieza","subcategory":"Detergentes","country":"Estados Unidos","city":"Houston","address":"Elizabeth Lake 119, Houston, Estados Unidos","phone":"+1 676148826","manager":"Tracy Dunn","opening_hours":"Lunes a Sábado, 10:00–20:00","services":"Ventas, Reparaciones"}
{"branch_id":"BR-00136","store_type":"Tienda Mediana","size_m2":500,"category":"Productos de Limpieza","subcategory":"Detergentes","country":"Estados Unidos","city":"Houston","address":"Ricky Valleys 94, Houston, Estados Unidos","phone":"+1 665019087","manager":"Craig Dunn","opening_hours":"Lunes a Viernes, 9:00–18:00","services":"Atención al cliente, Ventas, Reparaciones, Consultoría"}
{"branch_id":"BR-00137","store_type":"Tienda Mediana","size_m2":500,"category":"Productos de Limpieza","subcategory":"Desinfectantes","country":"Estados Unidos","city":"Houston","address":"Brittney Cove 63, Houston, Estados Unidos","phone":"+1 633973122","manager":"John Smith","opening_hours":"Lunes a Viernes, 8:30–17:30","services":"Logística, Consultoría, Ventas"}
{"branch_id":"BR-00138","store_type":"Tienda Mediana","size_m2":500,"category":"Productos de Limpieza","subcategory":"Ambientadores","country":"Estados Unidos","city":"Houston","address":"Farmer Shore 45, Houston, Estados Unidos","phone":"+1 655079747","manager":"Peter Wheeler","opening_hours":"Martes a Domingo, 11:00–19:00","services":"Logística, Atención al cliente"}
{"branch_id":"BR-00139","store_type":"Tienda Mediana","size_m2":500,"category":"Cuidado Personal","subcategory":"Farmacéuticos","country":"Estados Unidos","city":"Houston","address":"Castro Wall 140, Houston, Estados Unidos","phone":"+1 663722325","manager":"Wendy Lindsey","opening_hours":"Martes a Domingo, 11:00–19:00","services":"Ventas, Atención al cliente, Logística"}
{"branch_id":"BR-00140","store_type":"Tienda Express","size_m2":200,"category":"Alimentos","subcategory":"Frutas y Verduras","country":"Estados Unidos","city":"Houston","address":"Julia Radial 105, Houston, Estados Unidos","phone":"+1 639028649","manager":"Nicholas Arnold","opening_hours":"Lunes a Sábado, 10:00–20:00","services":"Soporte técnico, Reparaciones, Entrega y recogida"}
{"branch_id":"BR-00141","store_type":"Tienda Express","size_m2":200,"category":"Alimentos","subcategory":"Comida Congelada","country":"Estados Unidos","city":"Houston","address":"Felicia Ranch 86, Houston, Estados Unidos","phone":"+1 697023661","manager":"Hannah Maxwell","opening_hours":"Lunes a Viernes, 9:00–18:00","services":"Ventas, Reparaciones"}
{"branch_id":"BR-00142","store_type":"Tienda Express","size_m2":200,"category":"Cuidado Personal","subcategory":"Cosméticos","country":"Estados Unidos","city":"Houston","address":"Johnson Villages 147, Houston, Estados Unidos","phone":"+1 613818270","manager":"Jessica Mendoza","opening_hours":"Lunes a Sábado, 10:00–20:00","services":"Consultoría, Soporte técnico, Ventas"}
{"branch_id":"BR-00143","store_type":"Tienda Express","size_m2":200,"category":"Productos de Limpieza","subcategory":"Ambientadores","country":"Estados Unidos","city":"Houston","address":"Michelle Station 14, Houston, Estados Unidos","phone":"+1 640285074","manager":"Jennifer King","opening_hours":"Lunes a Viernes, 8:30–17:30","services":"Atención al cliente, Soporte técnico"}
{"branch_id":"BR-00144","store_type":"Tienda Express","size_m2":200,"category":"Productos de Limpieza","subcategory":"Detergentes","country":"Estados Unidos","city":"Houston","address":"Barber Mount 135, Houston, Estados Unidos","phone":"+1 645215177","manager":"Kathy Nelson","opening_hours":"Lunes a Viernes, 8:30–17:30","services":"Atención al cliente, Reparaciones, Soporte técnico"}
{"branch_id":"BR-00145","store_type":"Tienda Express","size_m2":200,"category":"Alimentos","subcategory":"Carnes y Embutidos","country":"Estados Unidos","city":"Houston","address":"Seth River 73, Houston, Estados Unidos","phone":"+1 675930703","manager":"Kristin Grant","opening_hours":"Martes a Domingo, 11:00–19:00","services":"Consultoría, Ventas"}
{"branch_id":"BR-00146","store_type":"Tienda Express","size_m2":200,"category":"Alimentos","subcategory":"Comida Congelada","country":"Estados Unidos","city":"Houston","address":"Barnett Burg 148, Houston, Estados Unidos","phone":"+1 667754910","manager":"Marc Hawkins","opening_hours":"Lunes a Viernes, 9:00–18:00","services":"Entrega y recogida, Atención al cliente, Consultoría"}
{"branch_id":"BR-00147","store_type":"Tienda Express","size_m2":200,"category":"Productos de Limpieza","subcategory":"Ambientadores","country":"Estados Unidos","city":"Houston","address":"Kristina Mill 68, Houston, Estados Unidos","phone":"+1 643952000","manager":"James Brown","opening_hours":"Lunes a Sábado, 10:00–20:00","services":"Consultoría, Ventas, Reparaciones, Entrega y recogida"}
{"branch_id":"BR-00148","store_type":"Tienda Express","size_m2":200,"category":"Cuidado Personal","subcategory":"Farmacéuticos","country":"Estados Unidos","city":"Houston","address":"Jacqueline Fords 152, Houston, Estados Unidos","phone":"+1 669838621","manager":"Ashley Mosley","opening_hours":"Martes a Domingo, 11:00–19:00","services":"Entrega y recogida, Reparaciones"}
{"branch_id":"BR-00149","store_type":"Tienda Express","size_m2":200,"category":"Productos de Limpieza","subcategory":"Limpiadores multiusos","country":"Estados Unidos","city":"Houston","address":"Nathan Fort 85, Houston, Estados Unidos","phone":"+1 605468559","manager":"Rebecca Rodriguez","opening_hours":"Todos los días, 8:00–22:00","services":"Reparaciones, Ventas, Soporte técnico"}
{"branch_id":"BR-00150","store_type":"Tienda Express","size_m2":200,"category":"Cuidado Personal","subcategory":"Nutrición","country":"Estados Unidos","city":"Houston","address":"Sean Springs 186, Houston, Estados Unidos","phone":"+1 600398168","manager":"Michelle Sandoval","opening_hours":"Martes a Domingo, 11:00–19:00","services":"Entrega y recogida, Ventas, Logística"}
{"branch_id":"BR-00151","store_type":"Tienda Express","size_m2":200,"category":"Alimentos","subcategory":"Frutas y Verduras","country":"Estados Unidos","city":"Houston","address":"Robert Streets 78, Houston, Estados Unidos","phone":"+1 657789823","manager":"Todd Cervantes","opening_hours":"Lunes a Viernes, 8:30–17:30","services":"Atención al cliente, Reparaciones"}
{"branch_id":"BR-00152","store_type":"Tienda Express","size_m2":200,"category":"Cuidado Personal","subcategory":"Higiene","country":"Estados Unidos","city":"Houston","address":"Todd Roads 42, Houston, Estados Unidos","phone":"+1 632124028","manager":"Victor Hughes","opening_hours":"Lunes a Viernes, 9:00–18:00","services":"Consultoría, Atención al cliente"}
{"branch_id":"BR-00153","store_type":"Hipermercado","size_m2":3000,"category":"Tecnología","subcategory":"Ciberseguridad","country":"Venezuela","city":"Maracaibo","address":"Johnson Bridge 19, Maracaibo, Venezuela","phone":"+58 630420608","manager":"Jose Antonio Ramírez Cifuentes","opening_hours":"Lunes a Sábado, 10:00–20:00","services":"Soporte técnico, Consultoría"}
{"branch_id":"BR-00154","store_type":"Hipermercado","size_m2":3000,"category":"Ropa","subcategory":"Infantil","country":"Venezuela","city":"Maracaibo","address":"Perez Key 195, Maracaibo, Venezuela","phone":"+58 633064868","manager":"Roberta Fuentes Portillo","opening_hours":"Todos los días, 8:00–22:00","services":"Consultoría, Ventas, Logística, Atención al cliente"}
{"branch_id":"BR-00155","store_type":"Supermercado","size_m2":1500,"category":"Productos de Limpieza","subcategory":"Escobas y utensilios","country":"Venezuela","city":"Maracaibo","address":"Jennifer Squares 22, Maracaibo, Venezuela","phone":"+58 651076795","manager":"Petrona Valverde Fuente","opening_hours":"Todos los días, 8:00–22:00","services":"Entrega y recogida, Logística"}
{"branch_id":"BR-00156","store_type":"Supermercado","size_m2":1500,"category":"Alimentos","subcategory":"Frutas y Verduras","country":"Venezuela","city":"Maracaibo","address":"Hill Mews 92, Maracaibo, Venezuela","phone":"+58 600046139","manager":"Carmelita Torrents Acuña","opening_hours":"Lunes a Sábado, 10:00–20:00","services":"Atención al cliente, Entrega y recogida, Consultoría, Soporte técnico"}
{"branch_id":"BR-00157","store_type":"Supermercado","size_m2":1500,"category":"Ropa","subcategory":"Accesorios","country":"Venezuela","city":"Maracaibo","address":"Susan Extension 127, Maracaibo, Venezuela","phone":"+58 663599723","manager":"Horacio de Cruz","opening_hours":"Lunes a Sábado, 10:00–20:00","services":"Atención al cliente, Reparaciones"}
{"branch_id":"BR-00158","store_type":"Supermercado","size_m2":1500,"category":"Electrónica","subcategory":"Electrodomésticos","country":"Venezuela","city":"Maracaibo","address":"Jimmy Ramp 9, Maracaibo, Venezuela","phone":"+58 643301664","manager":"Eufemia Asenjo Vigil","opening_hours":"Lunes a Sábado, 10:00–20:00","services":"Reparaciones, Consultoría, Atención al cliente, Logística"}
{"branch_id":"BR-00159","store_type":"Supermercado","size_m2":1500,"category":"Hogar y Decoración","subcategory":"Arte decorativo","country":"Venezuela","city":"Maracaibo","address":"Janice Springs 63, Maracaibo, Venezuela","phone":"+58 693166206","manager":"Tito Vallejo Pascual","opening_hours":"Lunes a Viernes, 9:00–18:00","services":"Consultoría, Soporte técnico, Entrega y recogida, Reparaciones"}
{"branch_id":"BR-00160","store_type":"Supermercado","size_m2":1500,"category":"Cuidado Personal","subcategory":"Nutrición","country":"Venezuela","city":"Maracaibo","address":"Sanchez Valley 186, Maracaibo, Venezuela","phone":"+58 663606702","manager":"David Puente Tejera","opening_hours":"Todos los días, 8:00–22:00","services":"Soporte técnico, Reparaciones"}
{"branch_id":"BR-00161","store_type":"Supermercado","size_m2":1500,"category":"Electrónica","subcategory":"Computación","country":"Venezuela","city":"Maracaibo","address":"Smith Trace 104, Maracaibo, Venezuela","phone":"+58 643508955","manager":"Alejandro Pi-Riba","opening_hours":"Lunes a Viernes, 9:00–18:00","services":"Soporte técnico, Atención al cliente, Entrega y recogida"}
{"branch_id":"BR-00162","store_type":"Supermercado","size_m2":1500,"category":"Productos de Limpieza","subcategory":"Limpiadores multiusos","country":"Venezuela","city":"Maracaibo","address":"Jeffrey Brooks 182, Maracaibo, Venezuela","phone":"+58 658984506","manager":"América Rosado-Busquets","opening_hours":"Lunes a Viernes, 8:30–17:30","services":"Soporte técnico, Entrega y recogida"}
{"branch_id":"BR-00163","store_type":"Tienda Mediana","size_m2":500,"category":"Cuidado Personal","subcategory":"Cosméticos","country":"Venezuela","city":"Maracaibo","address":"Amy Lodge 114, Maracaibo, Venezuela","phone":"+58 670934847","manager":"Juanita Leyre Nicolás Mateo","opening_hours":"Todos los días, 8:00–22:00","services":"Ventas, Soporte técnico, Reparaciones, Logística"}
{"branch_id":"BR-00164","store_type":"Tienda Mediana","size_m2":500,"category":"Productos de Limpieza","subcategory":"Desinfectantes","country":"Venezuela","city":"Maracaibo","address":"Martinez Ferry 66, Maracaibo, Venezuela","phone":"+58 635859681","manager":"Apolonia de Revilla","opening_hours":"Lunes a Viernes, 8:30–17:30","services":"Reparaciones, Soporte técnico"}
{"branch_id":"BR-00165","store_type":"Tienda Mediana","size_m2":500,"category":"Alimentos","subcategory":"Panadería","country":"Venezuela","city":"Maracaibo","address":"Michael Branch 113, Maracaibo, Venezuela","phone":"+58 680346283","manager":"Natividad Niño Pallarès","opening_hours":"Lunes a Viernes, 9:00–18:00","services":"Soporte técnico, Reparaciones, Logística, Entrega y recogida"}
{"branch_id":"BR-00166","store_type":"Tienda Mediana","size_m2":500,"category":"Cuidado Personal","subcategory":"Cosméticos","country":"Venezuela","city":"Maracaibo","address":"James Overpass 84, Maracaibo, Venezuela","phone":"+58 670867863","manager":"Lino Rius Sola","opening_hours":"Martes a Domingo, 11:00–19:00","services":"Entrega y recogida, Reparaciones, Ventas"}
{"branch_id":"BR-00167","store_type":"Tienda Mediana","size_m2":500,"category":"Cuidado Personal","subcategory":"Higiene","country":"Venezuela","city":"Maracaibo","address":"Johnson Roads 81, Maracaibo, Venezuela","phone":"+58 628257053","manager":"Perlita Feijoo Mariño","opening_hours":"Martes a Domingo, 11:00–19:00","services":"Reparaciones, Entrega y recogida, Soporte técnico"}
{"branch_id":"BR-00168","store_type":"Tienda Mediana","size_m2":500,"category":"Cuidado Personal","subcategory":"Higiene","country":"Venezuela","city":"Maracaibo","address":"Cummings Lodge 71, Maracaibo, Venezuela","phone":"+58 647390803","manager":"Anita Vall Cánovas","opening_hours":"Lunes a Sábado, 10:00–20:00","services":"Soporte técnico, Ventas, Consultoría"}
{"branch_id":"BR-00169","store_type":"Tienda Mediana","size_m2":500,"category":"Cuidado Personal","subcategory":"Higiene","country":"Venezuela","city":"Maracaibo","address":"Connie Throughway 74, Maracaibo, Venezuela","phone":"+58 665717670","manager":"Leyre Martorell Laguna","opening_hours":"Todos los días, 8:00–22:00","services":"Ventas, Logística, Entrega y recogida"}
{"branch_id":"BR-00170","store_type":"Tienda Mediana","size_m2":500,"category":"Productos de Limpieza","subcategory":"Escobas y utensilios","country":"Venezuela","city":"Maracaibo","address":"Sean Glen 10, Maracaibo, Venezuela","phone":"+58 659210542","manager":"Marcia Girón Anglada","opening_hours":"Lunes a Sábado, 10:00–20:00","services":"Soporte técnico, Ventas, Consultoría, Entrega y recogida"}
{"branch_id":"BR-00171","store_type":"Tienda Mediana","size_m2":500,"category":"Productos de Limpieza","subcategory":"Limpiadores multiusos","country":"Venezuela","city":"Maracaibo","address":"Lucas Way 134, Maracaibo, Venezuela","phone":"+58 696762199","manager":"Marino Salvà Quintanilla","opening_hours":"Lunes a Sábado, 10:00–20:00","services":"Soporte técnico, Ventas, Entrega y recogida"}
{"branch_id":"BR-00172","store_type":"Tienda Mediana","size_m2":500,"category":"Alimentos","subcategory":"Carnes y Embutidos","country":"Venezuela","city":"Maracaibo","address":"Ashley Landing 38, Maracaibo, Venezuela","phone":"+58 637019153","manager":"Óscar Aguado Rincón","opening_hours":"Lunes a Viernes, 9:00–18:00","services":"Logística, Reparaciones"}
{"branch_id":"BR-00173","store_type":"Tienda Mediana","size_m2":500,"category":"Alimentos","subcategory":"Comida Congelada","country":"Venezuela","city":"Maracaibo","address":"Williams Harbors 93, Maracaibo, Venezuela","phone":"+58 662290246","manager":"Luna Iglesias Torrecilla","opening_hours":"Lunes a Viernes, 8:30–17:30","services":"Logística, Ventas, Atención al cliente"}
{"branch_id":"BR-00174","store_type":"Tienda Mediana","size_m2":500,"category":"Ropa","subcategory":"Moda Mujer","country":"Venezuela","city":"Maracaibo","address":"Adam Overpass 65, Maracaibo, Venezuela","phone":"+58 639221769","manager":"Cristina Nereida Carrillo Alcalde","opening_hours":"Martes a Domingo, 11:00–19:00","services":"Consultoría, Reparaciones"}
{"branch_id":"BR-00175","store_type":"Tienda Mediana","size_m2":500,"category":"Productos de Limpieza","subcategory":"Limpiadores multiusos","country":"Venezuela","city":"Maracaibo","address":"Richard Corner 78, Maracaibo, Venezuela","phone":"+58 655236006","manager":"Marcela del Piñeiro","opening_hours":"Lunes a Viernes, 8:30–17:30","services":"Reparaciones, Consultoría, Soporte técnico, Ventas"}
{"branch_id":"BR-00176","store_type":"Tienda Mediana","size_m2":500,"category":"Ropa","subcategory":"Moda Mujer","country":"Venezuela","city":"Maracaibo","address":"Nguyen Field 167, Maracaibo, Venezuela","phone":"+58 627762749","manager":"Miguel Ángel Luque Andres","opening_hours":"Lunes a Viernes, 9:00–18:00","services":"Ventas, Logística, Entrega y recogida"}
{"branch_id":"BR-00177","store_type":"Tienda Mediana","size_m2":500,"category":"Alimentos","subcategory":"Panadería","country":"Venezuela","city":"Maracaibo","address":"Frank Village 151, Maracaibo, Venezuela","phone":"+58 642674801","manager":"Rebeca Ángel-Carballo","opening_hours":"Martes a Domingo, 11:00–19:00","services":"Reparaciones, Soporte técnico, Entrega y recogida"}
{"branch_id":"BR-00178","store_type":"Tienda Express","size_m2":200,"category":"Productos de Limpieza","subcategory":"Escobas y utensilios","country":"Venezuela","city":"Maracaibo","address":"Sarah Row 48, Maracaibo, Venezuela","phone":"+58 658504988","manager":"Martin Piñeiro Tenorio","opening_hours":"Lunes a Viernes, 9:00–18:00","services":"Ventas, Consultoría, Entrega y recogida, Atención al cliente"}
{"branch_id":"BR-00179","store_type":"Tienda Express","size_m2":200,"category":"Alimentos","subcategory":"Carnes y Embutidos","country":"Venezuela","city":"Maracaibo","address":"Myers Village 113, Maracaibo, Venezuela","phone":"+58 609112233","manager":"Fidela Arnau Anglada","opening_hours":"Lunes a Viernes, 9:00–18:00","services":"Reparaciones, Consultoría, Soporte técnico"}
{"branch_id":"BR-00180","store_type":"Tienda Express","size_m2":200,"category":"Cuidado Personal","subcategory":"Nutrición","country":"Venezuela","city":"Maracaibo","address":"Lee Turnpike 41, Maracaibo, Venezuela","phone":"+58 664474400","manager":"Omar Madrid Mendoza","opening_hours":"Martes a Domingo, 11:00–19:00","services":"Atención al cliente, Soporte técnico, Logística, Ventas"}
{"branch_id":"BR-00181","store_type":"Tienda Express","size_m2":200,"category":"Alimentos","subcategory":"Panadería","country":"Venezuela","city":"Maracaibo","address":"Kara Rue 47, Maracaibo, Venezuela","phone":"+58 675229408","manager":"Yésica Cabo Pellicer","opening_hours":"Todos los días, 8:00–22:00","services":"Soporte técnico, Atención al cliente, Logística"}
{"branch_id":"BR-00182","store_type":"Tienda Express","size_m2":200,"category":"Cuidado Personal","subcategory":"Nutrición","country":"Venezuela","city":"Maracaibo","address":"Debra Glen 28, Maracaibo, Venezuela","phone":"+58 639867550","manager":"Pía Cerdán Medina","opening_hours":"Lunes a Viernes, 9:00–18:00","services":"Consultoría, Soporte técnico"}
{"branch_id":"BR-00183","store_type":"Tienda Express","size_m2":200,"category":"Alimentos","subcategory":"Comida Congelada","country":"Venezuela","city":"Maracaibo","address":"Timothy Mountains 6, Maracaibo, Venezuela","phone":"+58 614775237","manager":"María Jesús Hervia Arrieta","opening_hours":"Martes a Domingo, 11:00–19:00","services":"Consultoría, Atención al cliente, Reparaciones, Logística"}
{"branch_id":"BR-00184","store_type":"Tienda Express","size_m2":200,"category":"Alimentos","subcategory":"Bebidas","country":"Venezuela","city":"Maracaibo","address":"Samuel Burg 153, Maracaibo, Venezuela","phone":"+58 691566627","manager":"Eulalia Clemente","opening_hours":"Todos los días, 8:00–22:00","services":"Logística, Reparaciones, Consultoría"}
{"branch_id":"BR-00185","store_type":"Tienda Express","size_m2":200,"category":"Cuidado Personal","subcategory":"Higiene","country":"Venezuela","city":"Maracaibo","address":"Houston Fork 1, Maracaibo, Venezuela","phone":"+58 638894899","manager":"Rosalina Julieta Sanchez Arribas","opening_hours":"Lunes a Sábado, 10:00–20:00","services":"Soporte técnico, Logística"}
{"branch_id":"BR-00186","store_type":"Tienda Express","size_m2":200,"category":"Productos de Limpieza","subcategory":"Desinfectantes","country":"Venezuela","city":"Maracaibo","address":"Chloe Shores 145, Maracaibo, Venezuela","phone":"+58 685366847","manager":"Eloísa Paz Sánchez","opening_hours":"Lunes a Viernes, 8:30–17:30","services":"Entrega y recogida, Atención al cliente, Logística, Ventas"}
{"branch_id":"BR-00187","store_type":"Tienda Express","size_m2":200,"category":"Productos de Limpieza","subcategory":"Ambientadores","country":"Venezuela","city":"Maracaibo","address":"Johnson Extensions 190, Maracaibo, Venezuela","phone":"+58 678444045","manager":"Fortunata Patiño Porcel","opening_hours":"Todos los días, 8:00–22:00","services":"Logística, Soporte técnico, Atención al cliente"}
{"branch_id":"BR-00188","store_type":"Tienda Express","size_m2":200,"category":"Alimentos","subcategory":"Bebidas","country":"Venezuela","city":"Maracaibo","address":"Valdez Island 112, Maracaibo, Venezuela","phone":"+58 645452792","manager":"Roldán Tomé Oliver","opening_hours":"Todos los días, 8:00–22:00","services":"Soporte técnico, Logística"}
{"branch_id":"BR-00189","store_type":"Tienda Express","size_m2":200,"category":"Productos de Limpieza","subcategory":"Ambientadores","country":"Venezuela","city":"Maracaibo","address":"Carolyn Canyon 26, Maracaibo, Venezuela","phone":"+58 629137536","manager":"Vinicio Abella Vilanova","opening_hours":"Martes a Domingo, 11:00–19:00","services":"Consultoría, Reparaciones, Ventas"}
{"branch_id":"BR-00190","store_type":"Tienda Express","size_m2":200,"category":"Cuidado Personal","subcategory":"Farmacéuticos","country":"Venezuela","city":"Maracaibo","address":"Carpenter Parks 100, Maracaibo, Venezuela","phone":"+58 668064874","manager":"Ariadna Gallo","opening_hours":"Lunes a Viernes, 8:30–17:30","services":"Reparaciones, Ventas, Entrega y recogida"}
{"branch_id":"BR-00191","store_type":"Hipermercado","size_m2":3000,"category":"Alimentos","subcategory":"Carnes y Embutidos","country":"Japón","city":"Yokohama","address":"Mills Mall 59, Yokohama, Japón","phone":"+81 601694353","manager":"吉田 翔太","opening_hours":"Lunes a Sábado, 10:00–20:00","services":"Soporte técnico, Atención al cliente, Consultoría"}
{"branch_id":"BR-00192","store_type":"Hipermercado","size_m2":3000,"category":"Accesorios y Repuestos","subcategory":"Mecánicos","country":"Japón","city":"Yokohama","address":"Young Causeway 136, Yokohama, Japón","phone":"+81 666386727","manager":"斎藤 涼平","opening_hours":"Todos los días, 8:00–22:00","services":"Ventas, Entrega y recogida"}
{"branch_id":"BR-00193","store_type":"Supermercado","size_m2":1500,"category":"Hogar y Decoración","subcategory":"Organización","country":"Japón","city":"Yokohama","address":"Morton Neck 152, Yokohama, Japón","phone":"+81 663643334","manager":"木村 学","opening_hours":"Lunes a Viernes, 9:00–18:00","services":"Soporte técnico, Atención al cliente"}
{"branch_id":"BR-00194","store_type":"Supermercado","size_m2":1500,"category":"Electrónica","subcategory":"Telefonía","country":"Japón","city":"Yokohama","address":"Foster Meadows 63, Yokohama, Japón","phone":"+81 619637804","manager":"三浦 裕美子","opening_hours":"Martes a Domingo, 11:00–19:00","services":"Soporte técnico, Ventas, Logística"}
{"branch_id":"BR-00195","store_type":"Supermercado","size_m2":1500,"category":"Productos de Limpieza","subcategory":"Detergentes","country":"Japón","city":"Yokohama","address":"Smith Flats 42, Yokohama, Japón","phone":"+81 684987539","manager":"山田 さゆり","opening_hours":"Lunes a Sábado, 10:00–20:00","services":"Consultoría, Atención al cliente"}
{"branch_id":"BR-00196","store_type":"Supermercado","size_m2":1500,"category":"Electrónica","subcategory":"Audio y Video","country":"Japón","city":"Yokohama","address":"Underwood Keys 37, Yokohama, Japón","phone":"+81 601466183","manager":"井上 洋介","opening_hours":"Lunes a Sábado, 10:00–20:00","services":"Atención al cliente, Entrega y recogida, Ventas, Soporte técnico"}
{"branch_id":"BR-00197","store_type":"Supermercado","size_m2":1500,"category":"Productos de Limpieza","subcategory":"Ambientadores","country":"Japón","city":"Yokohama","address":"Andrea Village 73, Yokohama, Japón","phone":"+81 623690925","manager":"斉藤 亮介","opening_hours":"Todos los días, 8:00–22:00","services":"Consultoría, Reparaciones, Soporte técnico, Entrega y recogida"}
{"branch_id":"BR-00198","store_type":"Supermercado","size_m2":1500,"category":"Productos de Limpieza","subcategory":"Ambientadores","country":"Japón","city":"Yokohama","address":"Kathryn Stream 83, Yokohama, Japón","phone":"+81 659429070","manager":"三浦 花子","opening_hours":"Lunes a Viernes, 8:30–17:30","services":"Soporte técnico, Ventas, Atención al cliente, Entrega y recogida"}
{"branch_id":"BR-00199","store_type":"Supermercado","size_m2":1500,"category":"Productos de Limpieza","subcategory":"Detergentes","country":"Japón","city":"Yokohama","address":"Michael Pine 116, Yokohama, Japón","phone":"+81 602090244","manager":"清水 陽子","opening_hours":"Todos los días, 8:00–22:00","services":"Logística, Reparaciones"}
{"branch_id":"BR-00200","store_type":"Supermercado","size_m2":1500,"category":"Cuidado Personal","subcategory":"Higiene","country":"Japón","city":"Yokohama","address":"Samuel Extension 30, Yokohama, Japón","phone":"+81 689584538","manager":"佐藤 結衣","opening_hours":"Lunes a Viernes, 8:30–17:30","services":"Soporte técnico, Logística, Atención al cliente, Ventas"}
{"branch_id":"BR-00201","store_type":"Tienda Mediana","size_m2":500,"category":"Ropa","subcategory":"Moda Hombre","country":"Japón","city":"Yokohama","address":"Allen Walk 191, Yokohama, Japón","phone":"+81 655209835","manager":"松本 修平","opening_hours":"Lunes a Viernes, 8:30–17:30","services":"Ventas, Soporte técnico, Consultoría"}
{"branch_id":"BR-00202","store_type":"Tienda Mediana","size_m2":500,"category":"Cuidado Personal","subcategory":"Nutrición","country":"Japón","city":"Yokohama","address":"Obrien Parkways 41, Yokohama, Japón","phone":"+81 639745962","manager":"小川 翼","opening_hours":"Lunes a Viernes, 8:30–17:30","services":"Logística, Soporte técnico, Consultoría"}
{"branch_id":"BR-00203","store_type":"Tienda Mediana","size_m2":500,"category":"Ropa","subcategory":"Moda Mujer","country":"Japón","city":"Yokohama","address":"Burns Prairie 80, Yokohama, Japón","phone":"+81 638454869","manager":"橋本 舞","opening_hours":"Lunes a Sábado, 10:00–20:00","services":"Ventas, Soporte técnico, Logística, Reparaciones"}
{"branch_id":"BR-00204","store_type":"Tienda Mediana","size_m2":500,"category":"Productos de Limpieza","subcategory":"Limpiadores multiusos","country":"Japón","city":"Yokohama","address":"Durham Ports 136, Yokohama, Japón","phone":"+81 625516565","manager":"佐藤 陽子","opening_hours":"Todos los días, 8:00–22:00","services":"Atención al cliente, Ventas, Consultoría"}
{"branch_id":"BR-00205","store_type":"Tienda Mediana","size_m2":500,"category":"Cuidado Personal","subcategory":"Cosméticos","country":"Japón","city":"Yokohama","address":"Harding Knoll 51, Yokohama, Japón","phone":"+81 672547485","manager":"石川 くみ子","opening_hours":"Martes a Domingo, 11:00–19:00","services":"Entrega y recogida, Ventas, Atención al cliente"}
{"branch_id":"BR-00206","store_type":"Tienda Mediana","size_m2":500,"category":"Productos de Limpieza","subcategory":"Ambientadores","country":"Japón","city":"Yokohama","address":"Webb Common 21, Yokohama, Japón","phone":"+81 626005821","manager":"岡本 くみ子","opening_hours":"Martes a Domingo, 11:00–19:00","services":"Logística, Ventas, Reparaciones"}
{"branch_id":"BR-00207","store_type":"Tienda Mediana","size_m2":500,"category":"Cuidado Personal","subcategory":"Nutrición","country":"Japón","city":"Yokohama","address":"Douglas Island 154, Yokohama, Japón","phone":"+81 669893664","manager":"井上 花子","opening_hours":"Lunes a Sábado, 10:00–20:00","services":"Ventas, Reparaciones"}
{"branch_id":"BR-00208","store_type":"Tienda Mediana","size_m2":500,"category":"Cuidado Personal","subcategory":"Farmacéuticos","country":"Japón","city":"Yokohama","address":"Lance Flats 150, Yokohama, Japón","phone":"+81 629880658","manager":"阿部 春香","opening_hours":"Martes a Domingo, 11:00–19:00","services":"Entrega y recogida, Ventas, Reparaciones, Logística"}
{"branch_id":"BR-00209","store_type":"Tienda Mediana","size_m2":500,"category":"Alimentos","subcategory":"Comida Congelada","country":"Japón","city":"Yokohama","address":"Nancy Plaza 116, Yokohama, Japón","phone":"+81 642298778","manager":"清水 千代","opening_hours":"Lunes a Viernes, 9:00–18:00","services":"Reparaciones, Consultoría"}
{"branch_id":"BR-00210","store_type":"Tienda Mediana","size_m2":500,"category":"Cuidado Personal","subcategory":"Spa","country":"Japón","city":"Yokohama","address":"Humphrey Spring 28, Yokohama, Japón","phone":"+81 665444413","manager":"小林 洋介","opening_hours":"Lunes a Sábado, 10:00–20:00","services":"Ventas, Entrega y recogida"}
{"branch_id":"BR-00211","store_type":"Tienda Mediana","size_m2":500,"category":"Cuidado Personal","subcategory":"Cosméticos","country":"Japón","city":"Yokohama","address":"Ewing Roads 35, Yokohama, Japón","phone":"+81 686579913","manager":"鈴木 加奈","opening_hours":"Lunes a Viernes, 8:30–17:30","services":"Logística, Atención al cliente"}
{"branch_id":"BR-00212","store_type":"Tienda Mediana","size_m2":500,"category":"Cuidado Personal","subcategory":"Farmacéuticos","country":"Japón","city":"Yokohama","address":"Anderson Heights 92, Yokohama, Japón","phone":"+81 670982265","manager":"藤井 太郎","opening_hours":"Lunes a Viernes, 9:00–18:00","services":"Atención al cliente, Reparaciones, Consultoría, Soporte técnico"}
{"branch_id":"BR-00213","store_type":"Tienda Mediana","size_m2":500,"category":"Productos de Limpieza","subcategory":"Detergentes","country":"Japón","city":"Yokohama","address":"Nguyen Isle 93, Yokohama, Japón","phone":"+81 693366674","manager":"長谷川 修平","opening_hours":"Lunes a Viernes, 9:00–18:00","services":"Logística, Atención al cliente, Reparaciones"}
{"branch_id":"BR-00214","store_type":"Tienda Mediana","size_m2":500,"category":"Productos de Limpieza","subcategory":"Detergentes","country":"Japón","city":"Yokohama","address":"Lowe Inlet 104, Yokohama, Japón","phone":"+81 667966000","manager":"佐々木 涼平","opening_hours":"Lunes a Viernes, 9:00–18:00","services":"Ventas, Consultoría"}
{"branch_id":"BR-00215","store_type":"Tienda Mediana","size_m2":500,"category":"Productos de Limpieza","subcategory":"Ambientadores","country":"Japón","city":"Yokohama","address":"Henry Camp 63, Yokohama, Japón","phone":"+81 633697182","manager":"池田 浩","opening_hours":"Martes a Domingo, 11:00–19:00","services":"Logística, Ventas, Atención al cliente"}
{"branch_id":"BR-00216","store_type":"Tienda Express","size_m2":200,"category":"Cuidado Personal","subcategory":"Farmacéuticos","country":"Japón","city":"Yokohama","address":"Theresa Rapids 148, Yokohama, Japón","phone":"+81 610456104","manager":"佐藤 拓真","opening_hours":"Martes a Domingo, 11:00–19:00","services":"Atención al cliente, Soporte técnico, Consultoría"}
{"branch_id":"BR-00217","store_type":"Tienda Express","size_m2":200,"category":"Alimentos","subcategory":"Comida Congelada","country":"Japón","city":"Yokohama","address":"Katherine Alley 97, Yokohama, Japón","phone":"+81 670548007","manager":"鈴木 あすか","opening_hours":"Lunes a Viernes, 9:00–18:00","services":"Entrega y recogida, Soporte técnico, Consultoría"}
{"branch_id":"BR-00218","store_type":"Tienda Express","size_m2":200,"category":"Alimentos","subcategory":"Comida Congelada","country":"Japón","city":"Yokohama","address":"Brown Creek 29, Yokohama, Japón","phone":"+81 681693528","manager":"佐藤 裕太","opening_hours":"Lunes a Viernes, 8:30–17:30","services":"Logística, Soporte técnico, Reparaciones, Consultoría"}
{"branch_id":"BR-00219","store_type":"Tienda Express","size_m2":200,"category":"Alimentos","subcategory":"Frutas y Verduras","country":"Japón","city":"Yokohama","address":"Angela Shore 121, Yokohama, Japón","phone":"+81 628342867","manager":"佐々木 七夏","opening_hours":"Martes a Domingo, 11:00–19:00","services":"Soporte técnico, Reparaciones, Atención al cliente, Entrega y recogida"}
{"branch_id":"BR-00220","store_type":"Tienda Express","size_m2":200,"category":"Alimentos","subcategory":"Bebidas","country":"Japón","city":"Yokohama","address":"Dwayne Grove 176, Yokohama, Japón","phone":"+81 642525768","manager":"佐々木 春香","opening_hours":"Lunes a Viernes, 8:30–17:30","services":"Reparaciones, Entrega y recogida"}
{"branch_id":"BR-00221","store_type":"Tienda Express","size_m2":200,"category":"Productos de Limpieza","subcategory":"Desinfectantes","country":"Japón","city":"Yokohama","address":"Crawford Motorway 165, Yokohama, Japón","phone":"+81 673321738","manager":"後藤 洋介","opening_hours":"Lunes a Sábado, 10:00–20:00","services":"Logística, Atención al cliente, Consultoría"}
{"branch_id":"BR-00222","store_type":"Tienda Express","size_m2":200,"category":"Cuidado Personal","subcategory":"Cosméticos","country":"Japón","city":"Yokohama","address":"Gardner View 137, Yokohama, Japón","phone":"+81 603714330","manager":"近藤 翔太","opening_hours":"Todos los días, 8:00–22:00","services":"Consultoría, Entrega y recogida, Logística"}
{"branch_id":"BR-00223","store_type":"Tienda Express","size_m2":200,"category":"Productos de Limpieza","subcategory":"Ambientadores","country":"Japón","city":"Yokohama","address":"Melissa Centers 200, Yokohama, Japón","phone":"+81 658188334","manager":"清水 晃","opening_hours":"Todos los días, 8:00–22:00","services":"Consultoría, Logística, Atención al cliente, Entrega y recogida"}
{"branch_id":"BR-00224","store_type":"Tienda Express","size_m2":200,"category":"Productos de Limpieza","subcategory":"Escobas y utensilios","country":"Japón","city":"Yokohama","address":"Reid Village 27, Yokohama, Japón","phone":"+81 695699904","manager":"斎藤 直子","opening_hours":"Martes a Domingo, 11:00–19:00","services":"Atención al cliente, Reparaciones, Soporte técnico, Ventas"}
{"branch_id":"BR-00225","store_type":"Tienda Express","size_m2":200,"category":"Cuidado Personal","subcategory":"Higiene","country":"Japón","city":"Yokohama","address":"Brooke Ridge 94, Yokohama, Japón","phone":"+81 682636176","manager":"田中 七夏","opening_hours":"Lunes a Viernes, 8:30–17:30","services":"Atención al cliente, Consultoría"}
{"branch_id":"BR-00226","store_type":"Tienda Express","size_m2":200,"category":"Productos de Limpieza","subcategory":"Detergentes","country":"Japón","city":"Yokohama","address":"Curry Common 61, Yokohama, Japón","phone":"+81 655126486","manager":"佐藤 健一","opening_hours":"Todos los días, 8:00–22:00","services":"Reparaciones, Consultoría"}
{"branch_id":"BR-00227","store_type":"Tienda Express","size_m2":200,"category":"Alimentos","subcategory":"Bebidas","country":"Japón","city":"Yokohama","address":"Jamie Place 86, Yokohama, Japón","phone":"+81 634203716","manager":"山崎 明美","opening_hours":"Lunes a Viernes, 9:00–18:00","services":"Atención al cliente, Entrega y recogida, Ventas"}
{"branch_id":"BR-00228","store_type":"Tienda Express","size_m2":200,"category":"Alimentos","subcategory":"Bebidas","country":"Japón","city":"Yokohama","address":"Dale Ports 152, Yokohama, Japón","phone":"+81 661636548","manager":"松本 舞","opening_hours":"Lunes a Viernes, 9:00–18:00","services":"Logística, Ventas"}
{"branch_id":"BR-00229","store_type":"Hipermercado","size_m2":3000,"category":"Alimentos","subcategory":"Bebidas","country":"Francia","city":"Lyon","address":"Mariah Camp 22, Lyon, Francia","phone":"+33 621292519","manager":"Joséphine Godard","opening_hours":"Lunes a Sábado, 10:00–20:00","services":"Entrega y recogida, Reparaciones, Atención al cliente"}
{"branch_id":"BR-00230","store_type":"Hipermercado","size_m2":3000,"category":"Cuidado Personal","subcategory":"Cosméticos","country":"Francia","city":"Lyon","address":"Jones Fall 137, Lyon, Francia","phone":"+33 637593655","manager":"Alain Hervé du Lejeune","opening_hours":"Martes a Domingo, 11:00–19:00","services":"Reparaciones, Entrega y recogida, Atención al cliente"}
{"branch_id":"BR-00231","store_type":"Supermercado","size_m2":1500,"category":"Ropa","subcategory":"Moda Hombre","country":"Francia","city":"Lyon","address":"William Wall 12, Lyon, Francia","phone":"+33 663244444","manager":"Emmanuelle Masson de Hamon","opening_hours":"Lunes a Sábado, 10:00–20:00","services":"Atención al cliente, Ventas"}
{"branch_id":"BR-00232","store_type":"Supermercado","size_m2":1500,"category":"Ropa","subcategory":"Infantil","country":"Francia","city":"Lyon","address":"Tina Islands 102, Lyon, Francia","phone":"+33 698751994","manager":"Jacques Roussel","opening_hours":"Martes a Domingo, 11:00–19:00","services":"Reparaciones, Consultoría"}
{"branch_id":"BR-00233","store_type":"Supermercado","size_m2":1500,"category":"Hogar y Decoración","subcategory":"Organización","country":"Francia","city":"Lyon","address":"Glenn Village 186, Lyon, Francia","phone":"+33 679101906","manager":"Henri Fontaine","opening_hours":"Lunes a Viernes, 8:30–17:30","services":"Reparaciones, Entrega y recogida"}
{"branch_id":"BR-00234","store_type":"Supermercado","size_m2":1500,"category":"Hogar y Decoración","subcategory":"Iluminación","country":"Francia","city":"Lyon","address":"Devon Station 8, Lyon, Francia","phone":"+33 630459322","manager":"Aurore Michel","opening_hours":"Lunes a Viernes, 8:30–17:30","services":"Entrega y recogida, Logística, Consultoría, Reparaciones"}
{"branch_id":"BR-00235","store_type":"Supermercado","size_m2":1500,"category":"Hogar y Decoración","subcategory":"Iluminación","country":"Francia","city":"Lyon","address":"Turner Path 28, Lyon, Francia","phone":"+33 684194352","manager":"Antoinette Thierry-Michaud","opening_hours":"Lunes a Sábado, 10:00–20:00","services":"Ventas, Atención al cliente"}
{"branch_id":"BR-00236","store_type":"Supermercado","size_m2":1500,"category":"Ropa","subcategory":"Deportivo","country":"Francia","city":"Lyon","address":"Kevin Via 151, Lyon, Francia","phone":"+33 661618245","manager":"Gabrielle Leroux du Boulanger","opening_hours":"Todos los días, 8:00–22:00","services":"Atención al cliente, Ventas, Entrega y recogida, Logística"}
{"branch_id":"BR-00237","store_type":"Supermercado","size_m2":1500,"category":"Ropa","subcategory":"Moda Mujer","country":"Francia","city":"Lyon","address":"Troy Crest 174, Lyon, Francia","phone":"+33 658787916","manager":"Tristan Bourdon","opening_hours":"Lunes a Viernes, 8:30–17:30","services":"Ventas, Atención al cliente, Soporte técnico"}
{"branch_id":"BR-00238","store_type":"Supermercado","size_m2":1500,"category":"Hogar y Decoración","subcategory":"Muebles","country":"Francia","city":"Lyon","address":"Reed Drive 140, Lyon, Francia","phone":"+33 667776805","manager":"Mathilde Clément","opening_hours":"Lunes a Viernes, 8:30–17:30","services":"Soporte técnico, Atención al cliente"}
{"branch_id":"BR-00239","store_type":"Tienda Mediana","size_m2":500,"category":"Ropa","subcategory":"Accesorios","country":"Francia","city":"Lyon","address":"Mark Hill 69, Lyon, Francia","phone":"+33 644663867","manager":"Daniel Dias-Toussaint","opening_hours":"Lunes a Viernes, 9:00–18:00","services":"Soporte técnico, Ventas, Entrega y recogida"}
{"branch_id":"BR-00240","store_type":"Tienda Mediana","size_m2":500,"category":"Alimentos","subcategory":"Panadería","country":"Francia","city":"Lyon","address":"Douglas Islands 3, Lyon, Francia","phone":"+33 632193659","manager":"Olivier Neveu Le Huet","opening_hours":"Lunes a Sábado, 10:00–20:00","services":"Consultoría, Reparaciones"}
{"branch_id":"BR-00241","store_type":"Tienda Mediana","size_m2":500,"category":"Alimentos","subcategory":"Bebidas","country":"Francia","city":"Lyon","address":"Hatfield Flat 42, Lyon, Francia","phone":"+33 609835777","manager":"Claire du Collet","opening_hours":"Lunes a Viernes, 9:00–18:00","services":"Ventas, Atención al cliente"}
{"branch_id":"BR-00242","store_type":"Tienda Mediana","size_m2":500,"category":"Productos de Limpieza","subcategory":"Detergentes","country":"Francia","city":"Lyon","address":"Lisa Lake 22, Lyon, Francia","phone":"+33 618311907","manager":"Renée Neveu","opening_hours":"Todos los días, 8:00–22:00","services":"Ventas, Soporte técnico"}
{"branch_id":"BR-00243","store_type":"Tienda Mediana","size_m2":500,"category":"Cuidado Personal","subcategory":"Nutrición","country":"Francia","city":"Lyon","address":"Anthony Squares 135, Lyon, Francia","phone":"+33 678621546","manager":"Adrienne Hoareau-Guilbert","opening_hours":"Martes a Domingo, 11:00–19:00","services":"Consultoría, Ventas"}
{"branch_id":"BR-00244","store_type":"Tienda Mediana","size_m2":500,"category":"Alimentos","subcategory":"Bebidas","country":"Francia","city":"Lyon","address":"Edward Meadows 114, Lyon, Francia","phone":"+33 602746722","manager":"Michelle Royer","opening_hours":"Martes a Domingo, 11:00–19:00","services":"Consultoría, Entrega y recogida, Logística"}
{"branch_id":"BR-00245","store_type":"Tienda Mediana","size_m2":500,"category":"Alimentos","subcategory":"Carnes y Embutidos","country":"Francia","city":"Lyon","address":"Allison Stream 68, Lyon, Francia","phone":"+33 672670273","manager":"Julien-Luc Guyon","opening_hours":"Todos los días, 8:00–22:00","services":"Soporte técnico, Atención al cliente"}
{"branch_id":"BR-00246","store_type":"Tienda Mediana","size_m2":500,"category":"Alimentos","subcategory":"Carnes y Embutidos","country":"Francia","city":"Lyon","address":"Jacob Expressway 33, Lyon, Francia","phone":"+33 671007737","manager":"Alfred-Jérôme Leblanc","opening_hours":"Lunes a Viernes, 9:00–18:00","services":"Entrega y recogida, Ventas, Soporte técnico"}
{"branch_id":"BR-00247","store_type":"Tienda Mediana","size_m2":500,"category":"Alimentos","subcategory":"Frutas y Verduras","country":"Francia","city":"Lyon","address":"Dawn Branch 149, Lyon, Francia","phone":"+33 655933611","manager":"Victor Roussel","opening_hours":"Martes a Domingo, 11:00–19:00","services":"Atención al cliente, Logística, Soporte técnico"}
{"branch_id":"BR-00248","store_type":"Tienda Mediana","size_m2":500,"category":"Cuidado Personal","subcategory":"Higiene","country":"Francia","city":"Lyon","address":"Mary Stream 29, Lyon, Francia","phone":"+33 699248489","manager":"Inès Huet","opening_hours":"Martes a Domingo, 11:00–19:00","services":"Entrega y recogida, Soporte técnico"}
{"branch_id":"BR-00249","store_type":"Tienda Mediana","size_m2":500,"category":"Ropa","subcategory":"Deportivo","country":"Francia","city":"Lyon","address":"Hawkins Streets 49, Lyon, Francia","phone":"+33 670064778","manager":"Franck Léger","opening_hours":"Lunes a Sábado, 10:00–20:00","services":"Ventas, Consultoría, Entrega y recogida, Soporte técnico"}
{"branch_id":"BR-00250","store_type":"Tienda Mediana","size_m2":500,"category":"Cuidado Personal","subcategory":"Farmacéuticos","country":"Francia","city":"Lyon","address":"French Points 111, Lyon, Francia","phone":"+33 670582292","manager":"Théophile de Bonneau","opening_hours":"Todos los días, 8:00–22:00","services":"Soporte técnico, Entrega y recogida"}
{"branch_id":"BR-00251","store_type":"Tienda Mediana","size_m2":500,"category":"Cuidado Personal","subcategory":"Higiene","country":"Francia","city":"Lyon","address":"Williams Inlet 40, Lyon, Francia","phone":"+33 633797279","manager":"Arnaude du Girard","opening_hours":"Lunes a Sábado, 10:00–20:00","services":"Reparaciones, Ventas"}
{"branch_id":"BR-00252","store_type":"Tienda Mediana","size_m2":500,"category":"Ropa","subcategory":"Moda Hombre","country":"Francia","city":"Lyon","address":"Christine Cliffs 79, Lyon, Francia","phone":"+33 614535663","manager":"Martin Benard","opening_hours":"Todos los días, 8:00–22:00","services":"Entrega y recogida, Reparaciones, Atención al cliente, Logística"}
{"branch_id":"BR-00253","store_type":"Tienda Mediana","size_m2":500,"category":"Cuidado Personal","subcategory":"Cosméticos","country":"Francia","city":"Lyon","address":"Gloria Extension 186, Lyon, Francia","phone":"+33 693179655","manager":"Daniel Albert","opening_hours":"Lunes a Viernes, 8:30–17:30","services":"Reparaciones, Soporte técnico, Ventas, Logística"}
{"branch_id":"BR-00254","store_type":"Tienda Express","size_m2":200,"category":"Productos de Limpieza","subcategory":"Ambientadores","country":"Francia","city":"Lyon","address":"Kristine Squares 151, Lyon, Francia","phone":"+33 600102924","manager":"Susanne Briand","opening_hours":"Lunes a Sábado, 10:00–20:00","services":"Consultoría, Entrega y recogida, Ventas, Atención al cliente"}
{"branch_id":"BR-00255","store_type":"Tienda Express","size_m2":200,"category":"Productos de Limpieza","subcategory":"Detergentes","country":"Francia","city":"Lyon","address":"Alisha Mountain 159, Lyon, Francia","phone":"+33 664626746","manager":"Marc Ferreira","opening_hours":"Todos los días, 8:00–22:00","services":"Entrega y recogida, Ventas, Reparaciones"}
{"branch_id":"BR-00256","store_type":"Tienda Express","size_m2":200,"category":"Cuidado Personal","subcategory":"Farmacéuticos","country":"Francia","city":"Lyon","address":"Dennis Tunnel 9, Lyon, Francia","phone":"+33 663156154","manager":"Julien Chauvin","opening_hours":"Todos los días, 8:00–22:00","services":"Logística, Atención al cliente, Entrega y recogida"}
{"branch_id":"BR-00257","store_type":"Tienda Express","size_m2":200,"category":"Productos de Limpieza","subcategory":"Limpiadores multiusos","country":"Francia","city":"Lyon","address":"Karen Fords 186, Lyon, Francia","phone":"+33 607372294","manager":"Timothée Chauvin de Berger","opening_hours":"Todos los días, 8:00–22:00","services":"Logística, Soporte técnico, Entrega y recogida"}
{"branch_id":"BR-00258","store_type":"Tienda Express","size_m2":200,"category":"Productos de Limpieza","subcategory":"Escobas y utensilios","country":"Francia","city":"Lyon","address":"David Brook 175, Lyon, Francia","phone":"+33 692025127","manager":"Lucie Le Delahaye","opening_hours":"Lunes a Viernes, 8:30–17:30","services":"Reparaciones, Consultoría, Entrega y recogida, Logística"}
{"branch_id":"BR-00259","store_type":"Tienda Express","size_m2":200,"category":"Productos de Limpieza","subcategory":"Ambientadores","country":"Francia","city":"Lyon","address":"Hernandez Ranch 186, Lyon, Francia","phone":"+33 650856330","manager":"Nathalie-Christiane Besson","opening_hours":"Martes a Domingo, 11:00–19:00","services":"Ventas, Consultoría, Soporte técnico"}
{"branch_id":"BR-00260","store_type":"Tienda Express","size_m2":200,"category":"Alimentos","subcategory":"Bebidas","country":"Francia","city":"Lyon","address":"Kathy Lane 42, Lyon, Francia","phone":"+33 604214130","manager":"Alexandrie du Lebreton","opening_hours":"Todos los días, 8:00–22:00","services":"Entrega y recogida, Ventas"}
{"branch_id":"BR-00261","store_type":"Tienda Express","size_m2":200,"category":"Alimentos","subcategory":"Frutas y Verduras","country":"Francia","city":"Lyon","address":"Mary Lights 69, Lyon, Francia","phone":"+33 628254402","manager":"Zoé Le Guyot","opening_hours":"Lunes a Viernes, 9:00–18:00","services":"Ventas, Consultoría, Soporte técnico, Entrega y recogida"}
{"branch_id":"BR-00262","store_type":"Tienda Express","size_m2":200,"category":"Cuidado Personal","subcategory":"Spa","country":"Francia","city":"Lyon","address":"Christian Mountains 172, Lyon, Francia","phone":"+33 686063664","manager":"Colette Da Silva","opening_hours":"Lunes a Viernes, 9:00–18:00","services":"Atención al cliente, Ventas"}
{"branch_id":"BR-00263","store_type":"Tienda Express","size_m2":200,"category":"Alimentos","subcategory":"Frutas y Verduras","country":"Francia","city":"Lyon","address":"Smith Flats 10, Lyon, Francia","phone":"+33 609585773","manager":"Colette Barthelemy","opening_hours":"Martes a Domingo, 11:00–19:00","services":"Ventas, Atención al cliente, Logística, Entrega y recogida"}
{"branch_id":"BR-00264","store_type":"Tienda Express","size_m2":200,"category":"Cuidado Personal","subcategory":"Spa","country":"Francia","city":"Lyon","address":"Roberts Tunnel 79, Lyon, Francia","phone":"+33 645612588","manager":"Alphonse Rossi","opening_hours":"Lunes a Viernes, 9:00–18:00","services":"Logística, Ventas, Consultoría, Reparaciones"}
{"branch_id":"BR-00265","store_type":"Tienda Express","size_m2":200,"category":"Alimentos","subcategory":"Carnes y Embutidos","country":"Francia","city":"Lyon","address":"Jonathan Vista 77, Lyon, Francia","phone":"+33 647891017","manager":"Renée Bernard","opening_hours":"Martes a Domingo, 11:00–19:00","services":"Entrega y recogida, Consultoría, Reparaciones, Logística"}
{"branch_id":"BR-00266","store_type":"Tienda Express","size_m2":200,"category":"Cuidado Personal","subcategory":"Spa","country":"Francia","city":"Lyon","address":"Koch Trail 130, Lyon, Francia","phone":"+33 695956307","manager":"Lucie Carpentier-Rodrigues","opening_hours":"Lunes a Viernes, 9:00–18:00","services":"Ventas, Entrega y recogida"}
{"branch_id":"BR-00267","store_type":"Hipermercado","size_m2":3000,"category":"Construcción","subcategory":"Herramientas","country":"Italia","city":"Nápoles","address":"Samuel Keys 171, Nápoles, Italia","phone":"+39 675628669","manager":"Dott. Gioacchino Russo","opening_hours":"Lunes a Viernes, 9:00–18:00","services":"Reparaciones, Soporte técnico, Consultoría"}
{"branch_id":"BR-00268","store_type":"Hipermercado","size_m2":3000,"category":"Tecnología","subcategory":"Redes","country":"Italia","city":"Nápoles","address":"James Forges 156, Nápoles, Italia","phone":"+39 637448243","manager":"Rembrandt Mazzi-Morlacchi","opening_hours":"Lunes a Viernes, 9:00–18:00","services":"Soporte técnico, Ventas, Atención al cliente"}
{"branch_id":"BR-00269","store_type":"Supermercado","size_m2":1500,"category":"Electrónica","subcategory":"Electrodomésticos","country":"Italia","city":"Nápoles","address":"Powers Curve 32, Nápoles, Italia","phone":"+39 608878493","manager":"Francesco Mazzacurati","opening_hours":"Lunes a Sábado, 10:00–20:00","services":"Atención al cliente, Consultoría, Entrega y recogida"}
{"branch_id":"BR-00270","store_type":"Supermercado","size_m2":1500,"category":"Hogar y Decoración","subcategory":"Iluminación","country":"Italia","city":"Nápoles","address":"Wilson Cliffs 12, Nápoles, Italia","phone":"+39 668282131","manager":"Cristina Iadanza","opening_hours":"Todos los días, 8:00–22:00","services":"Entrega y recogida, Soporte técnico, Reparaciones"}
{"branch_id":"BR-00271","store_type":"Supermercado","size_m2":1500,"category":"Alimentos","subcategory":"Bebidas","country":"Italia","city":"Nápoles","address":"Ryan Meadows 70, Nápoles, Italia","phone":"+39 644286833","manager":"Giulio Accardo","opening_hours":"Lunes a Viernes, 8:30–17:30","services":"Soporte técnico, Consultoría"}
{"branch_id":"BR-00272","store_type":"Supermercado","size_m2":1500,"category":"Cuidado Personal","subcategory":"Nutrición","country":"Italia","city":"Nápoles","address":"Michele Row 124, Nápoles, Italia","phone":"+39 652986648","manager":"Riccardo Guarato","opening_hours":"Lunes a Sábado, 10:00–20:00","services":"Soporte técnico, Ventas, Atención al cliente"}
{"branch_id":"BR-00273","store_type":"Supermercado","size_m2":1500,"category":"Alimentos","subcategory":"Bebidas","country":"Italia","city":"Nápoles","address":"Johnson Forge 89, Nápoles, Italia","phone":"+39 659626232","manager":"Enzo Totino-Ravaglioli","opening_hours":"Lunes a Viernes, 8:30–17:30","services":"Reparaciones, Consultoría, Atención al cliente, Soporte técnico"}
{"branch_id":"BR-00274","store_type":"Supermercado","size_m2":1500,"category":"Hogar y Decoración","subcategory":"Iluminación","country":"Italia","city":"Nápoles","address":"Laura Locks 179, Nápoles, Italia","phone":"+39 666576445","manager":"Paride Pisacane","opening_hours":"Lunes a Sábado, 10:00–20:00","services":"Atención al cliente, Entrega y recogida, Consultoría, Soporte técnico"}
{"branch_id":"BR-00275","store_type":"Supermercado","size_m2":1500,"category":"Alimentos","subcategory":"Carnes y Embutidos","country":"Italia","city":"Nápoles","address":"Porter Passage 126, Nápoles, Italia","phone":"+39 677833631","manager":"Liana Ponti","opening_hours":"Lunes a Viernes, 9:00–18:00","services":"Logística, Consultoría, Ventas"}
{"branch_id":"BR-00276","store_type":"Supermercado","size_m2":1500,"category":"Alimentos","subcategory":"Comida Congelada","country":"Italia","city":"Nápoles","address":"Russell Road 143, Nápoles, Italia","phone":"+39 630085027","manager":"Camillo Ceschi","opening_hours":"Lunes a Viernes, 9:00–18:00","services":"Ventas, Atención al cliente, Logística, Soporte técnico"}
{"branch_id":"BR-00277","store_type":"Tienda Mediana","size_m2":500,"category":"Cuidado Personal","subcategory":"Nutrición","country":"Italia","city":"Nápoles","address":"Stacy Road 62, Nápoles, Italia","phone":"+39 601381584","manager":"Milena Gelli","opening_hours":"Lunes a Sábado, 10:00–20:00","services":"Ventas, Consultoría"}
{"branch_id":"BR-00278","store_type":"Tienda Mediana","size_m2":500,"category":"Ropa","subcategory":"Accesorios","country":"Italia","city":"Nápoles","address":"Hunter Drives 81, Nápoles, Italia","phone":"+39 644372497","manager":"Melissa Draghi","opening_hours":"Lunes a Sábado, 10:00–20:00","services":"Reparaciones, Logística, Ventas"}
{"branch_id":"BR-00279","store_type":"Tienda Mediana","size_m2":500,"category":"Productos de Limpieza","subcategory":"Desinfectantes","country":"Italia","city":"Nápoles","address":"Moore Crossing 10, Nápoles, Italia","phone":"+39 639741089","manager":"Dott. Elena Villadicani","opening_hours":"Lunes a Sábado, 10:00–20:00","services":"Reparaciones, Consultoría, Atención al cliente"}
{"branch_id":"BR-00280","store_type":"Tienda Mediana","size_m2":500,"category":"Ropa","subcategory":"Infantil","country":"Italia","city":"Nápoles","address":"Allen Summit 145, Nápoles, Italia","phone":"+39 609005936","manager":"Sig.ra Loretta Civaschi","opening_hours":"Todos los días, 8:00–22:00","services":"Reparaciones, Ventas"}
{"branch_id":"BR-00281","store_type":"Tienda Mediana","size_m2":500,"category":"Ropa","subcategory":"Moda Hombre","country":"Italia","city":"Nápoles","address":"Garcia Garden 56, Nápoles, Italia","phone":"+39 611222208","manager":"Liliana Doria-Speri","opening_hours":"Lunes a Viernes, 8:30–17:30","services":"Entrega y recogida, Logística, Reparaciones, Ventas"}
{"branch_id":"BR-00282","store_type":"Tienda Mediana","size_m2":500,"category":"Productos de Limpieza","subcategory":"Ambientadores","country":"Italia","city":"Nápoles","address":"Linda Ridge 166, Nápoles, Italia","phone":"+39 697289134","manager":"Roman Pedersoli","opening_hours":"Lunes a Viernes, 8:30–17:30","services":"Entrega y recogida, Soporte técnico, Atención al cliente"}
{"branch_id":"BR-00283","store_type":"Tienda Mediana","size_m2":500,"category":"Cuidado Personal","subcategory":"Nutrición","country":"Italia","city":"Nápoles","address":"Joseph Creek 150, Nápoles, Italia","phone":"+39 618084516","manager":"Valentina Tommaseo","opening_hours":"Lunes a Sábado, 10:00–20:00","services":"Atención al cliente, Entrega y recogida"}
{"branch_id":"BR-00284","store_type":"Tienda Mediana","size_m2":500,"category":"Cuidado Personal","subcategory":"Spa","country":"Italia","city":"Nápoles","address":"Smith Branch 116, Nápoles, Italia","phone":"+39 626393496","manager":"Romeo Nitto-Caboto","opening_hours":"Lunes a Viernes, 9:00–18:00","services":"Ventas, Entrega y recogida, Consultoría"}
{"branch_id":"BR-00285","store_type":"Tienda Mediana","size_m2":500,"category":"Alimentos","subcategory":"Carnes y Embutidos","country":"Italia","city":"Nápoles","address":"Stephanie Rapid 57, Nápoles, Italia","phone":"+39 662559912","manager":"Patrizio Contarini-Rossellini","opening_hours":"Lunes a Sábado, 10:00–20:00","services":"Ventas, Logística, Entrega y recogida"}
{"branch_id":"BR-00286","store_type":"Tienda Mediana","size_m2":500,"category":"Ropa","subcategory":"Moda Mujer","country":"Italia","city":"Nápoles","address":"Kimberly Pass 146, Nápoles, Italia","phone":"+39 621138652","manager":"Emma Babato","opening_hours":"Lunes a Viernes, 9:00–18:00","services":"Logística, Atención al cliente"}
{"branch_id":"BR-00287","store_type":"Tienda Mediana","size_m2":500,"category":"Cuidado Personal","subcategory":"Farmacéuticos","country":"Italia","city":"Nápoles","address":"Melendez Land 24, Nápoles, Italia","phone":"+39 609928314","manager":"Giovanni Falier-Bocelli","opening_hours":"Lunes a Viernes, 9:00–18:00","services":"Soporte técnico, Reparaciones, Entrega y recogida"}
{"branch_id":"BR-00288","store_type":"Tienda Mediana","size_m2":500,"category":"Ropa","subcategory":"Accesorios","country":"Italia","city":"Nápoles","address":"Mendoza Mountain 6, Nápoles, Italia","phone":"+39 658072449","manager":"Massimiliano Luna","opening_hours":"Lunes a Viernes, 8:30–17:30","services":"Reparaciones, Soporte técnico, Logística"}
{"branch_id":"BR-00289","store_type":"Tienda Mediana","size_m2":500,"category":"Cuidado Personal","subcategory":"Spa","country":"Italia","city":"Nápoles","address":"James Mountain 128, Nápoles, Italia","phone":"+39 627450708","manager":"Zaira Valentino","opening_hours":"Martes a Domingo, 11:00–19:00","services":"Reparaciones, Soporte técnico, Entrega y recogida, Logística"}
{"branch_id":"BR-00290","store_type":"Tienda Mediana","size_m2":500,"category":"Alimentos","subcategory":"Bebidas","country":"Italia","city":"Nápoles","address":"Brian Canyon 105, Nápoles, Italia","phone":"+39 686194618","manager":"Giacobbe Rinaldi","opening_hours":"Lunes a Sábado, 10:00–20:00","services":"Soporte técnico, Entrega y recogida, Logística"}
{"branch_id":"BR-00291","store_type":"Tienda Mediana","size_m2":500,"category":"Cuidado Personal","subcategory":"Spa","country":"Italia","city":"Nápoles","address":"Michael Village 100, Nápoles, Italia","phone":"+39 672362344","manager":"Sig.ra Fortunata Pometta","opening_hours":"Martes a Domingo, 11:00–19:00","services":"Atención al cliente, Ventas, Entrega y recogida, Soporte técnico"}
{"branch_id":"BR-00292","store_type":"Tienda Express","size_m2":200,"category":"Alimentos","subcategory":"Carnes y Embutidos","country":"Italia","city":"Nápoles","address":"Christopher Drive 120, Nápoles, Italia","phone":"+39 651847961","manager":"Ottavio Pennetta","opening_hours":"Martes a Domingo, 11:00–19:00","services":"Entrega y recogida, Logística"}
{"branch_id":"BR-00293","store_type":"Tienda Express","size_m2":200,"category":"Productos de Limpieza","subcategory":"Escobas y utensilios","country":"Italia","city":"Nápoles","address":"Ochoa Pine 13, Nápoles, Italia","phone":"+39 639707593","manager":"Dott. Annetta Porcellato","opening_hours":"Lunes a Viernes, 8:30–17:30","services":"Reparaciones, Entrega y recogida, Logística, Ventas"}
{"branch_id":"BR-00294","store_type":"Tienda Express","size_m2":200,"category":"Productos de Limpieza","subcategory":"Ambientadores","country":"Italia","city":"Nápoles","address":"Teresa Forest 179, Nápoles, Italia","phone":"+39 614208942","manager":"Sig.ra Greca Gremese","opening_hours":"Lunes a Viernes, 9:00–18:00","services":"Atención al cliente, Logística, Reparaciones"}
{"branch_id":"BR-00295","store_type":"Tienda Express","size_m2":200,"category":"Cuidado Personal","subcategory":"Nutrición","country":"Italia","city":"Nápoles","address":"Bender Dale 91, Nápoles, Italia","phone":"+39 663974150","manager":"Dott. Beatrice Ossani","opening_hours":"Martes a Domingo, 11:00–19:00","services":"Reparaciones, Logística, Atención al cliente, Entrega y recogida"}
{"branch_id":"BR-00296","store_type":"Tienda Express","size_m2":200,"category":"Cuidado Personal","subcategory":"Cosméticos","country":"Italia","city":"Nápoles","address":"Medina Street 50, Nápoles, Italia","phone":"+39 691045713","manager":"Silvio Giannotti","opening_hours":"Martes a Domingo, 11:00–19:00","services":"Entrega y recogida, Atención al cliente, Ventas, Logística"}
{"branch_id":"BR-00297","store_type":"Tienda Express","size_m2":200,"category":"Productos de Limpieza","subcategory":"Limpiadores multiusos","country":"Italia","city":"Nápoles","address":"Rose Isle 12, Nápoles, Italia","phone":"+39 677972327","manager":"Nicola Andreozzi-Valentino","opening_hours":"Lunes a Viernes, 9:00–18:00","services":"Reparaciones, Ventas"}
{"branch_id":"BR-00298","store_type":"Tienda Express","size_m2":200,"category":"Cuidado Personal","subcategory":"Farmacéuticos","country":"Italia","city":"Nápoles","address":"Cuevas Crescent 42, Nápoles, Italia","phone":"+39 607862905","manager":"Giustino Andreotti","opening_hours":"Lunes a Viernes, 9:00–18:00","services":"Ventas, Entrega y recogida, Soporte técnico"}
{"branch_id":"BR-00299","store_type":"Tienda Express","size_m2":200,"category":"Cuidado Personal","subcategory":"Higiene","country":"Italia","city":"Nápoles","address":"Keller Fall 115, Nápoles, Italia","phone":"+39 636048931","manager":"Ninetta Pedroni","opening_hours":"Todos los días, 8:00–22:00","services":"Soporte técnico, Consultoría"}
{"branch_id":"BR-00300","store_type":"Tienda Express","size_m2":200,"category":"Productos de Limpieza","subcategory":"Detergentes","country":"Italia","city":"Nápoles","address":"Banks Crest 20, Nápoles, Italia","phone":"+39 686389772","manager":"Sandra Salata","opening_hours":"Martes a Domingo, 11:00–19:00","services":"Atención al cliente, Consultoría"}
{"branch_id":"BR-00301","store_type":"Tienda Express","size_m2":200,"category":"Alimentos","subcategory":"Panadería","country":"Italia","city":"Nápoles","address":"Owen Landing 162, Nápoles, Italia","phone":"+39 678516377","manager":"Pier Andreozzi","opening_hours":"Martes a Domingo, 11:00–19:00","services":"Ventas, Reparaciones, Entrega y recogida, Atención al cliente"}
{"branch_id":"BR-00302","store_type":"Tienda Express","size_m2":200,"category":"Alimentos","subcategory":"Comida Congelada","country":"Italia","city":"Nápoles","address":"Sarah Haven 194, Nápoles, Italia","phone":"+39 639841242","manager":"Sig. Antonello Einaudi","opening_hours":"Martes a Domingo, 11:00–19:00","services":"Soporte técnico, Atención al cliente"}
{"branch_id":"BR-00303","store_type":"Tienda Express","size_m2":200,"category":"Productos de Limpieza","subcategory":"Detergentes","country":"Italia","city":"Nápoles","address":"Key Green 54, Nápoles, Italia","phone":"+39 670827975","manager":"Fortunata Onisto","opening_hours":"Todos los días, 8:00–22:00","services":"Consultoría, Soporte técnico"}
{"branch_id":"BR-00304","store_type":"Tienda Express","size_m2":200,"category":"Cuidado Personal","subcategory":"Cosméticos","country":"Italia","city":"Nápoles","address":"Jessica Squares 75, Nápoles, Italia","phone":"+39 638755151","manager":"Tonia Maderna","opening_hours":"Lunes a Viernes, 9:00–18:00","services":"Logística, Ventas, Reparaciones, Soporte técnico"}
{"branch_id":"BR-00305","store_type":"Hipermercado","size_m2":3000,"category":"Cuidado Personal","subcategory":"Farmacéuticos","country":"Alemania","city":"Múnich","address":"Tabitha Streets 181, Múnich, Alemania","phone":"+49 693142940","manager":"Jenny Walter MBA.","opening_hours":"Martes a Domingo, 11:00–19:00","services":"Entrega y recogida, Atención al cliente, Consultoría, Reparaciones"}
{"branch_id":"BR-00306","store_type":"Hipermercado","size_m2":3000,"category":"Alimentos","subcategory":"Comida Congelada","country":"Alemania","city":"Múnich","address":"Joyce Pines 38, Múnich, Alemania","phone":"+49 685704175","manager":"Frau Ilona Fritsch MBA.","opening_hours":"Martes a Domingo, 11:00–19:00","services":"Ventas, Atención al cliente, Soporte técnico"}
{"branch_id":"BR-00307","store_type":"Supermercado","size_m2":1500,"category":"Ropa","subcategory":"Infantil","country":"Alemania","city":"Múnich","address":"Jonathan Prairie 163, Múnich, Alemania","phone":"+49 671062342","manager":"Norman Weitzel","opening_hours":"Todos los días, 8:00–22:00","services":"Reparaciones, Atención al cliente, Consultoría, Soporte técnico"}
{"branch_id":"BR-00308","store_type":"Supermercado","size_m2":1500,"category":"Productos de Limpieza","subcategory":"Ambientadores","country":"Alemania","city":"Múnich","address":"Flores Lakes 60, Múnich, Alemania","phone":"+49 664077422","manager":"Dr. Irmela Heydrich B.Sc.","opening_hours":"Lunes a Viernes, 9:00–18:00","services":"Ventas, Reparaciones, Soporte técnico"}
{"branch_id":"BR-00309","store_type":"Supermercado","size_m2":1500,"category":"Productos de Limpieza","subcategory":"Detergentes","country":"Alemania","city":"Múnich","address":"Huang Pass 132, Múnich, Alemania","phone":"+49 668571222","manager":"Dipl.-Ing. Traudel Hänel B.A.","opening_hours":"Martes a Domingo, 11:00–19:00","services":"Atención al cliente, Reparaciones"}
{"branch_id":"BR-00310","store_type":"Supermercado","size_m2":1500,"category":"Alimentos","subcategory":"Panadería","country":"Alemania","city":"Múnich","address":"Chase Trail 140, Múnich, Alemania","phone":"+49 660396896","manager":"Jerzy Förster","opening_hours":"Todos los días, 8:00–22:00","services":"Entrega y recogida, Consultoría, Soporte técnico"}
{"branch_id":"BR-00311","store_type":"Supermercado","size_m2":1500,"category":"Ropa","subcategory":"Deportivo","country":"Alemania","city":"Múnich","address":"Barnes Knolls 42, Múnich, Alemania","phone":"+49 625432950","manager":"Damaris Steuer-Kensy","opening_hours":"Lunes a Viernes, 8:30–17:30","services":"Logística, Consultoría"}
{"branch_id":"BR-00312","store_type":"Supermercado","size_m2":1500,"category":"Alimentos","subcategory":"Frutas y Verduras","country":"Alemania","city":"Múnich","address":"Santana Lock 165, Múnich, Alemania","phone":"+49 629280282","manager":"Herr Mirco Herrmann B.Sc.","opening_hours":"Todos los días, 8:00–22:00","services":"Soporte técnico, Atención al cliente, Logística"}
{"branch_id":"BR-00313","store_type":"Supermercado","size_m2":1500,"category":"Electrónica","subcategory":"Gadgets","country":"Alemania","city":"Múnich","address":"Kristen Squares 51, Múnich, Alemania","phone":"+49 694492341","manager":"Nadia Eigenwillig","opening_hours":"Martes a Domingo, 11:00–19:00","services":"Entrega y recogida, Logística, Ventas"}
{"branch_id":"BR-00314","store_type":"Supermercado","size_m2":1500,"category":"Productos de Limpieza","subcategory":"Desinfectantes","country":"Alemania","city":"Múnich","address":"Kaitlyn Tunnel 20, Múnich, Alemania","phone":"+49 665199475","manager":"Prof. Silke Bähr","opening_hours":"Martes a Domingo, 11:00–19:00","services":"Logística, Entrega y recogida"}
{"branch_id":"BR-00315","store_type":"Tienda Mediana","size_m2":500,"category":"Ropa","subcategory":"Accesorios","country":"Alemania","city":"Múnich","address":"Ray Locks 83, Múnich, Alemania","phone":"+49 633111730","manager":"Iwan Roht","opening_hours":"Martes a Domingo, 11:00–19:00","services":"Reparaciones, Logística, Atención al cliente, Ventas"}
{"branch_id":"BR-00316","store_type":"Tienda Mediana","size_m2":500,"category":"Cuidado Personal","subcategory":"Spa","country":"Alemania","city":"Múnich","address":"Gomez Rapid 80, Múnich, Alemania","phone":"+49 699955389","manager":"Prof. Gordon Peukert","opening_hours":"Todos los días, 8:00–22:00","services":"Reparaciones, Atención al cliente, Entrega y recogida, Ventas"}
{"branch_id":"BR-00317","store_type":"Tienda Mediana","size_m2":500,"category":"Productos de Limpieza","subcategory":"Desinfectantes","country":"Alemania","city":"Múnich","address":"Felicia Extension 173, Múnich, Alemania","phone":"+49 699638023","manager":"Evelin Grein Groth B.Sc.","opening_hours":"Martes a Domingo, 11:00–19:00","services":"Consultoría, Reparaciones"}
{"branch_id":"BR-00318","store_type":"Tienda Mediana","size_m2":500,"category":"Cuidado Personal","subcategory":"Nutrición","country":"Alemania","city":"Múnich","address":"Ashley Valleys 150, Múnich, Alemania","phone":"+49 670793066","manager":"Jaroslaw Gumprich","opening_hours":"Lunes a Viernes, 9:00–18:00","services":"Ventas, Entrega y recogida"}
{"branch_id":"BR-00319","store_type":"Tienda Mediana","size_m2":500,"category":"Alimentos","subcategory":"Frutas y Verduras","country":"Alemania","city":"Múnich","address":"Johnson Center 174, Múnich, Alemania","phone":"+49 666279520","manager":"Dr. Conrad Kobelt","opening_hours":"Todos los días, 8:00–22:00","services":"Reparaciones, Logística"}
{"branch_id":"BR-00320","store_type":"Tienda Mediana","size_m2":500,"category":"Ropa","subcategory":"Deportivo","country":"Alemania","city":"Múnich","address":"Kevin Greens 107, Múnich, Alemania","phone":"+49 658420584","manager":"Alexa Otto-Rädel","opening_hours":"Todos los días, 8:00–22:00","services":"Logística, Reparaciones"}
{"branch_id":"BR-00321","store_type":"Tienda Mediana","size_m2":500,"category":"Alimentos","subcategory":"Bebidas","country":"Alemania","city":"Múnich","address":"Silva Trail 88, Múnich, Alemania","phone":"+49 689661230","manager":"Sören Hornich","opening_hours":"Todos los días, 8:00–22:00","services":"Atención al cliente, Entrega y recogida, Consultoría, Soporte técnico"}
{"branch_id":"BR-00322","store_type":"Tienda Mediana","size_m2":500,"category":"Ropa","subcategory":"Moda Mujer","country":"Alemania","city":"Múnich","address":"Robin Neck 192, Múnich, Alemania","phone":"+49 650605012","manager":"Dr. Artur Täsche B.A.","opening_hours":"Martes a Domingo, 11:00–19:00","services":"Soporte técnico, Atención al cliente"}
{"branch_id":"BR-00323","store_type":"Tienda Mediana","size_m2":500,"category":"Ropa","subcategory":"Moda Hombre","country":"Alemania","city":"Múnich","address":"Tracy Green 184, Múnich, Alemania","phone":"+49 627166031","manager":"Ing. Roland Scholtz","opening_hours":"Lunes a Viernes, 9:00–18:00","services":"Ventas, Atención al cliente, Entrega y recogida"}
{"branch_id":"BR-00324","store_type":"Tienda Mediana","size_m2":500,"category":"Productos de Limpieza","subcategory":"Detergentes","country":"Alemania","city":"Múnich","address":"James Estates 89, Múnich, Alemania","phone":"+49 623862265","manager":"Delia Spieß B.A.","opening_hours":"Martes a Domingo, 11:00–19:00","services":"Consultoría, Soporte técnico"}
{"branch_id":"BR-00325","store_type":"Tienda Mediana","size_m2":500,"category":"Alimentos","subcategory":"Comida Congelada","country":"Alemania","city":"Múnich","address":"Gonzalez Court 65, Múnich, Alemania","phone":"+49 650864086","manager":"Almut Jungfer","opening_hours":"Lunes a Viernes, 9:00–18:00","services":"Soporte técnico, Consultoría, Logística"}
{"branch_id":"BR-00326","store_type":"Tienda Mediana","size_m2":500,"category":"Ropa","subcategory":"Moda Hombre","country":"Alemania","city":"Múnich","address":"Owens Coves 44, Múnich, Alemania","phone":"+49 645079474","manager":"Dipl.-Ing. Gundolf Jähn","opening_hours":"Lunes a Viernes, 8:30–17:30","services":"Atención al cliente, Soporte técnico, Logística"}
{"branch_id":"BR-00327","store_type":"Tienda Mediana","size_m2":500,"category":"Productos de Limpieza","subcategory":"Limpiadores multiusos","country":"Alemania","city":"Múnich","address":"Sullivan Springs 187, Múnich, Alemania","phone":"+49 629595690","manager":"Prof. Petra Nerger","opening_hours":"Todos los días, 8:00–22:00","services":"Atención al cliente, Ventas, Consultoría"}
{"branch_id":"BR-00328","store_type":"Tienda Mediana","size_m2":500,"category":"Cuidado Personal","subcategory":"Cosméticos","country":"Alemania","city":"Múnich","address":"Timothy Wall 177, Múnich, Alemania","phone":"+49 618713263","manager":"Elise Preiß","opening_hours":"Lunes a Sábado, 10:00–20:00","services":"Logística, Soporte técnico, Ventas, Atención al cliente"}
{"branch_id":"BR-00329","store_type":"Tienda Mediana","size_m2":500,"category":"Ropa","subcategory":"Infantil","country":"Alemania","city":"Múnich","address":"Kelly Island 21, Múnich, Alemania","phone":"+49 677897260","manager":"Friedo Gorlitz B.A.","opening_hours":"Martes a Domingo, 11:00–19:00","services":"Soporte técnico, Entrega y recogida, Atención al cliente"}
{"branch_id":"BR-00330","store_type":"Tienda Express","size_m2":200,"category":"Alimentos","subcategory":"Carnes y Embutidos","country":"Alemania","city":"Múnich","address":"Gregory Loaf 28, Múnich, Alemania","phone":"+49 665234874","manager":"Univ.Prof. Ekkehart Losekann B.Sc.","opening_hours":"Martes a Domingo, 11:00–19:00","services":"Reparaciones, Soporte técnico, Logística"}
{"branch_id":"BR-00331","store_type":"Tienda Express","size_m2":200,"category":"Productos de Limpieza","subcategory":"Ambientadores","country":"Alemania","city":"Múnich","address":"Melissa Lock 161, Múnich, Alemania","phone":"+49 603511884","manager":"Wolfgang Wohlgemut","opening_hours":"Lunes a Viernes, 9:00–18:00","services":"Ventas, Soporte técnico, Reparaciones, Atención al cliente"}
{"branch_id":"BR-00332","store_type":"Tienda Express","size_m2":200,"category":"Cuidado Personal","subcategory":"Nutrición","country":"Alemania","city":"Múnich","address":"Smith Fork 112, Múnich, Alemania","phone":"+49 649787892","manager":"Karla Ruppert MBA.","opening_hours":"Lunes a Viernes, 8:30–17:30","services":"Soporte técnico, Ventas"}
{"branch_id":"BR-00333","store_type":"Tienda Express","size_m2":200,"category":"Cuidado Personal","subcategory":"Cosméticos","country":"Alemania","city":"Múnich","address":"Mary Junctions 100, Múnich, Alemania","phone":"+49 606715627","manager":"Prof. Gotthold Gröttner","opening_hours":"Lunes a Viernes, 9:00–18:00","services":"Entrega y recogida, Consultoría, Reparaciones"}
{"branch_id":"BR-00334","store_type":"Tienda Express","size_m2":200,"category":"Cuidado Personal","subcategory":"Farmacéuticos","country":"Alemania","city":"Múnich","address":"Powers Extension 26, Múnich, Alemania","phone":"+49 636974626","manager":"Univ.Prof. Halil Schleich B.A.","opening_hours":"Lunes a Viernes, 8:30–17:30","services":"Reparaciones, Entrega y recogida, Ventas, Atención al cliente"}
{"branch_id":"BR-00335","store_type":"Tienda Express","size_m2":200,"category":"Alimentos","subcategory":"Panadería","country":"Alemania","city":"Múnich","address":"Smith Spurs 80, Múnich, Alemania","phone":"+49 616888055","manager":"Felizitas Ditschlerin MBA.","opening_hours":"Todos los días, 8:00–22:00","services":"Consultoría, Ventas, Atención al cliente"}
{"branch_id":"BR-00336","store_type":"Tienda Express","size_m2":200,"category":"Alimentos","subcategory":"Comida Congelada","country":"Alemania","city":"Múnich","address":"Rios Summit 108, Múnich, Alemania","phone":"+49 649413412","manager":"Hanns Löwer-Neuschäfer","opening_hours":"Lunes a Viernes, 8:30–17:30","services":"Logística, Ventas"}
{"branch_id":"BR-00337","store_type":"Tienda Express","size_m2":200,"category":"Cuidado Personal","subcategory":"Nutrición","country":"Alemania","city":"Múnich","address":"Jillian Mountain 163, Múnich, Alemania","phone":"+49 661037290","manager":"Julie Bohlander","opening_hours":"Lunes a Viernes, 9:00–18:00","services":"Reparaciones, Entrega y recogida, Logística"}
{"branch_id":"BR-00338","store_type":"Tienda Express","size_m2":200,"category":"Alimentos","subcategory":"Panadería","country":"Alemania","city":"Múnich","address":"Anderson Corner 181, Múnich, Alemania","phone":"+49 626636317","manager":"Marius Krebs","opening_hours":"Lunes a Viernes, 9:00–18:00","services":"Consultoría, Ventas, Atención al cliente, Soporte técnico"}
{"branch_id":"BR-00339","store_type":"Tienda Express","size_m2":200,"category":"Cuidado Personal","subcategory":"Cosméticos","country":"Alemania","city":"Múnich","address":"Jacqueline Way 158, Múnich, Alemania","phone":"+49 644533714","manager":"Klaus-Peter Warmer","opening_hours":"Lunes a Sábado, 10:00–20:00","services":"Atención al cliente, Entrega y recogida, Logística, Reparaciones"}
{"branch_id":"BR-00340","store_type":"Tienda Express","size_m2":200,"category":"Alimentos","subcategory":"Frutas y Verduras","country":"Alemania","city":"Múnich","address":"Barton Lodge 107, Múnich, Alemania","phone":"+49 621796802","manager":"Vladimir Gude-Noack","opening_hours":"Martes a Domingo, 11:00–19:00","services":"Ventas, Consultoría, Entrega y recogida"}
{"branch_id":"BR-00341","store_type":"Tienda Express","size_m2":200,"category":"Productos de Limpieza","subcategory":"Desinfectantes","country":"Alemania","city":"Múnich","address":"Brandon Common 33, Múnich, Alemania","phone":"+49 652711450","manager":"Marie-Theres Krause","opening_hours":"Martes a Domingo, 11:00–19:00","services":"Ventas, Logística, Atención al cliente, Soporte técnico"}
{"branch_id":"BR-00342","store_type":"Tienda Express","size_m2":200,"category":"Cuidado Personal","subcategory":"Spa","country":"Alemania","city":"Múnich","address":"Allen Court 93, Múnich, Alemania","phone":"+49 614116371","manager":"Hans-Rudolf Etzler","opening_hours":"Lunes a Sábado, 10:00–20:00","services":"Ventas, Consultoría, Soporte técnico, Entrega y recogida"}
{"branch_id":"BR-00343","store_type":"Hipermercado","size_m2":3000,"category":"Accesorios y Repuestos","subcategory":"Industriales","country":"Rusia","city":"San Petersburgo","address":"Christopher Center 20, San Petersburgo, Rusia","phone":"+7 698430902","manager":"Милица Мироновна Афанасьева","opening_hours":"Martes a Domingo, 11:00–19:00","services":"Atención al cliente, Reparaciones, Consultoría, Ventas"}
{"branch_id":"BR-00344","store_type":"Hipermercado","size_m2":3000,"category":"Cuidado Personal","subcategory":"Higiene","country":"Rusia","city":"San Petersburgo","address":"Victoria Shore 195, San Petersburgo, Rusia","phone":"+7 623870503","manager":"Уваров Филимон Ануфриевич","opening_hours":"Lunes a Sábado, 10:00–20:00","services":"Atención al cliente, Ventas"}
{"branch_id":"BR-00345","store_type":"Supermercado","size_m2":1500,"category":"Alimentos","subcategory":"Frutas y Verduras","country":"Rusia","city":"San Petersburgo","address":"Richard Harbor 178, San Petersburgo, Rusia","phone":"+7 635465831","manager":"Котов Софрон Федосьевич","opening_hours":"Lunes a Viernes, 8:30–17:30","services":"Soporte técnico, Reparaciones"}
{"branch_id":"BR-00346","store_type":"Supermercado","size_m2":1500,"category":"Productos de Limpieza","subcategory":"Limpiadores multiusos","country":"Rusia","city":"San Petersburgo","address":"Sutton Rapids 171, San Petersburgo, Rusia","phone":"+7 632732171","manager":"Татьяна Ждановна Рябова","opening_hours":"Lunes a Viernes, 8:30–17:30","services":"Ventas, Consultoría"}
{"branch_id":"BR-00347","store_type":"Supermercado","size_m2":1500,"category":"Electrónica","subcategory":"Gadgets","country":"Rusia","city":"San Petersburgo","address":"Joseph Cliff 123, San Petersburgo, Rusia","phone":"+7 671978818","manager":"Нина Владимировна Капустина","opening_hours":"Martes a Domingo, 11:00–19:00","services":"Logística, Atención al cliente"}
{"branch_id":"BR-00348","store_type":"Supermercado","size_m2":1500,"category":"Hogar y Decoración","subcategory":"Iluminación","country":"Rusia","city":"San Petersburgo","address":"Freeman Spring 150, San Petersburgo, Rusia","phone":"+7 601207616","manager":"Орехова Евфросиния Игоревна","opening_hours":"Lunes a Sábado, 10:00–20:00","services":"Consultoría, Reparaciones, Soporte técnico"}
{"branch_id":"BR-00349","store_type":"Supermercado","size_m2":1500,"category":"Cuidado Personal","subcategory":"Farmacéuticos","country":"Rusia","city":"San Petersburgo","address":"Santiago Pines 136, San Petersburgo, Rusia","phone":"+7 647450229","manager":"Гуляев Софон Фёдорович","opening_hours":"Lunes a Viernes, 8:30–17:30","services":"Soporte técnico, Entrega y recogida"}
{"branch_id":"BR-00350","store_type":"Supermercado","size_m2":1500,"category":"Cuidado Personal","subcategory":"Higiene","country":"Rusia","city":"San Petersburgo","address":"Moore Trafficway 154, San Petersburgo, Rusia","phone":"+7 644586938","manager":"Осип Ерофеевич Белов","opening_hours":"Martes a Domingo, 11:00–19:00","services":"Atención al cliente, Ventas"}
{"branch_id":"BR-00351","store_type":"Supermercado","size_m2":1500,"category":"Hogar y Decoración","subcategory":"Iluminación","country":"Rusia","city":"San Petersburgo","address":"Charles Trail 192, San Petersburgo, Rusia","phone":"+7 697189300","manager":"Быков Григорий Герасимович","opening_hours":"Lunes a Viernes, 8:30–17:30","services":"Ventas, Consultoría, Soporte técnico"}
{"branch_id":"BR-00352","store_type":"Supermercado","size_m2":1500,"category":"Alimentos","subcategory":"Panadería","country":"Rusia","city":"San Petersburgo","address":"Williams Springs 195, San Petersburgo, Rusia","phone":"+7 677761618","manager":"Носов Самуил Давыдович","opening_hours":"Lunes a Viernes, 9:00–18:00","services":"Logística, Ventas"}
{"branch_id":"BR-00353","store_type":"Tienda Mediana","size_m2":500,"category":"Ropa","subcategory":"Moda Hombre","country":"Rusia","city":"San Petersburgo","address":"Belinda Loaf 128, San Petersburgo, Rusia","phone":"+7 699446695","manager":"Лебедев Ефрем Васильевич","opening_hours":"Todos los días, 8:00–22:00","services":"Soporte técnico, Logística"}
{"branch_id":"BR-00354","store_type":"Tienda Mediana","size_m2":500,"category":"Ropa","subcategory":"Moda Mujer","country":"Rusia","city":"San Petersburgo","address":"Jackson Pine 35, San Petersburgo, Rusia","phone":"+7 692664956","manager":"Наина Вячеславовна Селезнева","opening_hours":"Lunes a Sábado, 10:00–20:00","services":"Consultoría, Soporte técnico, Ventas"}
{"branch_id":"BR-00355","store_type":"Tienda Mediana","size_m2":500,"category":"Cuidado Personal","subcategory":"Farmacéuticos","country":"Rusia","city":"San Petersburgo","address":"Julie Highway 162, San Petersburgo, Rusia","phone":"+7 693350988","manager":"Андреев Творимир Жоресович","opening_hours":"Martes a Domingo, 11:00–19:00","services":"Atención al cliente, Soporte técnico, Consultoría, Logística"}
{"branch_id":"BR-00356","store_type":"Tienda Mediana","size_m2":500,"category":"Alimentos","subcategory":"Bebidas","country":"Rusia","city":"San Petersburgo","address":"James Rapid 22, San Petersburgo, Rusia","phone":"+7 695837747","manager":"Алла Харитоновна Ефимова","opening_hours":"Lunes a Viernes, 8:30–17:30","services":"Entrega y recogida, Ventas"}
{"branch_id":"BR-00357","store_type":"Tienda Mediana","size_m2":500,"category":"Productos de Limpieza","subcategory":"Ambientadores","country":"Rusia","city":"San Petersburgo","address":"Katherine Ville 155, San Petersburgo, Rusia","phone":"+7 628325543","manager":"Нестеров Савватий Анатольевич","opening_hours":"Lunes a Viernes, 8:30–17:30","services":"Ventas, Consultoría"}
{"branch_id":"BR-00358","store_type":"Tienda Mediana","size_m2":500,"category":"Cuidado Personal","subcategory":"Spa","country":"Rusia","city":"San Petersburgo","address":"Brenda Plain 127, San Petersburgo, Rusia","phone":"+7 686776330","manager":"Тихонова Зоя Артемовна","opening_hours":"Lunes a Viernes, 9:00–18:00","services":"Consultoría, Atención al cliente, Ventas"}
{"branch_id":"BR-00359","store_type":"Tienda Mediana","size_m2":500,"category":"Alimentos","subcategory":"Frutas y Verduras","country":"Rusia","city":"San Petersburgo","address":"Austin Villages 73, San Petersburgo, Rusia","phone":"+7 627683136","manager":"Данилова Эмилия Макаровна","opening_hours":"Todos los días, 8:00–22:00","services":"Ventas, Atención al cliente, Soporte técnico, Entrega y recogida"}
{"branch_id":"BR-00360","store_type":"Tienda Mediana","size_m2":500,"category":"Cuidado Personal","subcategory":"Higiene","country":"Rusia","city":"San Petersburgo","address":"Steven Trace 179, San Petersburgo, Rusia","phone":"+7 677826835","manager":"Артемьева Ия Эдуардовна","opening_hours":"Lunes a Viernes, 8:30–17:30","services":"Ventas, Logística, Consultoría"}
{"branch_id":"BR-00361","store_type":"Tienda Mediana","size_m2":500,"category":"Productos de Limpieza","subcategory":"Limpiadores multiusos","country":"Rusia","city":"San Petersburgo","address":"Lopez Stravenue 35, San Petersburgo, Rusia","phone":"+7 678350951","manager":"Майя Наумовна Русакова","opening_hours":"Martes a Domingo, 11:00–19:00","services":"Consultoría, Atención al cliente, Ventas, Entrega y recogida"}
{"branch_id":"BR-00362","store_type":"Tienda Mediana","size_m2":500,"category":"Productos de Limpieza","subcategory":"Escobas y utensilios","country":"Rusia","city":"San Petersburgo","address":"Jordan Inlet 134, San Petersburgo, Rusia","phone":"+7 610172298","manager":"Галкина Марина Богдановна","opening_hours":"Martes a Domingo, 11:00–19:00","services":"Soporte técnico, Reparaciones, Entrega y recogida"}
{"branch_id":"BR-00363","store_type":"Tienda Mediana","size_m2":500,"category":"Ropa","subcategory":"Deportivo","country":"Rusia","city":"San Petersburgo","address":"King Green 62, San Petersburgo, Rusia","phone":"+7 644582004","manager":"Сидор Чеславович Шарапов","opening_hours":"Lunes a Viernes, 9:00–18:00","services":"Soporte técnico, Logística, Atención al cliente"}
{"branch_id":"BR-00364","store_type":"Tienda Mediana","size_m2":500,"category":"Cuidado Personal","subcategory":"Nutrición","country":"Rusia","city":"San Petersburgo","address":"Ruiz Harbor 30, San Petersburgo, Rusia","phone":"+7 654795379","manager":"тов. Абрамова Милица Рудольфовна","opening_hours":"Martes a Domingo, 11:00–19:00","services":"Logística, Atención al cliente"}
{"branch_id":"BR-00365","store_type":"Tienda Mediana","size_m2":500,"category":"Ropa","subcategory":"Infantil","country":"Rusia","city":"San Petersburgo","address":"Reese Parks 116, San Petersburgo, Rusia","phone":"+7 637271199","manager":"Мамонтова Октябрина Геннадьевна","opening_hours":"Lunes a Viernes, 9:00–18:00","services":"Ventas, Soporte técnico, Logística"}
{"branch_id":"BR-00366","store_type":"Tienda Mediana","size_m2":500,"category":"Cuidado Personal","subcategory":"Nutrición","country":"Rusia","city":"San Petersburgo","address":"Brianna Mountains 167, San Petersburgo, Rusia","phone":"+7 656206565","manager":"Федоров Капитон Фролович","opening_hours":"Todos los días, 8:00–22:00","services":"Ventas, Entrega y recogida, Atención al cliente"}
{"branch_id":"BR-00367","store_type":"Tienda Mediana","size_m2":500,"category":"Cuidado Personal","subcategory":"Farmacéuticos","country":"Rusia","city":"San Petersburgo","address":"Theresa Courts 193, San Petersburgo, Rusia","phone":"+7 631598703","manager":"Феврония Федоровна Шарапова","opening_hours":"Todos los días, 8:00–22:00","services":"Reparaciones, Atención al cliente"}
{"branch_id":"BR-00368","store_type":"Tienda Express","size_m2":200,"category":"Cuidado Personal","subcategory":"Spa","country":"Rusia","city":"San Petersburgo","address":"Sarah Passage 24, San Petersburgo, Rusia","phone":"+7 636904325","manager":"Надежда Феликсовна Михеева","opening_hours":"Martes a Domingo, 11:00–19:00","services":"Consultoría, Soporte técnico, Ventas, Reparaciones"}
{"branch_id":"BR-00369","store_type":"Tienda Express","size_m2":200,"category":"Cuidado Personal","subcategory":"Nutrición","country":"Rusia","city":"San Petersburgo","address":"Mercer Drive 82, San Petersburgo, Rusia","phone":"+7 657706843","manager":"Полякова Ангелина Альбертовна","opening_hours":"Lunes a Viernes, 9:00–18:00","services":"Entrega y recogida, Reparaciones"}
{"branch_id":"BR-00370","store_type":"Tienda Express","size_m2":200,"category":"Alimentos","subcategory":"Carnes y Embutidos","country":"Rusia","city":"San Petersburgo","address":"Jonathan Prairie 165, San Petersburgo, Rusia","phone":"+7 620856615","manager":"Мина Александрович Меркушев","opening_hours":"Lunes a Viernes, 9:00–18:00","services":"Entrega y recogida, Atención al cliente, Logística, Soporte técnico"}
{"branch_id":"BR-00371","store_type":"Tienda Express","size_m2":200,"category":"Cuidado Personal","subcategory":"Spa","country":"Rusia","city":"San Petersburgo","address":"Reed Drives 123, San Petersburgo, Rusia","phone":"+7 628139163","manager":"Хохлов Евлампий Викентьевич","opening_hours":"Todos los días, 8:00–22:00","services":"Entrega y recogida, Soporte técnico"}
{"branch_id":"BR-00372","store_type":"Tienda Express","size_m2":200,"category":"Cuidado Personal","subcategory":"Higiene","country":"Rusia","city":"San Petersburgo","address":"Rodgers Manors 166, San Petersburgo, Rusia","phone":"+7 695217952","manager":"Таисия Вячеславовна Лобанова","opening_hours":"Lunes a Viernes, 9:00–18:00","services":"Logística, Ventas, Reparaciones"}
{"branch_id":"BR-00373","store_type":"Tienda Express","size_m2":200,"category":"Productos de Limpieza","subcategory":"Ambientadores","country":"Rusia","city":"San Petersburgo","address":"Cox Glen 43, San Petersburgo, Rusia","phone":"+7 665372085","manager":"Глафира Геннадьевна Новикова","opening_hours":"Lunes a Sábado, 10:00–20:00","services":"Atención al cliente, Logística, Consultoría"}
{"branch_id":"BR-00374","store_type":"Tienda Express","size_m2":200,"category":"Alimentos","subcategory":"Comida Congelada","country":"Rusia","city":"San Petersburgo","address":"Galloway Mills 53, San Petersburgo, Rusia","phone":"+7 605866432","manager":"Некрасов Юлиан Димитриевич","opening_hours":"Lunes a Viernes, 9:00–18:00","services":"Ventas, Reparaciones"}
{"branch_id":"BR-00375","store_type":"Tienda Express","size_m2":200,"category":"Productos de Limpieza","subcategory":"Limpiadores multiusos","country":"Rusia","city":"San Petersburgo","address":"Evans Fork 12, San Petersburgo, Rusia","phone":"+7 669708918","manager":"Аристарх Гаврилович Овчинников","opening_hours":"Martes a Domingo, 11:00–19:00","services":"Logística, Ventas, Consultoría"}
{"branch_id":"BR-00376","store_type":"Tienda Express","size_m2":200,"category":"Cuidado Personal","subcategory":"Farmacéuticos","country":"Rusia","city":"San Petersburgo","address":"Fitzgerald Point 18, San Petersburgo, Rusia","phone":"+7 612638957","manager":"Мельникова София Викторовна","opening_hours":"Lunes a Sábado, 10:00–20:00","services":"Logística, Entrega y recogida, Ventas"}
{"branch_id":"BR-00377","store_type":"Tienda Express","size_m2":200,"category":"Alimentos","subcategory":"Panadería","country":"Rusia","city":"San Petersburgo","address":"Anne Dale 81, San Petersburgo, Rusia","phone":"+7 655874265","manager":"Фаина Федоровна Самойлова","opening_hours":"Martes a Domingo, 11:00–19:00","services":"Soporte técnico, Reparaciones, Consultoría, Atención al cliente"}
{"branch_id":"BR-00378","store_type":"Tienda Express","size_m2":200,"category":"Cuidado Personal","subcategory":"Nutrición","country":"Rusia","city":"San Petersburgo","address":"Cook Plaza 48, San Petersburgo, Rusia","phone":"+7 678763972","manager":"Фомичева Агата Матвеевна","opening_hours":"Lunes a Sábado, 10:00–20:00","services":"Ventas, Atención al cliente, Entrega y recogida, Consultoría"}
{"branch_id":"BR-00379","store_type":"Tienda Express","size_m2":200,"category":"Productos de Limpieza","subcategory":"Desinfectantes","country":"Rusia","city":"San Petersburgo","address":"Joyce Roads 126, San Petersburgo, Rusia","phone":"+7 669676127","manager":"Самсонова Олимпиада Кузьминична","opening_hours":"Lunes a Sábado, 10:00–20:00","services":"Entrega y recogida, Logística, Ventas, Reparaciones"}
{"branch_id":"BR-00380","store_type":"Tienda Express","size_m2":200,"category":"Alimentos","subcategory":"Panadería","country":"Rusia","city":"San Petersburgo","address":"Steven Radial 123, San Petersburgo, Rusia","phone":"+7 652216357","manager":"Прохор Брониславович Шаров","opening_hours":"Todos los días, 8:00–22:00","services":"Soporte técnico, Ventas, Atención al cliente"}
{"branch_id":"BR-00381","store_type":"Hipermercado","size_m2":3000,"category":"Cuidado Personal","subcategory":"Higiene","country":"Canadá","city":"Calgary","address":"Mary Meadows 50, Calgary, Canadá","phone":"+1 601405650","manager":"Kristin Rodriguez","opening_hours":"Todos los días, 8:00–22:00","services":"Reparaciones, Entrega y recogida, Atención al cliente"}
{"branch_id":"BR-00382","store_type":"Hipermercado","size_m2":3000,"category":"Electrónica","subcategory":"Electrodomésticos","country":"Canadá","city":"Calgary","address":"Luis Dam 130, Calgary, Canadá","phone":"+1 671439544","manager":"Jessica Moore","opening_hours":"Lunes a Viernes, 8:30–17:30","services":"Entrega y recogida, Consultoría"}
{"branch_id":"BR-00383","store_type":"Supermercado","size_m2":1500,"category":"Ropa","subcategory":"Moda Mujer","country":"Canadá","city":"Calgary","address":"Brooks Locks 133, Calgary, Canadá","phone":"+1 624499557","manager":"Leslie Swanson","opening_hours":"Martes a Domingo, 11:00–19:00","services":"Ventas, Soporte técnico, Consultoría"}
{"branch_id":"BR-00384","store_type":"Supermercado","size_m2":1500,"category":"Ropa","subcategory":"Deportivo","country":"Canadá","city":"Calgary","address":"Davis Parks 109, Calgary, Canadá","phone":"+1 686960781","manager":"Angela Hardy","opening_hours":"Todos los días, 8:00–22:00","services":"Reparaciones, Logística"}
{"branch_id":"BR-00385","store_type":"Supermercado","size_m2":1500,"category":"Hogar y Decoración","subcategory":"Arte decorativo","country":"Canadá","city":"Calgary","address":"Torres Radial 195, Calgary, Canadá","phone":"+1 684994312","manager":"Penny Alvarez","opening_hours":"Martes a Domingo, 11:00–19:00","services":"Soporte técnico, Entrega y recogida"}
{"branch_id":"BR-00386","store_type":"Supermercado","size_m2":1500,"category":"Hogar y Decoración","subcategory":"Textiles","country":"Canadá","city":"Calgary","address":"Smith Junction 111, Calgary, Canadá","phone":"+1 638581467","manager":"Matthew Henry","opening_hours":"Todos los días, 8:00–22:00","services":"Reparaciones, Atención al cliente, Soporte técnico"}
{"branch_id":"BR-00387","store_type":"Supermercado","size_m2":1500,"category":"Electrónica","subcategory":"Gadgets","country":"Canadá","city":"Calgary","address":"Stewart Circle 30, Calgary, Canadá","phone":"+1 618660554","manager":"Hannah Wagner","opening_hours":"Todos los días, 8:00–22:00","services":"Atención al cliente, Entrega y recogida"}
{"branch_id":"BR-00388","store_type":"Supermercado","size_m2":1500,"category":"Ropa","subcategory":"Accesorios","country":"Canadá","city":"Calgary","address":"Christopher Roads 177, Calgary, Canadá","phone":"+1 691118772","manager":"Mark Gonzalez","opening_hours":"Todos los días, 8:00–22:00","services":"Ventas, Atención al cliente, Entrega y recogida"}
{"branch_id":"BR-00389","store_type":"Supermercado","size_m2":1500,"category":"Alimentos","subcategory":"Carnes y Embutidos","country":"Canadá","city":"Calgary","address":"Susan Port 13, Calgary, Canadá","phone":"+1 603523880","manager":"Kimberly Wright","opening_hours":"Martes a Domingo, 11:00–19:00","services":"Consultoría, Soporte técnico, Logística, Reparaciones"}
{"branch_id":"BR-00390","store_type":"Supermercado","size_m2":1500,"category":"Hogar y Decoración","subcategory":"Organización","country":"Canadá","city":"Calgary","address":"Maria Station 31, Calgary, Canadá","phone":"+1 693561094","manager":"Jennifer Watson","opening_hours":"Lunes a Sábado, 10:00–20:00","services":"Atención al cliente, Reparaciones, Consultoría, Logística"}
{"branch_id":"BR-00391","store_type":"Tienda Mediana","size_m2":500,"category":"Alimentos","subcategory":"Frutas y Verduras","country":"Canadá","city":"Calgary","address":"Carney Isle 121, Calgary, Canadá","phone":"+1 631033963","manager":"Jill Bass","opening_hours":"Martes a Domingo, 11:00–19:00","services":"Logística, Atención al cliente"}
{"branch_id":"BR-00392","store_type":"Tienda Mediana","size_m2":500,"category":"Productos de Limpieza","subcategory":"Ambientadores","country":"Canadá","city":"Calgary","address":"Hardin Isle 175, Calgary, Canadá","phone":"+1 647343780","manager":"Steven Rivera","opening_hours":"Todos los días, 8:00–22:00","services":"Ventas, Entrega y recogida"}
{"branch_id":"BR-00393","store_type":"Tienda Mediana","size_m2":500,"category":"Ropa","subcategory":"Moda Hombre","country":"Canadá","city":"Calgary","address":"Kim Stream 159, Calgary, Canadá","phone":"+1 657233354","manager":"Sherri Bonilla","opening_hours":"Lunes a Sábado, 10:00–20:00","services":"Consultoría, Atención al cliente, Entrega y recogida, Logística"}
{"branch_id":"BR-00394","store_type":"Tienda Mediana","size_m2":500,"category":"Productos de Limpieza","subcategory":"Ambientadores","country":"Canadá","city":"Calgary","address":"Thompson Estate 121, Calgary, Canadá","phone":"+1 614323781","manager":"Michael Young","opening_hours":"Martes a Domingo, 11:00–19:00","services":"Ventas, Entrega y recogida, Atención al cliente"}
{"branch_id":"BR-00395","store_type":"Tienda Mediana","size_m2":500,"category":"Alimentos","subcategory":"Comida Congelada","country":"Canadá","city":"Calgary","address":"Thomas Lodge 195, Calgary, Canadá","phone":"+1 671799902","manager":"John Jones","opening_hours":"Todos los días, 8:00–22:00","services":"Entrega y recogida, Soporte técnico"}
{"branch_id":"BR-00396","store_type":"Tienda Mediana","size_m2":500,"category":"Ropa","subcategory":"Moda Mujer","country":"Canadá","city":"Calgary","address":"Cindy Ferry 62, Calgary, Canadá","phone":"+1 676000186","manager":"Sarah Price","opening_hours":"Martes a Domingo, 11:00–19:00","services":"Ventas, Consultoría, Logística"}
{"branch_id":"BR-00397","store_type":"Tienda Mediana","size_m2":500,"category":"Alimentos","subcategory":"Frutas y Verduras","country":"Canadá","city":"Calgary","address":"Kelly Light 63, Calgary, Canadá","phone":"+1 695079264","manager":"Lisa Roman","opening_hours":"Lunes a Sábado, 10:00–20:00","services":"Consultoría, Reparaciones, Logística, Ventas"}
{"branch_id":"BR-00398","store_type":"Tienda Mediana","size_m2":500,"category":"Alimentos","subcategory":"Panadería","country":"Canadá","city":"Calgary","address":"Shawn River 152, Calgary, Canadá","phone":"+1 664091770","manager":"Erik Rojas","opening_hours":"Lunes a Viernes, 8:30–17:30","services":"Soporte técnico, Reparaciones, Ventas"}
{"branch_id":"BR-00399","store_type":"Tienda Mediana","size_m2":500,"category":"Productos de Limpieza","subcategory":"Detergentes","country":"Canadá","city":"Calgary","address":"Jennings Meadows 50, Calgary, Canadá","phone":"+1 617246248","manager":"Lori Welch","opening_hours":"Lunes a Viernes, 9:00–18:00","services":"Consultoría, Ventas, Entrega y recogida"}
{"branch_id":"BR-00400","store_type":"Tienda Mediana","size_m2":500,"category":"Cuidado Personal","subcategory":"Farmacéuticos","country":"Canadá","city":"Calgary","address":"Shelia Port 81, Calgary, Canadá","phone":"+1 692559648","manager":"Kathy Mcmillan","opening_hours":"Lunes a Viernes, 8:30–17:30","services":"Consultoría, Soporte técnico, Logística, Atención al cliente"}
{"branch_id":"BR-00401","store_type":"Tienda Mediana","size_m2":500,"category":"Ropa","subcategory":"Deportivo","country":"Canadá","city":"Calgary","address":"Lynn Corner 138, Calgary, Canadá","phone":"+1 631317000","manager":"Joshua Herrera","opening_hours":"Martes a Domingo, 11:00–19:00","services":"Reparaciones, Soporte técnico, Entrega y recogida, Consultoría"}
{"branch_id":"BR-00402","store_type":"Tienda Mediana","size_m2":500,"category":"Alimentos","subcategory":"Frutas y Verduras","country":"Canadá","city":"Calgary","address":"Katrina Inlet 42, Calgary, Canadá","phone":"+1 680727162","manager":"Beth Garrett","opening_hours":"Lunes a Viernes, 8:30–17:30","services":"Ventas, Soporte técnico"}
{"branch_id":"BR-00403","store_type":"Tienda Mediana","size_m2":500,"category":"Ropa","subcategory":"Infantil","country":"Canadá","city":"Calgary","address":"Hicks Road 77, Calgary, Canadá","phone":"+1 608827543","manager":"Terry Willis","opening_hours":"Martes a Domingo, 11:00–19:00","services":"Soporte técnico, Logística, Atención al cliente"}
{"branch_id":"BR-00404","store_type":"Tienda Mediana","size_m2":500,"category":"Ropa","subcategory":"Accesorios","country":"Canadá","city":"Calgary","address":"Hughes Mountain 156, Calgary, Canadá","phone":"+1 663466321","manager":"Matthew Miller","opening_hours":"Lunes a Viernes, 8:30–17:30","services":"Ventas, Soporte técnico, Entrega y recogida, Reparaciones"}
{"branch_id":"BR-00405","store_type":"Tienda Mediana","size_m2":500,"category":"Cuidado Personal","subcategory":"Nutrición","country":"Canadá","city":"Calgary","address":"Deanna Lights 126, Calgary, Canadá","phone":"+1 687140268","manager":"Jennifer Mendoza","opening_hours":"Todos los días, 8:00–22:00","services":"Atención al cliente, Logística, Consultoría"}
{"branch_id":"BR-00406","store_type":"Tienda Express","size_m2":200,"category":"Productos de Limpieza","subcategory":"Limpiadores multiusos","country":"Canadá","city":"Calgary","address":"Joshua Station 114, Calgary, Canadá","phone":"+1 626200714","manager":"Ronald Gutierrez","opening_hours":"Todos los días, 8:00–22:00","services":"Ventas, Reparaciones"}
{"branch_id":"BR-00407","store_type":"Tienda Express","size_m2":200,"category":"Alimentos","subcategory":"Comida Congelada","country":"Canadá","city":"Calgary","address":"Jacqueline Land 200, Calgary, Canadá","phone":"+1 627792764","manager":"Katherine Davidson","opening_hours":"Todos los días, 8:00–22:00","services":"Consultoría, Atención al cliente, Entrega y recogida, Logística"}
{"branch_id":"BR-00408","store_type":"Tienda Express","size_m2":200,"category":"Productos de Limpieza","subcategory":"Detergentes","country":"Canadá","city":"Calgary","address":"Samantha Trail 156, Calgary, Canadá","phone":"+1 608281286","manager":"Joseph Lane","opening_hours":"Martes a Domingo, 11:00–19:00","services":"Atención al cliente, Ventas, Soporte técnico"}
{"branch_id":"BR-00409","store_type":"Tienda Express","size_m2":200,"category":"Productos de Limpieza","subcategory":"Detergentes","country":"Canadá","city":"Calgary","address":"Morgan Groves 91, Calgary, Canadá","phone":"+1 660001960","manager":"Karen Anderson","opening_hours":"Martes a Domingo, 11:00–19:00","services":"Soporte técnico, Logística, Ventas, Reparaciones"}
{"branch_id":"BR-00410","store_type":"Tienda Express","size_m2":200,"category":"Productos de Limpieza","subcategory":"Ambientadores","country":"Canadá","city":"Calgary","address":"Flores Brooks 28, Calgary, Canadá","phone":"+1 621717686","manager":"Brian Watkins","opening_hours":"Lunes a Sábado, 10:00–20:00","services":"Reparaciones, Ventas, Atención al cliente, Entrega y recogida"}
{"branch_id":"BR-00411","store_type":"Tienda Express","size_m2":200,"category":"Cuidado Personal","subcategory":"Cosméticos","country":"Canadá","city":"Calgary","address":"Vance Bridge 171, Calgary, Canadá","phone":"+1 668504898","manager":"Michelle Hoffman","opening_hours":"Todos los días, 8:00–22:00","services":"Entrega y recogida, Ventas, Soporte técnico"}
{"branch_id":"BR-00412","store_type":"Tienda Express","size_m2":200,"category":"Productos de Limpieza","subcategory":"Desinfectantes","country":"Canadá","city":"Calgary","address":"Jamie Lodge 12, Calgary, Canadá","phone":"+1 656914507","manager":"Jennifer Bullock","opening_hours":"Lunes a Viernes, 9:00–18:00","services":"Reparaciones, Ventas, Atención al cliente, Logística"}
{"branch_id":"BR-00413","store_type":"Tienda Express","size_m2":200,"category":"Productos de Limpieza","subcategory":"Escobas y utensilios","country":"Canadá","city":"Calgary","address":"Jessica Gateway 60, Calgary, Canadá","phone":"+1 601199459","manager":"Ryan Marks","opening_hours":"Lunes a Sábado, 10:00–20:00","services":"Consultoría, Entrega y recogida, Logística, Reparaciones"}
{"branch_id":"BR-00414","store_type":"Tienda Express","size_m2":200,"category":"Alimentos","subcategory":"Comida Congelada","country":"Canadá","city":"Calgary","address":"Nicholas Plains 179, Calgary, Canadá","phone":"+1 608956219","manager":"Antonio Cruz","opening_hours":"Todos los días, 8:00–22:00","services":"Consultoría, Reparaciones, Logística, Soporte técnico"}
{"branch_id":"BR-00415","store_type":"Tienda Express","size_m2":200,"category":"Productos de Limpieza","subcategory":"Escobas y utensilios","country":"Canadá","city":"Calgary","address":"David Summit 49, Calgary, Canadá","phone":"+1 626666701","manager":"Phillip Maldonado Jr.","opening_hours":"Martes a Domingo, 11:00–19:00","services":"Consultoría, Reparaciones, Entrega y recogida"}
{"branch_id":"BR-00416","store_type":"Tienda Express","size_m2":200,"category":"Productos de Limpieza","subcategory":"Detergentes","country":"Canadá","city":"Calgary","address":"Jeremy Vista 93, Calgary, Canadá","phone":"+1 649577575","manager":"Shelby Patel","opening_hours":"Lunes a Viernes, 8:30–17:30","services":"Reparaciones, Atención al cliente"}
{"branch_id":"BR-00417","store_type":"Tienda Express","size_m2":200,"category":"Productos de Limpieza","subcategory":"Desinfectantes","country":"Canadá","city":"Calgary","address":"Tanya Loaf 122, Calgary, Canadá","phone":"+1 676759632","manager":"Sharon Levy","opening_hours":"Lunes a Viernes, 9:00–18:00","services":"Consultoría, Entrega y recogida, Reparaciones"}
{"branch_id":"BR-00418","store_type":"Tienda Express","size_m2":200,"category":"Cuidado Personal","subcategory":"Cosméticos","country":"Canadá","city":"Calgary","address":"Burch Pass 149, Calgary, Canadá","phone":"+1 632885056","manager":"Heidi Howell","opening_hours":"Todos los días, 8:00–22:00","services":"Logística, Ventas, Atención al cliente"}
{"branch_id":"BR-00419","store_type":"Hipermercado","size_m2":3000,"category":"Ropa","subcategory":"Deportivo","country":"Brasil","city":"São Paulo","address":"Davis Freeway 88, São Paulo, Brasil","phone":"+55 617571546","manager":"Letícia Sales","opening_hours":"Lunes a Viernes, 8:30–17:30","services":"Reparaciones, Atención al cliente, Soporte técnico, Consultoría"}
{"branch_id":"BR-00420","store_type":"Hipermercado","size_m2":3000,"category":"Electrónica","subcategory":"Electrodomésticos","country":"Brasil","city":"São Paulo","address":"Raymond Ville 184, São Paulo, Brasil","phone":"+55 660102656","manager":"João Gabriel Casa Grande","opening_hours":"Lunes a Sábado, 10:00–20:00","services":"Reparaciones, Ventas, Logística, Atención al cliente"}
{"branch_id":"BR-00421","store_type":"Supermercado","size_m2":1500,"category":"Ropa","subcategory":"Moda Hombre","country":"Brasil","city":"São Paulo","address":"Yesenia Turnpike 90, São Paulo, Brasil","phone":"+55 635767202","manager":"Dr. Gael Henrique Albuquerque","opening_hours":"Lunes a Viernes, 8:30–17:30","services":"Entrega y recogida, Consultoría, Logística"}
{"branch_id":"BR-00422","store_type":"Supermercado","size_m2":1500,"category":"Ropa","subcategory":"Moda Hombre","country":"Brasil","city":"São Paulo","address":"Flores Manor 156, São Paulo, Brasil","phone":"+55 685196805","manager":"Marina Cassiano","opening_hours":"Lunes a Viernes, 8:30–17:30","services":"Atención al cliente, Reparaciones, Entrega y recogida, Logística"}
{"branch_id":"BR-00423","store_type":"Supermercado","size_m2":1500,"category":"Electrónica","subcategory":"Gadgets","country":"Brasil","city":"São Paulo","address":"Jimmy Well 173, São Paulo, Brasil","phone":"+55 640675664","manager":"Gael Henrique Nunes","opening_hours":"Lunes a Viernes, 9:00–18:00","services":"Atención al cliente, Ventas, Soporte técnico, Logística"}
{"branch_id":"BR-00424","store_type":"Supermercado","size_m2":1500,"category":"Electrónica","subcategory":"Gadgets","country":"Brasil","city":"São Paulo","address":"Cole Extensions 134, São Paulo, Brasil","phone":"+55 653873155","manager":"João Felipe da Cunha","opening_hours":"Lunes a Sábado, 10:00–20:00","services":"Ventas, Entrega y recogida"}
{"branch_id":"BR-00425","store_type":"Supermercado","size_m2":1500,"category":"Hogar y Decoración","subcategory":"Muebles","country":"Brasil","city":"São Paulo","address":"Tiffany Ferry 1, São Paulo, Brasil","phone":"+55 643372305","manager":"Vitor Hugo Porto","opening_hours":"Lunes a Viernes, 8:30–17:30","services":"Atención al cliente, Consultoría, Soporte técnico, Ventas"}
{"branch_id":"BR-00426","store_type":"Supermercado","size_m2":1500,"category":"Hogar y Decoración","subcategory":"Organización","country":"Brasil","city":"São Paulo","address":"Ricardo Falls 130, São Paulo, Brasil","phone":"+55 682997016","manager":"Lucca Sampaio","opening_hours":"Martes a Domingo, 11:00–19:00","services":"Logística, Consultoría"}
{"branch_id":"BR-00427","store_type":"Supermercado","size_m2":1500,"category":"Productos de Limpieza","subcategory":"Escobas y utensilios","country":"Brasil","city":"São Paulo","address":"Wilson Expressway 195, São Paulo, Brasil","phone":"+55 655273026","manager":"Rafaela Sampaio","opening_hours":"Lunes a Sábado, 10:00–20:00","services":"Soporte técnico, Entrega y recogida, Consultoría, Logística"}
{"branch_id":"BR-00428","store_type":"Supermercado","size_m2":1500,"category":"Alimentos","subcategory":"Panadería","country":"Brasil","city":"São Paulo","address":"Ritter Plains 96, São Paulo, Brasil","phone":"+55 636303101","manager":"Arthur Miguel Barros","opening_hours":"Todos los días, 8:00–22:00","services":"Entrega y recogida, Soporte técnico"}
{"branch_id":"BR-00429","store_type":"Tienda Mediana","size_m2":500,"category":"Ropa","subcategory":"Moda Mujer","country":"Brasil","city":"São Paulo","address":"Soto Springs 180, São Paulo, Brasil","phone":"+55 652133965","manager":"Sr. Noah Sousa","opening_hours":"Todos los días, 8:00–22:00","services":"Reparaciones, Entrega y recogida"}
{"branch_id":"BR-00430","store_type":"Tienda Mediana","size_m2":500,"category":"Cuidado Personal","subcategory":"Higiene","country":"Brasil","city":"São Paulo","address":"Fernandez Spring 125, São Paulo, Brasil","phone":"+55 602041900","manager":"Maria Liz Andrade","opening_hours":"Lunes a Sábado, 10:00–20:00","services":"Entrega y recogida, Ventas"}
{"branch_id":"BR-00431","store_type":"Tienda Mediana","size_m2":500,"category":"Cuidado Personal","subcategory":"Spa","country":"Brasil","city":"São Paulo","address":"Miller Pine 57, São Paulo, Brasil","phone":"+55 691575400","manager":"Ana Carolina Lima","opening_hours":"Martes a Domingo, 11:00–19:00","services":"Entrega y recogida, Logística, Soporte técnico"}
{"branch_id":"BR-00432","store_type":"Tienda Mediana","size_m2":500,"category":"Cuidado Personal","subcategory":"Spa","country":"Brasil","city":"São Paulo","address":"Costa Curve 48, São Paulo, Brasil","phone":"+55 697666618","manager":"Joana Novaes","opening_hours":"Lunes a Sábado, 10:00–20:00","services":"Atención al cliente, Entrega y recogida, Logística"}
{"branch_id":"BR-00433","store_type":"Tienda Mediana","size_m2":500,"category":"Ropa","subcategory":"Moda Hombre","country":"Brasil","city":"São Paulo","address":"Griffin Parkways 103, São Paulo, Brasil","phone":"+55 612691567","manager":"Sr. Pietro Moura","opening_hours":"Lunes a Viernes, 9:00–18:00","services":"Ventas, Reparaciones, Soporte técnico, Logística"}
{"branch_id":"BR-00434","store_type":"Tienda Mediana","size_m2":500,"category":"Ropa","subcategory":"Moda Hombre","country":"Brasil","city":"São Paulo","address":"Ryan Fields 24, São Paulo, Brasil","phone":"+55 612903527","manager":"Mirella Dias","opening_hours":"Lunes a Sábado, 10:00–20:00","services":"Soporte técnico, Consultoría, Atención al cliente"}
{"branch_id":"BR-00435","store_type":"Tienda Mediana","size_m2":500,"category":"Productos de Limpieza","subcategory":"Detergentes","country":"Brasil","city":"São Paulo","address":"Carter Mountains 160, São Paulo, Brasil","phone":"+55 642048707","manager":"Pedro Garcia","opening_hours":"Lunes a Viernes, 8:30–17:30","services":"Ventas, Soporte técnico, Consultoría"}
{"branch_id":"BR-00436","store_type":"Tienda Mediana","size_m2":500,"category":"Cuidado Personal","subcategory":"Spa","country":"Brasil","city":"São Paulo","address":"Wendy Manor 111, São Paulo, Brasil","phone":"+55 646725151","manager":"Ágatha Carvalho","opening_hours":"Lunes a Sábado, 10:00–20:00","services":"Entrega y recogida, Soporte técnico, Logística"}
{"branch_id":"BR-00437","store_type":"Tienda Mediana","size_m2":500,"category":"Ropa","subcategory":"Moda Mujer","country":"Brasil","city":"São Paulo","address":"Cassandra Skyway 111, São Paulo, Brasil","phone":"+55 626320050","manager":"Sr. Oliver da Conceição","opening_hours":"Martes a Domingo, 11:00–19:00","services":"Entrega y recogida, Soporte técnico, Consultoría, Logística"}
{"branch_id":"BR-00438","store_type":"Tienda Mediana","size_m2":500,"category":"Cuidado Personal","subcategory":"Cosméticos","country":"Brasil","city":"São Paulo","address":"Ronald Spring 35, São Paulo, Brasil","phone":"+55 688624016","manager":"André Garcia","opening_hours":"Martes a Domingo, 11:00–19:00","services":"Entrega y recogida, Soporte técnico, Consultoría, Ventas"}
{"branch_id":"BR-00439","store_type":"Tienda Mediana","size_m2":500,"category":"Ropa","subcategory":"Moda Mujer","country":"Brasil","city":"São Paulo","address":"Michelle Mountain 153, São Paulo, Brasil","phone":"+55 624103448","manager":"Maria Laura Pastor","opening_hours":"Lunes a Sábado, 10:00–20:00","services":"Reparaciones, Ventas"}
{"branch_id":"BR-00440","store_type":"Tienda Mediana","size_m2":500,"category":"Ropa","subcategory":"Moda Mujer","country":"Brasil","city":"São Paulo","address":"Livingston Trafficway 23, São Paulo, Brasil","phone":"+55 696508334","manager":"Srta. Maria Cecília Aparecida","opening_hours":"Lunes a Viernes, 8:30–17:30","services":"Consultoría, Soporte técnico"}
{"branch_id":"BR-00441","store_type":"Tienda Mediana","size_m2":500,"category":"Cuidado Personal","subcategory":"Nutrición","country":"Brasil","city":"São Paulo","address":"Armstrong Light 41, São Paulo, Brasil","phone":"+55 658719996","manager":"Ana Clara Fernandes","opening_hours":"Lunes a Sábado, 10:00–20:00","services":"Ventas, Entrega y recogida"}
{"branch_id":"BR-00442","store_type":"Tienda Mediana","size_m2":500,"category":"Productos de Limpieza","subcategory":"Desinfectantes","country":"Brasil","city":"São Paulo","address":"Stevens Ville 112, São Paulo, Brasil","phone":"+55 688955790","manager":"Igor Câmara","opening_hours":"Todos los días, 8:00–22:00","services":"Logística, Consultoría"}
{"branch_id":"BR-00443","store_type":"Tienda Mediana","size_m2":500,"category":"Cuidado Personal","subcategory":"Higiene","country":"Brasil","city":"São Paulo","address":"Robin Course 42, São Paulo, Brasil","phone":"+55 699799049","manager":"Ágatha Moreira","opening_hours":"Lunes a Sábado, 10:00–20:00","services":"Ventas, Reparaciones, Entrega y recogida"}
{"branch_id":"BR-00444","store_type":"Tienda Express","size_m2":200,"category":"Productos de Limpieza","subcategory":"Limpiadores multiusos","country":"Brasil","city":"São Paulo","address":"Elizabeth Divide 175, São Paulo, Brasil","phone":"+55 623011787","manager":"Larissa Melo","opening_hours":"Martes a Domingo, 11:00–19:00","services":"Atención al cliente, Reparaciones, Logística"}
{"branch_id":"BR-00445","store_type":"Tienda Express","size_m2":200,"category":"Productos de Limpieza","subcategory":"Limpiadores multiusos","country":"Brasil","city":"São Paulo","address":"Timothy Mountains 36, São Paulo, Brasil","phone":"+55 605282786","manager":"Thiago Souza","opening_hours":"Lunes a Viernes, 9:00–18:00","services":"Reparaciones, Entrega y recogida, Ventas, Consultoría"}
{"branch_id":"BR-00446","store_type":"Tienda Express","size_m2":200,"category":"Productos de Limpieza","subcategory":"Detergentes","country":"Brasil","city":"São Paulo","address":"Eric Union 31, São Paulo, Brasil","phone":"+55 684990458","manager":"Milena Ramos","opening_hours":"Lunes a Viernes, 8:30–17:30","services":"Atención al cliente, Reparaciones, Consultoría, Logística"}
{"branch_id":"BR-00447","store_type":"Tienda Express","size_m2":200,"category":"Alimentos","subcategory":"Comida Congelada","country":"Brasil","city":"São Paulo","address":"Jackson Tunnel 115, São Paulo, Brasil","phone":"+55 678912054","manager":"Beatriz Guerra","opening_hours":"Lunes a Viernes, 8:30–17:30","services":"Consultoría, Entrega y recogida, Logística, Atención al cliente"}
{"branch_id":"BR-00448","store_type":"Tienda Express","size_m2":200,"category":"Cuidado Personal","subcategory":"Higiene","country":"Brasil","city":"São Paulo","address":"Mark Lodge 103, São Paulo, Brasil","phone":"+55 622596147","manager":"Dr. Daniel Casa Grande","opening_hours":"Martes a Domingo, 11:00–19:00","services":"Reparaciones, Ventas, Soporte técnico, Consultoría"}
{"branch_id":"BR-00449","store_type":"Tienda Express","size_m2":200,"category":"Cuidado Personal","subcategory":"Farmacéuticos","country":"Brasil","city":"São Paulo","address":"Jacobs Estate 112, São Paulo, Brasil","phone":"+55 663495179","manager":"Antony Fonseca","opening_hours":"Lunes a Viernes, 9:00–18:00","services":"Atención al cliente, Logística"}
{"branch_id":"BR-00450","store_type":"Tienda Express","size_m2":200,"category":"Alimentos","subcategory":"Frutas y Verduras","country":"Brasil","city":"São Paulo","address":"Smith Hills 118, São Paulo, Brasil","phone":"+55 606667916","manager":"Otávio Casa Grande","opening_hours":"Todos los días, 8:00–22:00","services":"Entrega y recogida, Consultoría"}
{"branch_id":"BR-00451","store_type":"Tienda Express","size_m2":200,"category":"Alimentos","subcategory":"Carnes y Embutidos","country":"Brasil","city":"São Paulo","address":"Crystal Estates 23, São Paulo, Brasil","phone":"+55 684383345","manager":"Melina da Conceição","opening_hours":"Todos los días, 8:00–22:00","services":"Atención al cliente, Soporte técnico, Reparaciones, Entrega y recogida"}
{"branch_id":"BR-00452","store_type":"Tienda Express","size_m2":200,"category":"Productos de Limpieza","subcategory":"Escobas y utensilios","country":"Brasil","city":"São Paulo","address":"Ryan Point 135, São Paulo, Brasil","phone":"+55 603108530","manager":"Maria Sophia Campos","opening_hours":"Martes a Domingo, 11:00–19:00","services":"Entrega y recogida, Soporte técnico"}
{"branch_id":"BR-00453","store_type":"Tienda Express","size_m2":200,"category":"Productos de Limpieza","subcategory":"Escobas y utensilios","country":"Brasil","city":"São Paulo","address":"Kathy Ranch 56, São Paulo, Brasil","phone":"+55 690070873","manager":"Sr. Thiago Rocha","opening_hours":"Todos los días, 8:00–22:00","services":"Soporte técnico, Ventas, Reparaciones"}
{"branch_id":"BR-00454","store_type":"Tienda Express","size_m2":200,"category":"Alimentos","subcategory":"Comida Congelada","country":"Brasil","city":"São Paulo","address":"Peterson Port 20, São Paulo, Brasil","phone":"+55 666321770","manager":"Dr. Arthur Campos","opening_hours":"Lunes a Viernes, 8:30–17:30","services":"Reparaciones, Ventas, Atención al cliente, Soporte técnico"}
{"branch_id":"BR-00455","store_type":"Tienda Express","size_m2":200,"category":"Productos de Limpieza","subcategory":"Desinfectantes","country":"Brasil","city":"São Paulo","address":"Hall Vista 5, São Paulo, Brasil","phone":"+55 635113858","manager":"Melissa Machado","opening_hours":"Lunes a Sábado, 10:00–20:00","services":"Consultoría, Logística, Ventas"}
{"branch_id":"BR-00456","store_type":"Tienda Express","size_m2":200,"category":"Cuidado Personal","subcategory":"Higiene","country":"Brasil","city":"São Paulo","address":"David Pines 74, São Paulo, Brasil","phone":"+55 642357176","manager":"Gustavo Cardoso","opening_hours":"Todos los días, 8:00–22:00","services":"Ventas, Soporte técnico, Reparaciones, Logística"}
{"branch_id":"BR-00457","store_type":"Hipermercado","size_m2":3000,"category":"Accesorios y Repuestos","subcategory":"Automotrices","country":"China","city":"Pekín","address":"Brown Drives 112, Pekín, China","phone":"+86 659505788","manager":"贺冬梅","opening_hours":"Todos los días, 8:00–22:00","services":"Logística, Entrega y recogida, Atención al cliente, Consultoría"}
{"branch_id":"BR-00458","store_type":"Hipermercado","size_m2":3000,"category":"Alimentos","subcategory":"Comida Congelada","country":"China","city":"Pekín","address":"Timothy Shoals 24, Pekín, China","phone":"+86 615209624","manager":"王凤英","opening_hours":"Lunes a Viernes, 9:00–18:00","services":"Ventas, Reparaciones"}
{"branch_id":"BR-00459","store_type":"Supermercado","size_m2":1500,"category":"Cuidado Personal","subcategory":"Cosméticos","country":"China","city":"Pekín","address":"Fitzgerald Land 47, Pekín, China","phone":"+86 600669175","manager":"冯莹","opening_hours":"Lunes a Viernes, 9:00–18:00","services":"Ventas, Soporte técnico, Logística, Consultoría"}
{"branch_id":"BR-00460","store_type":"Supermercado","size_m2":1500,"category":"Electrónica","subcategory":"Audio y Video","country":"China","city":"Pekín","address":"Edward Fields 164, Pekín, China","phone":"+86 641361689","manager":"王桂兰","opening_hours":"Lunes a Viernes, 8:30–17:30","services":"Ventas, Entrega y recogida, Reparaciones, Soporte técnico"}
{"branch_id":"BR-00461","store_type":"Supermercado","size_m2":1500,"category":"Hogar y Decoración","subcategory":"Organización","country":"China","city":"Pekín","address":"Bush Motorway 18, Pekín, China","phone":"+86 687869831","manager":"马畅","opening_hours":"Todos los días, 8:00–22:00","services":"Soporte técnico, Consultoría"}
{"branch_id":"BR-00462","store_type":"Supermercado","size_m2":1500,"category":"Hogar y Decoración","subcategory":"Organización","country":"China","city":"Pekín","address":"Thomas Loaf 196, Pekín, China","phone":"+86 613394170","manager":"章博","opening_hours":"Martes a Domingo, 11:00–19:00","services":"Soporte técnico, Consultoría, Ventas"}
{"branch_id":"BR-00463","store_type":"Supermercado","size_m2":1500,"category":"Ropa","subcategory":"Deportivo","country":"China","city":"Pekín","address":"White Plain 173, Pekín, China","phone":"+86 681826263","manager":"汪荣","opening_hours":"Lunes a Sábado, 10:00–20:00","services":"Logística, Ventas, Reparaciones, Atención al cliente"}
{"branch_id":"BR-00464","store_type":"Supermercado","size_m2":1500,"category":"Ropa","subcategory":"Moda Hombre","country":"China","city":"Pekín","address":"George Plains 4, Pekín, China","phone":"+86 641759517","manager":"蔡鑫","opening_hours":"Todos los días, 8:00–22:00","services":"Ventas, Atención al cliente"}
{"branch_id":"BR-00465","store_type":"Supermercado","size_m2":1500,"category":"Hogar y Decoración","subcategory":"Arte decorativo","country":"China","city":"Pekín","address":"Kevin Summit 89, Pekín, China","phone":"+86 632087626","manager":"姜文","opening_hours":"Todos los días, 8:00–22:00","services":"Consultoría, Reparaciones"}
{"branch_id":"BR-00466","store_type":"Supermercado","size_m2":1500,"category":"Productos de Limpieza","subcategory":"Detergentes","country":"China","city":"Pekín","address":"Alvarez Plaza 124, Pekín, China","phone":"+86 695374826","manager":"黄凯","opening_hours":"Martes a Domingo, 11:00–19:00","services":"Consultoría, Reparaciones, Logística, Soporte técnico"}
{"branch_id":"BR-00467","store_type":"Tienda Mediana","size_m2":500,"category":"Cuidado Personal","subcategory":"Higiene","country":"China","city":"Pekín","address":"Nelson Curve 10, Pekín, China","phone":"+86 682896551","manager":"程鹏","opening_hours":"Todos los días, 8:00–22:00","services":"Soporte técnico, Atención al cliente"}
{"branch_id":"BR-00468","store_type":"Tienda Mediana","size_m2":500,"category":"Cuidado Personal","subcategory":"Higiene","country":"China","city":"Pekín","address":"Albert Burg 128, Pekín, China","phone":"+86 633096745","manager":"黄淑兰","opening_hours":"Lunes a Sábado, 10:00–20:00","services":"Soporte técnico, Entrega y recogida, Ventas, Atención al cliente"}
{"branch_id":"BR-00469","store_type":"Tienda Mediana","size_m2":500,"category":"Cuidado Personal","subcategory":"Higiene","country":"China","city":"Pekín","address":"Anne Prairie 80, Pekín, China","phone":"+86 698341717","manager":"阳宁","opening_hours":"Lunes a Sábado, 10:00–20:00","services":"Soporte técnico, Ventas"}
{"branch_id":"BR-00470","store_type":"Tienda Mediana","size_m2":500,"category":"Ropa","subcategory":"Moda Mujer","country":"China","city":"Pekín","address":"Wolfe Light 149, Pekín, China","phone":"+86 633637026","manager":"傅建军","opening_hours":"Lunes a Viernes, 8:30–17:30","services":"Entrega y recogida, Soporte técnico, Reparaciones, Atención al cliente"}
{"branch_id":"BR-00471","store_type":"Tienda Mediana","size_m2":500,"category":"Ropa","subcategory":"Deportivo","country":"China","city":"Pekín","address":"Miller Viaduct 143, Pekín, China","phone":"+86 607784696","manager":"刘秀芳","opening_hours":"Martes a Domingo, 11:00–19:00","services":"Reparaciones, Ventas"}
{"branch_id":"BR-00472","store_type":"Tienda Mediana","size_m2":500,"category":"Productos de Limpieza","subcategory":"Desinfectantes","country":"China","city":"Pekín","address":"Marvin Trafficway 174, Pekín, China","phone":"+86 604914949","manager":"黄柳","opening_hours":"Lunes a Viernes, 8:30–17:30","services":"Reparaciones, Logística, Entrega y recogida, Soporte técnico"}
{"branch_id":"BR-00473","store_type":"Tienda Mediana","size_m2":500,"category":"Alimentos","subcategory":"Bebidas","country":"China","city":"Pekín","address":"Angela Club 103, Pekín, China","phone":"+86 690959703","manager":"杭凤兰","opening_hours":"Martes a Domingo, 11:00–19:00","services":"Soporte técnico, Ventas"}
{"branch_id":"BR-00474","store_type":"Tienda Mediana","size_m2":500,"category":"Productos de Limpieza","subcategory":"Desinfectantes","country":"China","city":"Pekín","address":"Stephanie Plaza 28, Pekín, China","phone":"+86 631066432","manager":"余刚","opening_hours":"Lunes a Viernes, 8:30–17:30","services":"Logística, Soporte técnico, Reparaciones, Ventas"}
{"branch_id":"BR-00475","store_type":"Tienda Mediana","size_m2":500,"category":"Productos de Limpieza","subcategory":"Limpiadores multiusos","country":"China","city":"Pekín","address":"Laura Point 118, Pekín, China","phone":"+86 636597388","manager":"张兰英","opening_hours":"Lunes a Viernes, 8:30–17:30","services":"Entrega y recogida, Soporte técnico"}
{"branch_id":"BR-00476","store_type":"Tienda Mediana","size_m2":500,"category":"Cuidado Personal","subcategory":"Higiene","country":"China","city":"Pekín","address":"Cook Oval 48, Pekín, China","phone":"+86 631869074","manager":"梁东","opening_hours":"Martes a Domingo, 11:00–19:00","services":"Ventas, Soporte técnico"}
{"branch_id":"BR-00477","store_type":"Tienda Mediana","size_m2":500,"category":"Productos de Limpieza","subcategory":"Limpiadores multiusos","country":"China","city":"Pekín","address":"Allen Stream 60, Pekín, China","phone":"+86 602893171","manager":"袁辉","opening_hours":"Martes a Domingo, 11:00–19:00","services":"Ventas, Atención al cliente"}
{"branch_id":"BR-00478","store_type":"Tienda Mediana","size_m2":500,"category":"Cuidado Personal","subcategory":"Cosméticos","country":"China","city":"Pekín","address":"Michael Coves 43, Pekín, China","phone":"+86 661819963","manager":"李桂花","opening_hours":"Todos los días, 8:00–22:00","services":"Logística, Soporte técnico, Reparaciones, Consultoría"}
{"branch_id":"BR-00479","store_type":"Tienda Mediana","size_m2":500,"category":"Productos de Limpieza","subcategory":"Ambientadores","country":"China","city":"Pekín","address":"Julia Path 102, Pekín, China","phone":"+86 606974026","manager":"周静","opening_hours":"Lunes a Viernes, 8:30–17:30","services":"Atención al cliente, Entrega y recogida, Reparaciones"}
{"branch_id":"BR-00480","store_type":"Tienda Mediana","size_m2":500,"category":"Cuidado Personal","subcategory":"Farmacéuticos","country":"China","city":"Pekín","address":"Williams Forge 103, Pekín, China","phone":"+86 662341521","manager":"程楠","opening_hours":"Lunes a Viernes, 8:30–17:30","services":"Consultoría, Atención al cliente, Entrega y recogida, Soporte técnico"}
{"branch_id":"BR-00481","store_type":"Tienda Mediana","size_m2":500,"category":"Alimentos","subcategory":"Comida Congelada","country":"China","city":"Pekín","address":"Brown Port 158, Pekín, China","phone":"+86 646395820","manager":"莫丽娟","opening_hours":"Martes a Domingo, 11:00–19:00","services":"Entrega y recogida, Reparaciones, Ventas, Logística"}
{"branch_id":"BR-00482","store_type":"Tienda Express","size_m2":200,"category":"Alimentos","subcategory":"Bebidas","country":"China","city":"Pekín","address":"Connie Plaza 138, Pekín, China","phone":"+86 617095282","manager":"李桂荣","opening_hours":"Lunes a Viernes, 8:30–17:30","services":"Consultoría, Logística"}
{"branch_id":"BR-00483","store_type":"Tienda Express","size_m2":200,"category":"Alimentos","subcategory":"Comida Congelada","country":"China","city":"Pekín","address":"Kevin Pike 98, Pekín, China","phone":"+86 677772888","manager":"孙博","opening_hours":"Martes a Domingo, 11:00–19:00","services":"Reparaciones, Soporte técnico, Atención al cliente, Ventas"}
{"branch_id":"BR-00484","store_type":"Tienda Express","size_m2":200,"category":"Alimentos","subcategory":"Frutas y Verduras","country":"China","city":"Pekín","address":"Graves Coves 46, Pekín, China","phone":"+86 698322050","manager":"曾秀英","opening_hours":"Martes a Domingo, 11:00–19:00","services":"Ventas, Atención al cliente"}
{"branch_id":"BR-00485","store_type":"Tienda Express","size_m2":200,"category":"Productos de Limpieza","subcategory":"Detergentes","country":"China","city":"Pekín","address":"Hampton Stravenue 93, Pekín, China","phone":"+86 625781415","manager":"张秀英","opening_hours":"Lunes a Viernes, 8:30–17:30","services":"Atención al cliente, Reparaciones, Logística, Ventas"}
{"branch_id":"BR-00486","store_type":"Tienda Express","size_m2":200,"category":"Cuidado Personal","subcategory":"Nutrición","country":"China","city":"Pekín","address":"Shields Overpass 68, Pekín, China","phone":"+86 660769751","manager":"张桂香","opening_hours":"Lunes a Sábado, 10:00–20:00","services":"Atención al cliente, Consultoría"}
{"branch_id":"BR-00487","store_type":"Tienda Express","size_m2":200,"category":"Productos de Limpieza","subcategory":"Escobas y utensilios","country":"China","city":"Pekín","address":"Macdonald Fork 171, Pekín, China","phone":"+86 668810421","manager":"王冬梅","opening_hours":"Lunes a Viernes, 8:30–17:30","services":"Ventas, Reparaciones"}
{"branch_id":"BR-00488","store_type":"Tienda Express","size_m2":200,"category":"Alimentos","subcategory":"Bebidas","country":"China","city":"Pekín","address":"Andrew Brooks 22, Pekín, China","phone":"+86 647550470","manager":"蔡玉梅","opening_hours":"Lunes a Viernes, 9:00–18:00","services":"Atención al cliente, Ventas, Logística, Reparaciones"}
{"branch_id":"BR-00489","store_type":"Tienda Express","size_m2":200,"category":"Cuidado Personal","subcategory":"Nutrición","country":"China","city":"Pekín","address":"Greer Mission 161, Pekín, China","phone":"+86 653628443","manager":"熊红","opening_hours":"Lunes a Sábado, 10:00–20:00","services":"Logística, Reparaciones, Atención al cliente"}
{"branch_id":"BR-00490","store_type":"Tienda Express","size_m2":200,"category":"Productos de Limpieza","subcategory":"Escobas y utensilios","country":"China","city":"Pekín","address":"Estes Shores 49, Pekín, China","phone":"+86 621177402","manager":"朱桂兰","opening_hours":"Lunes a Viernes, 9:00–18:00","services":"Soporte técnico, Reparaciones"}
{"branch_id":"BR-00491","store_type":"Tienda Express","size_m2":200,"category":"Cuidado Personal","subcategory":"Nutrición","country":"China","city":"Pekín","address":"Davis Springs 69, Pekín, China","phone":"+86 698634523","manager":"史涛","opening_hours":"Martes a Domingo, 11:00–19:00","services":"Soporte técnico, Consultoría"}
{"branch_id":"BR-00492","store_type":"Tienda Express","size_m2":200,"category":"Cuidado Personal","subcategory":"Spa","country":"China","city":"Pekín","address":"Michael Track 51, Pekín, China","phone":"+86 625471657","manager":"谭建平","opening_hours":"Todos los días, 8:00–22:00","services":"Atención al cliente, Logística, Soporte técnico"}
{"branch_id":"BR-00493","store_type":"Tienda Express","size_m2":200,"category":"Cuidado Personal","subcategory":"Farmacéuticos","country":"China","city":"Pekín","address":"Thomas Plains 160, Pekín, China","phone":"+86 634291712","manager":"徐华","opening_hours":"Todos los días, 8:00–22:00","services":"Atención al cliente, Entrega y recogida, Reparaciones, Consultoría"}
{"branch_id":"BR-00494","store_type":"Tienda Express","size_m2":200,"category":"Alimentos","subcategory":"Frutas y Verduras","country":"China","city":"Pekín","address":"Lee Locks 191, Pekín, China","phone":"+86 695289298","manager":"李凤英","opening_hours":"Lunes a Viernes, 8:30–17:30","services":"Atención al cliente, Logística, Reparaciones"}
